geografia_sk,address_id,line1,line2,city,postal_code,country_code,nombre_provincia
1,1,Sucursal Buenos Aires - Av. Principal 101,,Buenos Aires,1001,AR,Buenos Aires
2,2,Sucursal Córdoba - Av. Principal 102,,Córdoba,1002,AR,Córdoba
3,3,Sucursal Santa Fe - Av. Principal 103,,Santa Fe,1003,AR,Santa Fe
4,4,Sucursal Mendoza - Av. Principal 104,,Mendoza,1004,AR,Mendoza
5,1001,Calle 5545,Piso 4 Dto B,Córdoba,4934,AR,Córdoba
6,1002,Calle 2808,Piso 9 Dto C,Rafaela,2071,AR,Santa Fe
7,1003,Calle 3108,Piso 4 Dto C,CABA,7131,AR,Buenos Aires
8,1004,Calle 4007,,Río Cuarto,9773,AR,Córdoba
9,1005,Calle 4050,Piso 1 Dto C,Santa Fe,3071,AR,Santa Fe
10,1006,Calle 3429,Piso 12 Dto A,Godoy Cruz,2062,AR,Mendoza
11,1007,Calle 8343,Piso 6 Dto B,Mar del Plata,3932,AR,Buenos Aires
12,1008,Calle 7919,Piso 12 Dto B,Río Cuarto,5396,AR,Córdoba
13,1009,Calle 600,,Río Cuarto,8406,AR,Córdoba
14,1010,Calle 6964,,La Plata,7129,AR,Buenos Aires
15,1011,Calle 1377,Piso 5 Dto B,Córdoba,4771,AR,Córdoba
16,1012,Calle 5512,Piso 7 Dto B,Mar del Plata,8086,AR,Buenos Aires
17,1013,Calle 5195,,La Plata,3942,AR,Buenos Aires
18,1014,Calle 1244,Piso 6 Dto A,Mar del Plata,9220,AR,Buenos Aires
19,1015,Calle 4529,,CABA,2168,AR,Buenos Aires
20,1016,Calle 5469,Piso 4 Dto C,CABA,5096,AR,Buenos Aires
21,1017,Calle 4497,,Río Cuarto,9898,AR,Córdoba
22,1018,Calle 4618,Piso 6 Dto B,La Plata,1194,AR,Buenos Aires
23,1019,Calle 6513,,Córdoba,8773,AR,Córdoba
24,1020,Calle 7680,Piso 12 Dto B,Mar del Plata,2406,AR,Buenos Aires
25,1021,Calle 6844,Piso 4 Dto B,Santa Fe,1493,AR,Santa Fe
26,1022,Calle 5007,Piso 12 Dto A,CABA,6810,AR,Buenos Aires
27,1023,Calle 6609,Piso 12 Dto C,La Plata,6342,AR,Buenos Aires
28,1024,Calle 2280,Piso 3 Dto B,Córdoba,7247,AR,Córdoba
29,1025,Calle 8758,Piso 7 Dto A,Mendoza,2779,AR,Mendoza
30,1026,Calle 4992,,Villa Carlos Paz,3910,AR,Córdoba
31,1027,Calle 8006,,Rafaela,2138,AR,Santa Fe
32,1028,Calle 4770,,CABA,8449,AR,Buenos Aires
33,1029,Calle 2816,Piso 6 Dto B,CABA,3572,AR,Buenos Aires
34,1030,Calle 7836,Piso 12 Dto A,La Plata,4382,AR,Buenos Aires
35,1031,Calle 7082,Piso 12 Dto C,Santa Fe,3601,AR,Santa Fe
36,1032,Calle 7520,,Río Cuarto,3337,AR,Córdoba
37,1033,Calle 9910,Piso 4 Dto C,La Plata,9043,AR,Buenos Aires
38,1034,Calle 1493,Piso 5 Dto C,CABA,6681,AR,Buenos Aires
39,1035,Calle 6801,Piso 4 Dto A,CABA,8501,AR,Buenos Aires
40,1036,Calle 9317,,Mendoza,4927,AR,Mendoza
41,1037,Calle 8811,,Mar del Plata,4559,AR,Buenos Aires
42,1038,Calle 1987,,Mar del Plata,9264,AR,Buenos Aires
43,1039,Calle 4142,,CABA,8572,AR,Buenos Aires
44,1040,Calle 7568,Piso 7 Dto B,Mar del Plata,4185,AR,Buenos Aires
45,1041,Calle 1879,Piso 12 Dto A,La Plata,8606,AR,Buenos Aires
46,1042,Calle 8986,Piso 11 Dto A,CABA,3297,AR,Buenos Aires
47,1043,Calle 2795,,Rosario,3903,AR,Santa Fe
48,1044,Calle 6404,,Mar del Plata,5476,AR,Buenos Aires
49,1045,Calle 3550,,CABA,8242,AR,Buenos Aires
50,1046,Calle 1685,Piso 7 Dto C,Rafaela,8274,AR,Santa Fe
51,1047,Calle 6184,Piso 4 Dto A,Córdoba,4908,AR,Córdoba
52,1048,Calle 458,,La Plata,2035,AR,Buenos Aires
53,1049,Calle 2751,,Mendoza,7810,AR,Mendoza
54,1050,Calle 5287,,La Plata,4393,AR,Buenos Aires
55,1051,Calle 1980,,La Plata,6842,AR,Buenos Aires
56,1052,Calle 5182,,La Plata,8516,AR,Buenos Aires
57,1053,Calle 6046,,La Plata,7735,AR,Buenos Aires
58,1054,Calle 1669,,Santa Fe,5127,AR,Santa Fe
59,1055,Calle 6367,,Río Cuarto,6440,AR,Córdoba
60,1056,Calle 5210,,Río Cuarto,6490,AR,Córdoba
61,1057,Calle 7355,,Río Cuarto,9248,AR,Córdoba
62,1058,Calle 2033,Piso 5 Dto A,Mar del Plata,4990,AR,Buenos Aires
63,1059,Calle 8172,,La Plata,7156,AR,Buenos Aires
64,1060,Calle 9799,Piso 8 Dto C,Córdoba,3199,AR,Córdoba
65,1061,Calle 8534,Piso 7 Dto C,CABA,1388,AR,Buenos Aires
66,1062,Calle 5616,,Santa Fe,5068,AR,Santa Fe
67,1063,Calle 8544,Piso 6 Dto A,Villa Carlos Paz,1099,AR,Córdoba
68,1064,Calle 3154,,Rosario,4345,AR,Santa Fe
69,1065,Calle 8993,,Mar del Plata,7983,AR,Buenos Aires
70,1066,Calle 3237,,Mar del Plata,5079,AR,Buenos Aires
71,1067,Calle 3300,,La Plata,6891,AR,Buenos Aires
72,1068,Calle 7232,Piso 7 Dto C,La Plata,3553,AR,Buenos Aires
73,1069,Calle 7003,,La Plata,3878,AR,Buenos Aires
74,1070,Calle 7432,Piso 5 Dto B,La Plata,2178,AR,Buenos Aires
75,1071,Calle 3207,,La Plata,1210,AR,Buenos Aires
76,1072,Calle 8052,Piso 7 Dto B,Villa Carlos Paz,7113,AR,Córdoba
77,1073,Calle 9639,,Mar del Plata,3039,AR,Buenos Aires
78,1074,Calle 3183,Piso 7 Dto B,Mendoza,9349,AR,Mendoza
79,1075,Calle 946,Piso 11 Dto B,Villa Carlos Paz,5043,AR,Córdoba
80,1076,Calle 463,,La Plata,5281,AR,Buenos Aires
81,1077,Calle 4167,,Mendoza,1202,AR,Mendoza
82,1078,Calle 6298,,Rafaela,9495,AR,Santa Fe
83,1079,Calle 6994,Piso 5 Dto C,Rosario,9202,AR,Santa Fe
84,1080,Calle 9603,Piso 5 Dto C,Villa Carlos Paz,2456,AR,Córdoba
85,1081,Calle 2339,,Villa Carlos Paz,7520,AR,Córdoba
86,1082,Calle 8057,,CABA,7845,AR,Buenos Aires
87,1083,Calle 7061,Piso 3 Dto A,La Plata,4053,AR,Buenos Aires
88,1084,Calle 8235,,CABA,4041,AR,Buenos Aires
89,1085,Calle 3144,Piso 5 Dto B,CABA,2789,AR,Buenos Aires
90,1086,Calle 6189,,CABA,6605,AR,Buenos Aires
91,1087,Calle 7950,,Villa Carlos Paz,2000,AR,Córdoba
92,1088,Calle 9543,,Rosario,9557,AR,Santa Fe
93,1089,Calle 4356,Piso 8 Dto B,Mar del Plata,8036,AR,Buenos Aires
94,1090,Calle 5165,Piso 4 Dto B,La Plata,7200,AR,Buenos Aires
95,1091,Calle 1642,Piso 1 Dto B,Godoy Cruz,3275,AR,Mendoza
96,1092,Calle 4579,Piso 12 Dto A,Río Cuarto,8404,AR,Córdoba
97,1093,Calle 3080,Piso 1 Dto C,Mar del Plata,1272,AR,Buenos Aires
98,1094,Calle 5334,,Rafaela,8938,AR,Santa Fe
99,1095,Calle 5708,,Córdoba,7305,AR,Córdoba
100,1096,Calle 2346,,Río Cuarto,3094,AR,Córdoba
101,1097,Calle 8991,Piso 8 Dto A,Santa Fe,2895,AR,Santa Fe
102,1098,Calle 3988,,Córdoba,2728,AR,Córdoba
103,1099,Calle 2626,Piso 6 Dto B,Mendoza,4610,AR,Mendoza
104,1100,Calle 2017,Piso 11 Dto A,Río Cuarto,2481,AR,Córdoba
105,1101,Calle 9842,Piso 2 Dto C,Rafaela,7176,AR,Santa Fe
106,1102,Calle 7160,Piso 4 Dto A,Río Cuarto,2895,AR,Córdoba
107,1103,Calle 5575,,CABA,2902,AR,Buenos Aires
108,1104,Calle 6230,,La Plata,6092,AR,Buenos Aires
109,1105,Calle 6360,Piso 7 Dto B,Córdoba,3069,AR,Córdoba
110,1106,Calle 3640,,Río Cuarto,9819,AR,Córdoba
111,1107,Calle 3587,Piso 8 Dto C,La Plata,3415,AR,Buenos Aires
112,1108,Calle 563,Piso 10 Dto B,Mar del Plata,9230,AR,Buenos Aires
113,1109,Calle 9404,,Mar del Plata,9110,AR,Buenos Aires
114,1110,Calle 964,,Villa Carlos Paz,4687,AR,Córdoba
115,1111,Calle 7988,Piso 12 Dto B,Mendoza,3608,AR,Mendoza
116,1112,Calle 6922,Piso 11 Dto B,La Plata,7412,AR,Buenos Aires
117,1113,Calle 4638,,Mar del Plata,9978,AR,Buenos Aires
118,1114,Calle 9510,Piso 1 Dto C,La Plata,8496,AR,Buenos Aires
119,1115,Calle 7905,,Villa Carlos Paz,4573,AR,Córdoba
120,1116,Calle 5935,,Córdoba,3418,AR,Córdoba
121,1117,Calle 2757,Piso 1 Dto A,Godoy Cruz,8763,AR,Mendoza
122,1118,Calle 8445,Piso 11 Dto B,Mendoza,3434,AR,Mendoza
123,1119,Calle 3947,Piso 7 Dto B,CABA,3826,AR,Buenos Aires
124,1120,Calle 1469,Piso 8 Dto C,Rafaela,5509,AR,Santa Fe
125,1121,Calle 1911,Piso 2 Dto A,CABA,9351,AR,Buenos Aires
126,1122,Calle 9382,,Mar del Plata,3967,AR,Buenos Aires
127,1123,Calle 7106,,Mar del Plata,2629,AR,Buenos Aires
128,1124,Calle 3030,,Mar del Plata,7451,AR,Buenos Aires
129,1125,Calle 8005,,Rafaela,4399,AR,Santa Fe
130,1126,Calle 2949,Piso 1 Dto C,Mar del Plata,6149,AR,Buenos Aires
131,1127,Calle 3379,,Mar del Plata,5206,AR,Buenos Aires
132,1128,Calle 8293,,CABA,7931,AR,Buenos Aires
133,1129,Calle 8511,Piso 5 Dto C,CABA,3291,AR,Buenos Aires
134,1130,Calle 5770,,Río Cuarto,2622,AR,Córdoba
135,1131,Calle 2322,,CABA,4539,AR,Buenos Aires
136,1132,Calle 6915,Piso 2 Dto C,Mar del Plata,5270,AR,Buenos Aires
137,1133,Calle 6555,Piso 8 Dto A,Córdoba,7968,AR,Córdoba
138,1134,Calle 4414,,CABA,7097,AR,Buenos Aires
139,1135,Calle 9912,,Río Cuarto,6183,AR,Córdoba
140,1136,Calle 4056,,Mar del Plata,9707,AR,Buenos Aires
141,1137,Calle 1081,,Villa Carlos Paz,6944,AR,Córdoba
142,1138,Calle 3699,,Rosario,7179,AR,Santa Fe
143,1139,Calle 2024,Piso 3 Dto C,CABA,9021,AR,Buenos Aires
144,1140,Calle 9375,Piso 5 Dto C,Mar del Plata,2623,AR,Buenos Aires
145,1141,Calle 2961,Piso 6 Dto C,La Plata,8812,AR,Buenos Aires
146,1142,Calle 8415,,Mar del Plata,3337,AR,Buenos Aires
147,1143,Calle 867,Piso 12 Dto C,Villa Carlos Paz,5081,AR,Córdoba
148,1144,Calle 7192,Piso 6 Dto B,Córdoba,5519,AR,Córdoba
149,1145,Calle 3749,,Mar del Plata,6007,AR,Buenos Aires
150,1146,Calle 1303,,Rosario,2534,AR,Santa Fe
151,1147,Calle 4684,,Córdoba,7946,AR,Córdoba
152,1148,Calle 7859,,Mendoza,7643,AR,Mendoza
153,1149,Calle 120,Piso 12 Dto B,Río Cuarto,5001,AR,Córdoba
154,1150,Calle 9952,,Córdoba,3864,AR,Córdoba
155,1151,Calle 8417,Piso 6 Dto A,CABA,9118,AR,Buenos Aires
156,1152,Calle 5538,,CABA,5752,AR,Buenos Aires
157,1153,Calle 3491,Piso 1 Dto C,La Plata,4562,AR,Buenos Aires
158,1154,Calle 8447,Piso 1 Dto B,San Rafael,1942,AR,Mendoza
159,1155,Calle 5383,,La Plata,1084,AR,Buenos Aires
160,1156,Calle 6588,,Rosario,8058,AR,Santa Fe
161,1157,Calle 8427,,Mar del Plata,8985,AR,Buenos Aires
162,1158,Calle 4099,Piso 4 Dto B,Mar del Plata,7132,AR,Buenos Aires
163,1159,Calle 8789,Piso 5 Dto A,CABA,8198,AR,Buenos Aires
164,1160,Calle 7111,,Mar del Plata,2813,AR,Buenos Aires
165,1161,Calle 6465,Piso 7 Dto C,CABA,1517,AR,Buenos Aires
166,1162,Calle 4355,Piso 2 Dto B,Villa Carlos Paz,9119,AR,Córdoba
167,1163,Calle 8223,Piso 12 Dto C,La Plata,3153,AR,Buenos Aires
168,1164,Calle 2067,,Mendoza,4874,AR,Mendoza
169,1165,Calle 7040,,Villa Carlos Paz,8116,AR,Córdoba
170,1166,Calle 1354,,La Plata,9376,AR,Buenos Aires
171,1167,Calle 4318,Piso 12 Dto A,CABA,4250,AR,Buenos Aires
172,1168,Calle 8231,,Córdoba,3436,AR,Córdoba
173,1169,Calle 629,,La Plata,7984,AR,Buenos Aires
174,1170,Calle 835,Piso 7 Dto B,Córdoba,4791,AR,Córdoba
175,1171,Calle 1006,,La Plata,5985,AR,Buenos Aires
176,1172,Calle 5752,,La Plata,6240,AR,Buenos Aires
177,1173,Calle 855,Piso 11 Dto C,CABA,4473,AR,Buenos Aires
178,1174,Calle 1651,Piso 7 Dto A,Mar del Plata,9049,AR,Buenos Aires
179,1175,Calle 1588,,CABA,6426,AR,Buenos Aires
180,1176,Calle 9649,Piso 9 Dto C,Villa Carlos Paz,4903,AR,Córdoba
181,1177,Calle 1430,,La Plata,1672,AR,Buenos Aires
182,1178,Calle 1617,Piso 2 Dto C,La Plata,5939,AR,Buenos Aires
183,1179,Calle 8742,,Mendoza,3094,AR,Mendoza
184,1180,Calle 4138,Piso 9 Dto B,Mar del Plata,8347,AR,Buenos Aires
185,1181,Calle 7911,,Mendoza,3735,AR,Mendoza
186,1182,Calle 4746,,Córdoba,4116,AR,Córdoba
187,1183,Calle 8413,Piso 2 Dto A,Mar del Plata,9344,AR,Buenos Aires
188,1184,Calle 6568,,Villa Carlos Paz,4015,AR,Córdoba
189,1185,Calle 9702,Piso 12 Dto A,CABA,9254,AR,Buenos Aires
190,1186,Calle 4856,,CABA,3803,AR,Buenos Aires
191,1187,Calle 4782,,CABA,5550,AR,Buenos Aires
192,1188,Calle 4080,,CABA,1022,AR,Buenos Aires
193,1189,Calle 5318,Piso 2 Dto C,Villa Carlos Paz,3189,AR,Córdoba
194,1190,Calle 5319,,Santa Fe,6824,AR,Santa Fe
195,1191,Calle 2896,,Villa Carlos Paz,7258,AR,Córdoba
196,1192,Calle 9902,Piso 9 Dto A,Rafaela,4614,AR,Santa Fe
197,1193,Calle 6480,,Mar del Plata,8109,AR,Buenos Aires
198,1194,Calle 1536,Piso 8 Dto A,La Plata,4031,AR,Buenos Aires
199,1195,Calle 2956,,La Plata,6081,AR,Buenos Aires
200,1196,Calle 9959,,Santa Fe,2180,AR,Santa Fe
201,1197,Calle 6595,,Mar del Plata,1193,AR,Buenos Aires
202,1198,Calle 1803,,CABA,3165,AR,Buenos Aires
203,1199,Calle 2337,,Santa Fe,1153,AR,Santa Fe
204,1200,Calle 1393,Piso 4 Dto A,La Plata,8279,AR,Buenos Aires
205,1201,Calle 2532,Piso 4 Dto A,La Plata,9906,AR,Buenos Aires
206,1202,Calle 1685,,CABA,9381,AR,Buenos Aires
207,1203,Calle 394,Piso 4 Dto B,CABA,3414,AR,Buenos Aires
208,1204,Calle 6304,,Córdoba,9057,AR,Córdoba
209,1205,Calle 1667,,Mendoza,6467,AR,Mendoza
210,1206,Calle 711,,CABA,8022,AR,Buenos Aires
211,1207,Calle 6968,Piso 3 Dto C,CABA,5702,AR,Buenos Aires
212,1208,Calle 8180,Piso 11 Dto B,Santa Fe,2251,AR,Santa Fe
213,1209,Calle 2402,Piso 6 Dto A,Rosario,8318,AR,Santa Fe
214,1210,Calle 9468,Piso 7 Dto C,Rosario,3370,AR,Santa Fe
215,1211,Calle 2980,Piso 7 Dto B,CABA,9097,AR,Buenos Aires
216,1212,Calle 9859,,La Plata,5028,AR,Buenos Aires
217,1213,Calle 8827,,La Plata,7301,AR,Buenos Aires
218,1214,Calle 8634,,Villa Carlos Paz,2429,AR,Córdoba
219,1215,Calle 282,Piso 6 Dto C,CABA,3188,AR,Buenos Aires
220,1216,Calle 5913,Piso 3 Dto B,La Plata,3361,AR,Buenos Aires
221,1217,Calle 3974,,Godoy Cruz,3257,AR,Mendoza
222,1218,Calle 2345,,San Rafael,7958,AR,Mendoza
223,1219,Calle 9530,,CABA,1494,AR,Buenos Aires
224,1220,Calle 4015,Piso 2 Dto A,CABA,3452,AR,Buenos Aires
225,1221,Calle 8642,Piso 12 Dto B,CABA,7742,AR,Buenos Aires
226,1222,Calle 217,,Mar del Plata,1983,AR,Buenos Aires
227,1223,Calle 8246,Piso 3 Dto A,Córdoba,7940,AR,Córdoba
228,1224,Calle 9373,,Villa Carlos Paz,7941,AR,Córdoba
229,1225,Calle 8545,,CABA,7560,AR,Buenos Aires
230,1226,Calle 9164,Piso 10 Dto A,CABA,8821,AR,Buenos Aires
231,1227,Calle 6234,Piso 3 Dto A,Villa Carlos Paz,7950,AR,Córdoba
232,1228,Calle 1275,Piso 6 Dto C,CABA,1459,AR,Buenos Aires
233,1229,Calle 1745,,Mar del Plata,6064,AR,Buenos Aires
234,1230,Calle 531,,Río Cuarto,1735,AR,Córdoba
235,1231,Calle 749,,Godoy Cruz,6056,AR,Mendoza
236,1232,Calle 6524,Piso 9 Dto A,Godoy Cruz,7400,AR,Mendoza
237,1233,Calle 1596,,San Rafael,9227,AR,Mendoza
238,1234,Calle 7815,Piso 10 Dto A,La Plata,3641,AR,Buenos Aires
239,1235,Calle 1529,,Córdoba,3307,AR,Córdoba
240,1236,Calle 8460,Piso 12 Dto C,San Rafael,8331,AR,Mendoza
241,1237,Calle 7060,Piso 1 Dto C,La Plata,4917,AR,Buenos Aires
242,1238,Calle 1229,Piso 3 Dto C,San Rafael,2595,AR,Mendoza
243,1239,Calle 8965,,La Plata,8451,AR,Buenos Aires
244,1240,Calle 2646,Piso 2 Dto B,La Plata,6789,AR,Buenos Aires
245,1241,Calle 7549,Piso 5 Dto B,Mar del Plata,8242,AR,Buenos Aires
246,1242,Calle 8000,Piso 1 Dto B,San Rafael,7568,AR,Mendoza
247,1243,Calle 2114,Piso 8 Dto B,Rafaela,7122,AR,Santa Fe
248,1244,Calle 7375,,Río Cuarto,1934,AR,Córdoba
249,1245,Calle 131,Piso 3 Dto A,Río Cuarto,7157,AR,Córdoba
250,1246,Calle 3655,,Córdoba,6716,AR,Córdoba
251,1247,Calle 7617,,Mar del Plata,2775,AR,Buenos Aires
252,1248,Calle 6579,Piso 6 Dto A,Rosario,6610,AR,Santa Fe
253,1249,Calle 7803,Piso 2 Dto B,Mar del Plata,1627,AR,Buenos Aires
254,1250,Calle 2385,Piso 11 Dto A,La Plata,1513,AR,Buenos Aires
255,1251,Calle 7047,,La Plata,4465,AR,Buenos Aires
256,1252,Calle 6930,,San Rafael,2369,AR,Mendoza
257,1253,Calle 1339,Piso 5 Dto C,La Plata,7876,AR,Buenos Aires
258,1254,Calle 3016,Piso 1 Dto A,La Plata,6603,AR,Buenos Aires
259,1255,Calle 6867,,La Plata,8156,AR,Buenos Aires
260,1256,Calle 6376,,San Rafael,2274,AR,Mendoza
261,1257,Calle 5186,Piso 1 Dto A,Mar del Plata,3416,AR,Buenos Aires
262,1258,Calle 6659,,Rosario,8381,AR,Santa Fe
263,1259,Calle 9477,,Río Cuarto,4074,AR,Córdoba
264,1260,Calle 9846,Piso 7 Dto A,Córdoba,4436,AR,Córdoba
265,1261,Calle 236,,San Rafael,5947,AR,Mendoza
266,1262,Calle 8178,Piso 11 Dto B,CABA,7723,AR,Buenos Aires
267,1263,Calle 6978,,Mar del Plata,3880,AR,Buenos Aires
268,1264,Calle 9057,Piso 10 Dto A,CABA,7251,AR,Buenos Aires
269,1265,Calle 7168,,Rafaela,2435,AR,Santa Fe
270,1266,Calle 6739,,CABA,8276,AR,Buenos Aires
271,1267,Calle 4750,,Córdoba,8448,AR,Córdoba
272,1268,Calle 7694,Piso 2 Dto B,CABA,7765,AR,Buenos Aires
273,1269,Calle 3669,Piso 9 Dto B,La Plata,5333,AR,Buenos Aires
274,1270,Calle 3958,,Santa Fe,1254,AR,Santa Fe
275,1271,Calle 8503,Piso 12 Dto C,La Plata,6490,AR,Buenos Aires
276,1272,Calle 3963,,Godoy Cruz,7444,AR,Mendoza
277,1273,Calle 7031,Piso 3 Dto C,Rafaela,3846,AR,Santa Fe
278,1274,Calle 2596,,San Rafael,3069,AR,Mendoza
279,1275,Calle 6423,,Mar del Plata,6282,AR,Buenos Aires
280,1276,Calle 7167,,CABA,1455,AR,Buenos Aires
281,1277,Calle 9369,,Mendoza,8433,AR,Mendoza
282,1278,Calle 3634,,Mar del Plata,7194,AR,Buenos Aires
283,1279,Calle 1360,,Villa Carlos Paz,2694,AR,Córdoba
284,1280,Calle 2011,Piso 2 Dto A,Mar del Plata,5292,AR,Buenos Aires
285,1281,Calle 5922,,La Plata,9045,AR,Buenos Aires
286,1282,Calle 1251,Piso 4 Dto C,La Plata,7148,AR,Buenos Aires
287,1283,Calle 2640,,Villa Carlos Paz,3927,AR,Córdoba
288,1284,Calle 5682,,La Plata,3595,AR,Buenos Aires
289,1285,Calle 3160,,Córdoba,9486,AR,Córdoba
290,1286,Calle 5979,,Rosario,6366,AR,Santa Fe
291,1287,Calle 2074,Piso 5 Dto B,Mar del Plata,4264,AR,Buenos Aires
292,1288,Calle 4823,Piso 8 Dto C,Mar del Plata,8144,AR,Buenos Aires
293,1289,Calle 4098,Piso 3 Dto A,Mendoza,7436,AR,Mendoza
294,1290,Calle 5106,Piso 3 Dto A,Río Cuarto,8101,AR,Córdoba
295,1291,Calle 4452,,Mar del Plata,7275,AR,Buenos Aires
296,1292,Calle 6127,Piso 11 Dto A,La Plata,3740,AR,Buenos Aires
297,1293,Calle 9616,Piso 7 Dto B,Godoy Cruz,7525,AR,Mendoza
298,1294,Calle 7036,,La Plata,2190,AR,Buenos Aires
299,1295,Calle 2377,,Villa Carlos Paz,6219,AR,Córdoba
300,1296,Calle 7625,,Córdoba,2085,AR,Córdoba
301,1297,Calle 8639,Piso 4 Dto A,CABA,2225,AR,Buenos Aires
302,1298,Calle 5207,,Villa Carlos Paz,1813,AR,Córdoba
303,1299,Calle 6902,Piso 2 Dto A,La Plata,3803,AR,Buenos Aires
304,1300,Calle 9444,,Córdoba,1076,AR,Córdoba
305,1301,Calle 607,,La Plata,6527,AR,Buenos Aires
306,1302,Calle 6801,Piso 12 Dto B,CABA,6196,AR,Buenos Aires
307,1303,Calle 5132,,Mar del Plata,7444,AR,Buenos Aires
308,1304,Calle 8083,Piso 11 Dto A,Villa Carlos Paz,2683,AR,Córdoba
309,1305,Calle 2274,Piso 2 Dto B,CABA,4708,AR,Buenos Aires
310,1306,Calle 6044,,Mar del Plata,5254,AR,Buenos Aires
311,1307,Calle 1230,Piso 5 Dto B,La Plata,5422,AR,Buenos Aires
312,1308,Calle 7549,Piso 2 Dto A,San Rafael,3424,AR,Mendoza
313,1309,Calle 2005,,Río Cuarto,8830,AR,Córdoba
314,1310,Calle 7909,Piso 4 Dto A,Godoy Cruz,5853,AR,Mendoza
315,1311,Calle 3374,,CABA,9103,AR,Buenos Aires
316,1312,Calle 3542,,Mar del Plata,8989,AR,Buenos Aires
317,1313,Calle 8645,Piso 9 Dto B,Mar del Plata,8438,AR,Buenos Aires
318,1314,Calle 2131,Piso 4 Dto B,Rosario,8412,AR,Santa Fe
319,1315,Calle 3080,Piso 2 Dto B,La Plata,3690,AR,Buenos Aires
320,1316,Calle 1673,,San Rafael,2805,AR,Mendoza
321,1317,Calle 3065,Piso 5 Dto A,La Plata,9698,AR,Buenos Aires
322,1318,Calle 9017,Piso 2 Dto B,CABA,4474,AR,Buenos Aires
323,1319,Calle 8322,Piso 6 Dto A,La Plata,5466,AR,Buenos Aires
324,1320,Calle 6268,,Mar del Plata,5816,AR,Buenos Aires
325,1321,Calle 4521,Piso 9 Dto C,Mar del Plata,9497,AR,Buenos Aires
326,1322,Calle 4079,,CABA,1870,AR,Buenos Aires
327,1323,Calle 1079,Piso 9 Dto A,Córdoba,4710,AR,Córdoba
328,1324,Calle 3603,Piso 12 Dto C,CABA,9112,AR,Buenos Aires
329,1325,Calle 5696,Piso 11 Dto B,CABA,1050,AR,Buenos Aires
330,1326,Calle 7812,,Mar del Plata,3789,AR,Buenos Aires
331,1327,Calle 3070,,Córdoba,1208,AR,Córdoba
332,1328,Calle 2909,,CABA,1159,AR,Buenos Aires
333,1329,Calle 17,Piso 8 Dto A,San Rafael,2792,AR,Mendoza
334,1330,Calle 4763,,Rafaela,3401,AR,Santa Fe
335,1331,Calle 5500,Piso 8 Dto B,Mar del Plata,9940,AR,Buenos Aires
336,1332,Calle 5969,Piso 8 Dto A,Villa Carlos Paz,5933,AR,Córdoba
337,1333,Calle 9761,Piso 8 Dto A,Rafaela,9508,AR,Santa Fe
338,1334,Calle 3609,Piso 11 Dto A,La Plata,9156,AR,Buenos Aires
339,1335,Calle 7057,,Mar del Plata,4175,AR,Buenos Aires
340,1336,Calle 8928,,Villa Carlos Paz,5346,AR,Córdoba
341,1337,Calle 9653,Piso 7 Dto B,Santa Fe,4122,AR,Santa Fe
342,1338,Calle 5625,Piso 10 Dto A,Río Cuarto,8455,AR,Córdoba
343,1339,Calle 8175,Piso 11 Dto A,CABA,3461,AR,Buenos Aires
344,1340,Calle 9145,Piso 11 Dto A,San Rafael,8976,AR,Mendoza
345,1341,Calle 256,,La Plata,5636,AR,Buenos Aires
346,1342,Calle 84,,La Plata,1817,AR,Buenos Aires
347,1343,Calle 8225,,La Plata,2409,AR,Buenos Aires
348,1344,Calle 3224,,Mar del Plata,5764,AR,Buenos Aires
349,1345,Calle 4076,Piso 11 Dto C,La Plata,7923,AR,Buenos Aires
350,1346,Calle 4281,Piso 5 Dto C,Mendoza,3839,AR,Mendoza
351,1347,Calle 9473,,La Plata,5096,AR,Buenos Aires
352,1348,Calle 4933,Piso 5 Dto A,CABA,8555,AR,Buenos Aires
353,1349,Calle 1574,Piso 3 Dto C,La Plata,6132,AR,Buenos Aires
354,1350,Calle 5859,Piso 8 Dto B,San Rafael,8643,AR,Mendoza
355,1351,Calle 454,Piso 9 Dto A,Godoy Cruz,2448,AR,Mendoza
356,1352,Calle 3976,Piso 10 Dto C,Villa Carlos Paz,3085,AR,Córdoba
357,1353,Calle 878,Piso 7 Dto A,Santa Fe,1097,AR,Santa Fe
358,1354,Calle 7541,,Rafaela,5426,AR,Santa Fe
359,1355,Calle 4761,Piso 10 Dto B,CABA,1997,AR,Buenos Aires
360,1356,Calle 8370,,Río Cuarto,4359,AR,Córdoba
361,1357,Calle 8116,,Mar del Plata,5929,AR,Buenos Aires
362,1358,Calle 7946,,Córdoba,2879,AR,Córdoba
363,1359,Calle 1984,,Mar del Plata,4347,AR,Buenos Aires
364,1360,Calle 7272,,Mar del Plata,5913,AR,Buenos Aires
365,1361,Calle 3850,Piso 9 Dto B,CABA,3018,AR,Buenos Aires
366,1362,Calle 3028,,CABA,3797,AR,Buenos Aires
367,1363,Calle 3283,Piso 8 Dto B,Río Cuarto,5742,AR,Córdoba
368,1364,Calle 6019,Piso 11 Dto B,Godoy Cruz,7321,AR,Mendoza
369,1365,Calle 2428,Piso 1 Dto B,La Plata,2968,AR,Buenos Aires
370,1366,Calle 4961,Piso 1 Dto C,Mar del Plata,1698,AR,Buenos Aires
371,1367,Calle 7510,,Godoy Cruz,6861,AR,Mendoza
372,1368,Calle 3454,Piso 6 Dto C,Rafaela,9405,AR,Santa Fe
373,1369,Calle 5765,Piso 11 Dto C,CABA,8528,AR,Buenos Aires
374,1370,Calle 4964,Piso 7 Dto A,Mar del Plata,7168,AR,Buenos Aires
375,1371,Calle 9438,Piso 12 Dto C,Córdoba,3120,AR,Córdoba
376,1372,Calle 5704,Piso 10 Dto C,Río Cuarto,2107,AR,Córdoba
377,1373,Calle 2608,,Mar del Plata,9182,AR,Buenos Aires
378,1374,Calle 3877,Piso 2 Dto A,CABA,7882,AR,Buenos Aires
379,1375,Calle 1876,,La Plata,8234,AR,Buenos Aires
380,1376,Calle 2852,Piso 6 Dto A,Córdoba,7187,AR,Córdoba
381,1377,Calle 9118,Piso 4 Dto A,San Rafael,9046,AR,Mendoza
382,1378,Calle 3297,Piso 12 Dto A,Córdoba,9659,AR,Córdoba
383,1379,Calle 1577,,CABA,1085,AR,Buenos Aires
384,1380,Calle 8956,,Rafaela,9653,AR,Santa Fe
385,1381,Calle 9345,Piso 8 Dto C,CABA,6840,AR,Buenos Aires
386,1382,Calle 7191,Piso 7 Dto C,Rosario,2161,AR,Santa Fe
387,1383,Calle 4887,Piso 2 Dto A,Mar del Plata,4777,AR,Buenos Aires
388,1384,Calle 370,Piso 4 Dto B,Villa Carlos Paz,7396,AR,Córdoba
389,1385,Calle 4720,,CABA,9482,AR,Buenos Aires
390,1386,Calle 929,,Mar del Plata,8716,AR,Buenos Aires
391,1387,Calle 5539,,Córdoba,6481,AR,Córdoba
392,1388,Calle 5401,,Mar del Plata,9086,AR,Buenos Aires
393,1389,Calle 9995,Piso 12 Dto A,Rafaela,2159,AR,Santa Fe
394,1390,Calle 1321,,Río Cuarto,5432,AR,Córdoba
395,1391,Calle 8317,Piso 4 Dto C,La Plata,8069,AR,Buenos Aires
396,1392,Calle 352,,CABA,9752,AR,Buenos Aires
397,1393,Calle 297,,Río Cuarto,7342,AR,Córdoba
398,1394,Calle 6994,,Villa Carlos Paz,8175,AR,Córdoba
399,1395,Calle 5764,Piso 4 Dto B,Santa Fe,1949,AR,Santa Fe
400,1396,Calle 165,,Mar del Plata,1244,AR,Buenos Aires
401,1397,Calle 929,,Rosario,5630,AR,Santa Fe
402,1398,Calle 4002,Piso 5 Dto A,Mar del Plata,8843,AR,Buenos Aires
403,1399,Calle 4100,Piso 9 Dto A,Córdoba,6848,AR,Córdoba
404,1400,Calle 6012,,La Plata,9631,AR,Buenos Aires
405,1401,Calle 8249,Piso 2 Dto A,Mar del Plata,7731,AR,Buenos Aires
406,1402,Calle 2247,Piso 9 Dto A,CABA,4453,AR,Buenos Aires
407,1403,Calle 588,Piso 4 Dto C,CABA,8434,AR,Buenos Aires
408,1404,Calle 4429,Piso 5 Dto C,CABA,5921,AR,Buenos Aires
409,1405,Calle 6291,Piso 8 Dto A,Mar del Plata,7302,AR,Buenos Aires
410,1406,Calle 6215,Piso 3 Dto C,CABA,9724,AR,Buenos Aires
411,1407,Calle 8873,Piso 6 Dto A,Córdoba,5301,AR,Córdoba
412,1408,Calle 7112,,Santa Fe,2789,AR,Santa Fe
413,1409,Calle 4710,Piso 9 Dto B,Mar del Plata,9501,AR,Buenos Aires
414,1410,Calle 7657,,La Plata,1248,AR,Buenos Aires
415,1411,Calle 1402,Piso 4 Dto C,Santa Fe,6530,AR,Santa Fe
416,1412,Calle 5927,Piso 5 Dto C,La Plata,1202,AR,Buenos Aires
417,1413,Calle 5260,Piso 5 Dto A,Mar del Plata,8581,AR,Buenos Aires
418,1414,Calle 607,,La Plata,7694,AR,Buenos Aires
419,1415,Calle 4530,Piso 10 Dto C,Córdoba,2049,AR,Córdoba
420,1416,Calle 4253,,La Plata,3858,AR,Buenos Aires
421,1417,Calle 813,,Rafaela,4018,AR,Santa Fe
422,1418,Calle 5200,,Rafaela,1996,AR,Santa Fe
423,1419,Calle 5790,,Mendoza,4845,AR,Mendoza
424,1420,Calle 7272,,Mar del Plata,4882,AR,Buenos Aires
425,1421,Calle 6816,Piso 2 Dto C,La Plata,5638,AR,Buenos Aires
426,1422,Calle 5903,Piso 6 Dto B,Mar del Plata,8711,AR,Buenos Aires
427,1423,Calle 6035,,Córdoba,1418,AR,Córdoba
428,1424,Calle 8369,Piso 12 Dto C,Villa Carlos Paz,4520,AR,Córdoba
429,1425,Calle 2459,,Rosario,2266,AR,Santa Fe
430,1426,Calle 8983,,Río Cuarto,9646,AR,Córdoba
431,1427,Calle 8593,Piso 9 Dto B,Río Cuarto,5410,AR,Córdoba
432,1428,Calle 3999,Piso 6 Dto A,Santa Fe,4782,AR,Santa Fe
433,1429,Calle 3950,Piso 8 Dto C,CABA,6929,AR,Buenos Aires
434,1430,Calle 1253,Piso 6 Dto C,Mar del Plata,4774,AR,Buenos Aires
435,1431,Calle 9329,,Rosario,7678,AR,Santa Fe
436,1432,Calle 5597,,Villa Carlos Paz,7692,AR,Córdoba
437,1433,Calle 9438,,CABA,3947,AR,Buenos Aires
438,1434,Calle 6859,Piso 5 Dto C,CABA,2654,AR,Buenos Aires
439,1435,Calle 393,,Santa Fe,3168,AR,Santa Fe
440,1436,Calle 6920,Piso 6 Dto A,Santa Fe,4955,AR,Santa Fe
441,1437,Calle 9691,,La Plata,1741,AR,Buenos Aires
442,1438,Calle 7355,Piso 7 Dto C,Villa Carlos Paz,8138,AR,Córdoba
443,1439,Calle 2206,,Rafaela,3494,AR,Santa Fe
444,1440,Calle 7431,Piso 7 Dto B,Villa Carlos Paz,3895,AR,Córdoba
445,1441,Calle 1588,Piso 4 Dto B,Villa Carlos Paz,6588,AR,Córdoba
446,1442,Calle 9500,Piso 9 Dto B,Río Cuarto,6288,AR,Córdoba
447,1443,Calle 2347,,CABA,8053,AR,Buenos Aires
448,1444,Calle 5151,Piso 2 Dto B,Mar del Plata,3713,AR,Buenos Aires
449,1445,Calle 7192,Piso 4 Dto A,La Plata,5250,AR,Buenos Aires
450,1446,Calle 4566,,San Rafael,9334,AR,Mendoza
451,1447,Calle 8845,,CABA,9001,AR,Buenos Aires
452,1448,Calle 9358,Piso 7 Dto C,La Plata,9534,AR,Buenos Aires
453,1449,Calle 1796,,Santa Fe,8281,AR,Santa Fe
454,1450,Calle 2242,,CABA,6795,AR,Buenos Aires
455,1451,Calle 1219,Piso 6 Dto A,Córdoba,5523,AR,Córdoba
456,1452,Calle 1214,Piso 12 Dto C,Río Cuarto,1628,AR,Córdoba
457,1453,Calle 8541,,Mar del Plata,1130,AR,Buenos Aires
458,1454,Calle 3608,Piso 11 Dto A,La Plata,8702,AR,Buenos Aires
459,1455,Calle 8139,,CABA,2453,AR,Buenos Aires
460,1456,Calle 3510,,Rafaela,9039,AR,Santa Fe
461,1457,Calle 2919,Piso 1 Dto B,Río Cuarto,7230,AR,Córdoba
462,1458,Calle 8692,Piso 11 Dto A,Villa Carlos Paz,4799,AR,Córdoba
463,1459,Calle 6426,Piso 10 Dto B,Villa Carlos Paz,5840,AR,Córdoba
464,1460,Calle 6875,,La Plata,7960,AR,Buenos Aires
465,1461,Calle 1861,Piso 6 Dto C,La Plata,3098,AR,Buenos Aires
466,1462,Calle 9848,,Santa Fe,1474,AR,Santa Fe
467,1463,Calle 6702,Piso 1 Dto C,CABA,5286,AR,Buenos Aires
468,1464,Calle 6967,,La Plata,5396,AR,Buenos Aires
469,1465,Calle 748,Piso 5 Dto B,Villa Carlos Paz,4625,AR,Córdoba
470,1466,Calle 1808,Piso 10 Dto C,Mar del Plata,3117,AR,Buenos Aires
471,1467,Calle 346,Piso 7 Dto A,Mar del Plata,6778,AR,Buenos Aires
472,1468,Calle 8498,,CABA,3572,AR,Buenos Aires
473,1469,Calle 3758,Piso 5 Dto A,Mar del Plata,6431,AR,Buenos Aires
474,1470,Calle 4075,,Mar del Plata,9627,AR,Buenos Aires
475,1471,Calle 693,Piso 3 Dto B,La Plata,1397,AR,Buenos Aires
476,1472,Calle 4052,,Río Cuarto,7190,AR,Córdoba
477,1473,Calle 4424,,Mar del Plata,9265,AR,Buenos Aires
478,1474,Calle 8876,,Mar del Plata,7408,AR,Buenos Aires
479,1475,Calle 5304,,Santa Fe,5950,AR,Santa Fe
480,1476,Calle 4330,Piso 11 Dto C,CABA,7169,AR,Buenos Aires
481,1477,Calle 6658,Piso 9 Dto B,CABA,5659,AR,Buenos Aires
482,1478,Calle 283,Piso 8 Dto C,La Plata,7106,AR,Buenos Aires
483,1479,Calle 3672,Piso 10 Dto A,Villa Carlos Paz,4802,AR,Córdoba
484,1480,Calle 1786,Piso 11 Dto B,Mar del Plata,3355,AR,Buenos Aires
485,1481,Calle 3403,,CABA,2374,AR,Buenos Aires
486,1482,Calle 8576,,La Plata,1965,AR,Buenos Aires
487,1483,Calle 5536,Piso 3 Dto A,La Plata,7660,AR,Buenos Aires
488,1484,Calle 9215,Piso 8 Dto C,CABA,6128,AR,Buenos Aires
489,1485,Calle 7914,,Mar del Plata,2721,AR,Buenos Aires
490,1486,Calle 2086,,Villa Carlos Paz,3722,AR,Córdoba
491,1487,Calle 640,,CABA,9594,AR,Buenos Aires
492,1488,Calle 6851,Piso 7 Dto A,Mar del Plata,2926,AR,Buenos Aires
493,1489,Calle 4442,Piso 9 Dto B,San Rafael,3718,AR,Mendoza
494,1490,Calle 3350,Piso 10 Dto C,Mar del Plata,9509,AR,Buenos Aires
495,1491,Calle 5410,,CABA,3690,AR,Buenos Aires
496,1492,Calle 161,,Villa Carlos Paz,3463,AR,Córdoba
497,1493,Calle 5110,,CABA,2537,AR,Buenos Aires
498,1494,Calle 1002,,CABA,2093,AR,Buenos Aires
499,1495,Calle 5652,,Córdoba,5498,AR,Córdoba
500,1496,Calle 9576,Piso 12 Dto B,Santa Fe,7607,AR,Santa Fe
501,1497,Calle 3320,,Río Cuarto,2687,AR,Córdoba
502,1498,Calle 9236,Piso 2 Dto A,La Plata,6409,AR,Buenos Aires
503,1499,Calle 7757,,San Rafael,4798,AR,Mendoza
504,1500,Calle 2401,Piso 3 Dto A,Mar del Plata,1004,AR,Buenos Aires
505,1501,Calle 2245,Piso 9 Dto B,CABA,8728,AR,Buenos Aires
506,1502,Calle 3945,Piso 9 Dto B,CABA,7316,AR,Buenos Aires
507,1503,Calle 5194,,Mar del Plata,3721,AR,Buenos Aires
508,1504,Calle 9184,Piso 8 Dto B,Villa Carlos Paz,2970,AR,Córdoba
509,1505,Calle 5705,Piso 3 Dto A,Rafaela,8636,AR,Santa Fe
510,1506,Calle 9172,Piso 4 Dto B,Córdoba,3932,AR,Córdoba
511,1507,Calle 8619,Piso 4 Dto A,La Plata,6381,AR,Buenos Aires
512,1508,Calle 8238,Piso 1 Dto C,Godoy Cruz,1549,AR,Mendoza
513,1509,Calle 720,Piso 12 Dto C,Villa Carlos Paz,5492,AR,Córdoba
514,1510,Calle 7714,Piso 10 Dto C,Mendoza,9033,AR,Mendoza
515,1511,Calle 8939,Piso 2 Dto A,Mar del Plata,1472,AR,Buenos Aires
516,1512,Calle 2157,,Córdoba,1918,AR,Córdoba
517,1513,Calle 5149,Piso 2 Dto C,Córdoba,4181,AR,Córdoba
518,1514,Calle 5186,Piso 12 Dto A,Mar del Plata,9459,AR,Buenos Aires
519,1515,Calle 6822,,Godoy Cruz,2064,AR,Mendoza
520,1516,Calle 2417,,Rafaela,3827,AR,Santa Fe
521,1517,Calle 3256,Piso 12 Dto C,Mar del Plata,3833,AR,Buenos Aires
522,1518,Calle 5746,Piso 2 Dto B,Mar del Plata,2410,AR,Buenos Aires
523,1519,Calle 2991,,CABA,6201,AR,Buenos Aires
524,1520,Calle 3564,Piso 11 Dto B,Rosario,2331,AR,Santa Fe
525,1521,Calle 3131,,Mar del Plata,6087,AR,Buenos Aires
526,1522,Calle 2917,Piso 5 Dto A,La Plata,7782,AR,Buenos Aires
527,1523,Calle 3265,Piso 3 Dto B,Santa Fe,8202,AR,Santa Fe
528,1524,Calle 9482,Piso 6 Dto B,La Plata,3793,AR,Buenos Aires
529,1525,Calle 6319,,San Rafael,8108,AR,Mendoza
530,1526,Calle 4730,Piso 4 Dto B,Río Cuarto,2486,AR,Córdoba
531,1527,Calle 3576,,Santa Fe,2889,AR,Santa Fe
532,1528,Calle 7786,Piso 3 Dto B,Córdoba,7099,AR,Córdoba
533,1529,Calle 555,,Mar del Plata,6879,AR,Buenos Aires
534,1530,Calle 5484,,La Plata,4065,AR,Buenos Aires
535,1531,Calle 8959,Piso 3 Dto A,La Plata,8478,AR,Buenos Aires
536,1532,Calle 3991,Piso 5 Dto C,Villa Carlos Paz,6535,AR,Córdoba
537,1533,Calle 658,,Villa Carlos Paz,7897,AR,Córdoba
538,1534,Calle 6566,,Rafaela,9391,AR,Santa Fe
539,1535,Calle 8587,,San Rafael,3128,AR,Mendoza
540,1536,Calle 1482,Piso 5 Dto A,Rosario,8515,AR,Santa Fe
541,1537,Calle 2417,Piso 4 Dto A,CABA,6038,AR,Buenos Aires
542,1538,Calle 7153,,CABA,3525,AR,Buenos Aires
543,1539,Calle 82,Piso 8 Dto A,Santa Fe,2636,AR,Santa Fe
544,1540,Calle 3482,Piso 8 Dto C,La Plata,8593,AR,Buenos Aires
545,1541,Calle 6351,,Rosario,7551,AR,Santa Fe
546,1542,Calle 6957,,Rafaela,6683,AR,Santa Fe
547,1543,Calle 441,,Río Cuarto,4852,AR,Córdoba
548,1544,Calle 27,Piso 10 Dto C,Mar del Plata,2265,AR,Buenos Aires
549,1545,Calle 725,Piso 4 Dto B,CABA,2521,AR,Buenos Aires
550,1546,Calle 6975,Piso 3 Dto B,CABA,7337,AR,Buenos Aires
551,1547,Calle 2942,,La Plata,8617,AR,Buenos Aires
552,1548,Calle 1662,,Mar del Plata,3635,AR,Buenos Aires
553,1549,Calle 6292,,Mar del Plata,8964,AR,Buenos Aires
554,1550,Calle 4964,,CABA,8377,AR,Buenos Aires
555,1551,Calle 5490,,La Plata,3930,AR,Buenos Aires
556,1552,Calle 1311,Piso 3 Dto A,La Plata,5224,AR,Buenos Aires
557,1553,Calle 7455,Piso 7 Dto A,Mar del Plata,5615,AR,Buenos Aires
558,1554,Calle 7541,Piso 6 Dto A,La Plata,5134,AR,Buenos Aires
559,1555,Calle 386,,La Plata,5804,AR,Buenos Aires
560,1556,Calle 5319,,La Plata,2829,AR,Buenos Aires
561,1557,Calle 6492,,Río Cuarto,9765,AR,Córdoba
562,1558,Calle 8085,Piso 7 Dto B,CABA,8504,AR,Buenos Aires
563,1559,Calle 8578,,San Rafael,2253,AR,Mendoza
564,1560,Calle 9984,,CABA,7257,AR,Buenos Aires
565,1561,Calle 5535,Piso 11 Dto C,Mendoza,7922,AR,Mendoza
566,1562,Calle 4209,,Mar del Plata,8101,AR,Buenos Aires
567,1563,Calle 4276,,Rafaela,1800,AR,Santa Fe
568,1564,Calle 7159,,Córdoba,5535,AR,Córdoba
569,1565,Calle 6532,Piso 3 Dto C,Río Cuarto,5467,AR,Córdoba
570,1566,Calle 6789,Piso 11 Dto A,CABA,5375,AR,Buenos Aires
571,1567,Calle 5213,,Río Cuarto,1296,AR,Córdoba
572,1568,Calle 4716,Piso 12 Dto C,Mar del Plata,7893,AR,Buenos Aires
573,1569,Calle 9137,Piso 1 Dto B,La Plata,6237,AR,Buenos Aires
574,1570,Calle 7569,,Rosario,9720,AR,Santa Fe
575,1571,Calle 6602,,Villa Carlos Paz,8971,AR,Córdoba
576,1572,Calle 3401,Piso 12 Dto C,Mendoza,5981,AR,Mendoza
577,1573,Calle 7658,,Santa Fe,6761,AR,Santa Fe
578,1574,Calle 4652,Piso 9 Dto C,CABA,4845,AR,Buenos Aires
579,1575,Calle 6201,,Mendoza,7483,AR,Mendoza
580,1576,Calle 9352,,CABA,7571,AR,Buenos Aires
581,1577,Calle 6852,Piso 10 Dto B,CABA,6950,AR,Buenos Aires
582,1578,Calle 5207,Piso 9 Dto C,Río Cuarto,4688,AR,Córdoba
583,1579,Calle 4691,,La Plata,7554,AR,Buenos Aires
584,1580,Calle 7603,,La Plata,7280,AR,Buenos Aires
585,1581,Calle 3095,,Godoy Cruz,3270,AR,Mendoza
586,1582,Calle 9349,,San Rafael,6325,AR,Mendoza
587,1583,Calle 7732,Piso 11 Dto A,Mar del Plata,1372,AR,Buenos Aires
588,1584,Calle 2645,,Córdoba,3870,AR,Córdoba
589,1585,Calle 5288,,Mendoza,1506,AR,Mendoza
590,1586,Calle 4015,Piso 11 Dto C,Villa Carlos Paz,4963,AR,Córdoba
591,1587,Calle 1822,,San Rafael,5011,AR,Mendoza
592,1588,Calle 113,Piso 12 Dto A,Córdoba,9515,AR,Córdoba
593,1589,Calle 6834,,Rosario,9751,AR,Santa Fe
594,1590,Calle 980,,Mar del Plata,6953,AR,Buenos Aires
595,1591,Calle 7210,,Río Cuarto,3391,AR,Córdoba
596,1592,Calle 1832,Piso 12 Dto A,Rafaela,7764,AR,Santa Fe
597,1593,Calle 7907,,CABA,6407,AR,Buenos Aires
598,1594,Calle 8054,Piso 4 Dto B,Mar del Plata,5838,AR,Buenos Aires
599,1595,Calle 4226,,La Plata,3294,AR,Buenos Aires
600,1596,Calle 3622,Piso 6 Dto C,CABA,5771,AR,Buenos Aires
601,1597,Calle 9301,Piso 11 Dto B,Mendoza,8206,AR,Mendoza
602,1598,Calle 2107,Piso 3 Dto C,Mar del Plata,7295,AR,Buenos Aires
603,1599,Calle 3468,,Córdoba,1197,AR,Córdoba
604,1600,Calle 8468,,Mar del Plata,6639,AR,Buenos Aires
605,1601,Calle 5150,Piso 9 Dto B,Río Cuarto,8950,AR,Córdoba
606,1602,Calle 2874,,Santa Fe,2060,AR,Santa Fe
607,1603,Calle 3676,,CABA,4226,AR,Buenos Aires
608,1604,Calle 200,,Mar del Plata,4318,AR,Buenos Aires
609,1605,Calle 1620,,Villa Carlos Paz,5447,AR,Córdoba
610,1606,Calle 8811,Piso 2 Dto A,San Rafael,9567,AR,Mendoza
611,1607,Calle 2994,,Mar del Plata,4741,AR,Buenos Aires
612,1608,Calle 4355,,Mar del Plata,4113,AR,Buenos Aires
613,1609,Calle 8562,,Mendoza,4728,AR,Mendoza
614,1610,Calle 7820,,Río Cuarto,6224,AR,Córdoba
615,1611,Calle 7241,,CABA,2636,AR,Buenos Aires
616,1612,Calle 7983,,Río Cuarto,8041,AR,Córdoba
617,1613,Calle 3192,Piso 10 Dto C,Villa Carlos Paz,1008,AR,Córdoba
618,1614,Calle 4436,,Rafaela,6384,AR,Santa Fe
619,1615,Calle 4910,,La Plata,6589,AR,Buenos Aires
620,1616,Calle 5060,,Río Cuarto,3984,AR,Córdoba
621,1617,Calle 7709,,Mar del Plata,2074,AR,Buenos Aires
622,1618,Calle 7262,,Córdoba,4171,AR,Córdoba
623,1619,Calle 5034,Piso 9 Dto B,Rosario,9690,AR,Santa Fe
624,1620,Calle 9987,,La Plata,6304,AR,Buenos Aires
625,1621,Calle 2815,,La Plata,6335,AR,Buenos Aires
626,1622,Calle 9753,Piso 7 Dto C,San Rafael,4747,AR,Mendoza
627,1623,Calle 6076,Piso 3 Dto B,La Plata,6798,AR,Buenos Aires
628,1624,Calle 9229,,La Plata,7620,AR,Buenos Aires
629,1625,Calle 2293,,Godoy Cruz,4313,AR,Mendoza
630,1626,Calle 4830,Piso 6 Dto A,Villa Carlos Paz,8004,AR,Córdoba
631,1627,Calle 3268,Piso 4 Dto C,Mar del Plata,5488,AR,Buenos Aires
632,1628,Calle 5333,Piso 12 Dto B,CABA,1753,AR,Buenos Aires
633,1629,Calle 7980,Piso 4 Dto B,Río Cuarto,1971,AR,Córdoba
634,1630,Calle 4523,Piso 9 Dto B,La Plata,5656,AR,Buenos Aires
635,1631,Calle 1213,Piso 6 Dto C,Mar del Plata,3486,AR,Buenos Aires
636,1632,Calle 3277,Piso 9 Dto A,Río Cuarto,5017,AR,Córdoba
637,1633,Calle 4272,Piso 9 Dto C,Río Cuarto,1358,AR,Córdoba
638,1634,Calle 5144,,Rosario,4016,AR,Santa Fe
639,1635,Calle 5935,Piso 6 Dto A,La Plata,5183,AR,Buenos Aires
640,1636,Calle 6731,Piso 7 Dto B,Mar del Plata,1786,AR,Buenos Aires
641,1637,Calle 6120,Piso 1 Dto C,Mar del Plata,1525,AR,Buenos Aires
642,1638,Calle 8828,Piso 8 Dto B,Santa Fe,2099,AR,Santa Fe
643,1639,Calle 1841,,Río Cuarto,8675,AR,Córdoba
644,1640,Calle 7061,Piso 5 Dto B,Rafaela,3493,AR,Santa Fe
645,1641,Calle 9425,Piso 6 Dto B,Mar del Plata,1351,AR,Buenos Aires
646,1642,Calle 6389,,Córdoba,6281,AR,Córdoba
647,1643,Calle 9575,Piso 11 Dto B,CABA,4282,AR,Buenos Aires
648,1644,Calle 9452,,Rafaela,4377,AR,Santa Fe
649,1645,Calle 8740,,CABA,9848,AR,Buenos Aires
650,1646,Calle 5167,,Godoy Cruz,4304,AR,Mendoza
651,1647,Calle 3818,,La Plata,3249,AR,Buenos Aires
652,1648,Calle 417,,La Plata,7232,AR,Buenos Aires
653,1649,Calle 3255,,La Plata,2521,AR,Buenos Aires
654,1650,Calle 8463,,Mar del Plata,2971,AR,Buenos Aires
655,1651,Calle 5192,,Villa Carlos Paz,2487,AR,Córdoba
656,1652,Calle 8336,,La Plata,1118,AR,Buenos Aires
657,1653,Calle 1640,Piso 6 Dto B,Santa Fe,2069,AR,Santa Fe
658,1654,Calle 4927,,San Rafael,7384,AR,Mendoza
659,1655,Calle 5297,,La Plata,3905,AR,Buenos Aires
660,1656,Calle 2552,Piso 3 Dto C,Mar del Plata,1638,AR,Buenos Aires
661,1657,Calle 4802,Piso 6 Dto C,Córdoba,3580,AR,Córdoba
662,1658,Calle 2481,,Mar del Plata,6981,AR,Buenos Aires
663,1659,Calle 8152,Piso 4 Dto B,Rosario,7114,AR,Santa Fe
664,1660,Calle 424,Piso 6 Dto A,Córdoba,1560,AR,Córdoba
665,1661,Calle 8839,,Mendoza,3591,AR,Mendoza
666,1662,Calle 1510,,CABA,8793,AR,Buenos Aires
667,1663,Calle 7216,,San Rafael,6102,AR,Mendoza
668,1664,Calle 2101,Piso 6 Dto C,La Plata,2579,AR,Buenos Aires
669,1665,Calle 3216,,Mar del Plata,3336,AR,Buenos Aires
670,1666,Calle 1554,Piso 12 Dto B,Río Cuarto,2724,AR,Córdoba
671,1667,Calle 4934,Piso 6 Dto C,CABA,9518,AR,Buenos Aires
672,1668,Calle 2158,Piso 6 Dto B,Villa Carlos Paz,3379,AR,Córdoba
673,1669,Calle 787,,Villa Carlos Paz,3342,AR,Córdoba
674,1670,Calle 2653,,Rosario,8877,AR,Santa Fe
675,1671,Calle 9457,,Rosario,8425,AR,Santa Fe
676,1672,Calle 4577,Piso 11 Dto C,CABA,6525,AR,Buenos Aires
677,1673,Calle 8994,,La Plata,6609,AR,Buenos Aires
678,1674,Calle 6989,,La Plata,2549,AR,Buenos Aires
679,1675,Calle 1971,Piso 9 Dto C,Mendoza,3069,AR,Mendoza
680,1676,Calle 9066,,La Plata,7513,AR,Buenos Aires
681,1677,Calle 3635,Piso 1 Dto A,Mar del Plata,9611,AR,Buenos Aires
682,1678,Calle 8603,Piso 1 Dto C,Río Cuarto,9838,AR,Córdoba
683,1679,Calle 2733,,Río Cuarto,3713,AR,Córdoba
684,1680,Calle 2492,Piso 9 Dto C,Rafaela,4312,AR,Santa Fe
685,1681,Calle 4858,Piso 7 Dto C,La Plata,8807,AR,Buenos Aires
686,1682,Calle 4916,Piso 1 Dto A,Mar del Plata,6105,AR,Buenos Aires
687,1683,Calle 9732,Piso 2 Dto A,San Rafael,3298,AR,Mendoza
688,1684,Calle 3973,Piso 7 Dto A,CABA,7406,AR,Buenos Aires
689,1685,Calle 1156,,La Plata,7577,AR,Buenos Aires
690,1686,Calle 2488,,Río Cuarto,5513,AR,Córdoba
691,1687,Calle 8530,,CABA,8718,AR,Buenos Aires
692,1688,Calle 2046,Piso 9 Dto C,Villa Carlos Paz,3517,AR,Córdoba
693,1689,Calle 5594,Piso 5 Dto A,Rafaela,5185,AR,Santa Fe
694,1690,Calle 9585,Piso 3 Dto C,Villa Carlos Paz,5769,AR,Córdoba
695,1691,Calle 9885,,CABA,9102,AR,Buenos Aires
696,1692,Calle 1724,Piso 5 Dto C,Mar del Plata,5123,AR,Buenos Aires
697,1693,Calle 4117,,Mar del Plata,2656,AR,Buenos Aires
698,1694,Calle 3628,Piso 10 Dto B,La Plata,2703,AR,Buenos Aires
699,1695,Calle 6158,Piso 10 Dto C,Río Cuarto,1689,AR,Córdoba
700,1696,Calle 1616,,Río Cuarto,4909,AR,Córdoba
701,1697,Calle 9893,,Río Cuarto,6690,AR,Córdoba
702,1698,Calle 8565,Piso 1 Dto B,Rafaela,1420,AR,Santa Fe
703,1699,Calle 5390,Piso 2 Dto B,Córdoba,1464,AR,Córdoba
704,1700,Calle 5876,Piso 11 Dto B,Santa Fe,5074,AR,Santa Fe
705,1701,Calle 5317,Piso 8 Dto C,CABA,3631,AR,Buenos Aires
706,1702,Calle 5274,Piso 12 Dto B,Río Cuarto,3818,AR,Córdoba
707,1703,Calle 5764,,Santa Fe,6186,AR,Santa Fe
708,1704,Calle 1482,Piso 11 Dto B,Mar del Plata,9146,AR,Buenos Aires
709,1705,Calle 4337,Piso 12 Dto B,Rosario,6521,AR,Santa Fe
710,1706,Calle 2762,,Rosario,4109,AR,Santa Fe
711,1707,Calle 9183,,San Rafael,7520,AR,Mendoza
712,1708,Calle 9798,Piso 11 Dto B,CABA,3388,AR,Buenos Aires
713,1709,Calle 2180,Piso 7 Dto A,La Plata,2346,AR,Buenos Aires
714,1710,Calle 669,,Godoy Cruz,5485,AR,Mendoza
715,1711,Calle 3588,Piso 4 Dto A,Mar del Plata,4538,AR,Buenos Aires
716,1712,Calle 341,Piso 10 Dto B,CABA,7791,AR,Buenos Aires
717,1713,Calle 3150,Piso 7 Dto A,Río Cuarto,7342,AR,Córdoba
718,1714,Calle 4319,Piso 7 Dto B,Villa Carlos Paz,4845,AR,Córdoba
719,1715,Calle 2204,,CABA,9819,AR,Buenos Aires
720,1716,Calle 7795,,Mar del Plata,4732,AR,Buenos Aires
721,1717,Calle 9078,Piso 4 Dto B,Río Cuarto,1871,AR,Córdoba
722,1718,Calle 9684,,Villa Carlos Paz,1362,AR,Córdoba
723,1719,Calle 943,,Mar del Plata,2044,AR,Buenos Aires
724,1720,Calle 4524,,Mar del Plata,9041,AR,Buenos Aires
725,1721,Calle 6493,Piso 4 Dto C,Córdoba,6076,AR,Córdoba
726,1722,Calle 5416,Piso 4 Dto C,Villa Carlos Paz,3363,AR,Córdoba
727,1723,Calle 5153,,San Rafael,6871,AR,Mendoza
728,1724,Calle 1043,,Rosario,4188,AR,Santa Fe
729,1725,Calle 2970,Piso 1 Dto C,Mendoza,2957,AR,Mendoza
730,1726,Calle 9405,Piso 12 Dto C,La Plata,7677,AR,Buenos Aires
731,1727,Calle 5625,Piso 3 Dto A,Córdoba,6818,AR,Córdoba
732,1728,Calle 8187,Piso 2 Dto A,Villa Carlos Paz,7576,AR,Córdoba
733,1729,Calle 1337,,Mar del Plata,9583,AR,Buenos Aires
734,1730,Calle 998,Piso 9 Dto A,Mar del Plata,2564,AR,Buenos Aires
735,1731,Calle 207,Piso 1 Dto B,Mar del Plata,6017,AR,Buenos Aires
736,1732,Calle 9231,,Rafaela,4088,AR,Santa Fe
737,1733,Calle 5657,,CABA,7130,AR,Buenos Aires
738,1734,Calle 2909,Piso 9 Dto A,Rafaela,1497,AR,Santa Fe
739,1735,Calle 5107,Piso 5 Dto A,Mendoza,3955,AR,Mendoza
740,1736,Calle 8154,,CABA,6527,AR,Buenos Aires
741,1737,Calle 6371,,San Rafael,6543,AR,Mendoza
742,1738,Calle 8041,,CABA,6870,AR,Buenos Aires
743,1739,Calle 9686,,Godoy Cruz,6251,AR,Mendoza
744,1740,Calle 8716,,Río Cuarto,5629,AR,Córdoba
745,1741,Calle 4800,Piso 11 Dto B,CABA,8129,AR,Buenos Aires
746,1742,Calle 8049,Piso 2 Dto B,CABA,7370,AR,Buenos Aires
747,1743,Calle 904,,La Plata,2461,AR,Buenos Aires
748,1744,Calle 9360,Piso 9 Dto A,Rafaela,1785,AR,Santa Fe
749,1745,Calle 6307,,La Plata,8107,AR,Buenos Aires
750,1746,Calle 8336,,CABA,4514,AR,Buenos Aires
751,1747,Calle 3631,,CABA,4335,AR,Buenos Aires
752,1748,Calle 256,,Mar del Plata,2905,AR,Buenos Aires
753,1749,Calle 5420,,CABA,7091,AR,Buenos Aires
754,1750,Calle 9810,Piso 4 Dto C,CABA,7927,AR,Buenos Aires
755,1751,Calle 4467,,Mar del Plata,7813,AR,Buenos Aires
756,1752,Calle 7999,,CABA,7479,AR,Buenos Aires
757,1753,Calle 2112,,Villa Carlos Paz,2155,AR,Córdoba
758,1754,Calle 1090,Piso 3 Dto C,La Plata,3742,AR,Buenos Aires
759,1755,Calle 6525,Piso 5 Dto C,San Rafael,5664,AR,Mendoza
760,1756,Calle 6471,Piso 4 Dto A,CABA,4289,AR,Buenos Aires
761,1757,Calle 7684,,CABA,4746,AR,Buenos Aires
762,1758,Calle 1370,,Rosario,8142,AR,Santa Fe
763,1759,Calle 7243,,CABA,4447,AR,Buenos Aires
764,1760,Calle 2503,,CABA,6736,AR,Buenos Aires
765,1761,Calle 925,,Mar del Plata,5780,AR,Buenos Aires
766,1762,Calle 3185,Piso 6 Dto C,CABA,1414,AR,Buenos Aires
767,1763,Calle 9858,,CABA,3348,AR,Buenos Aires
768,1764,Calle 1825,Piso 11 Dto A,Mendoza,9487,AR,Mendoza
769,1765,Calle 2784,Piso 12 Dto B,Mar del Plata,1629,AR,Buenos Aires
770,1766,Calle 3829,,San Rafael,1957,AR,Mendoza
771,1767,Calle 3679,,Rosario,1324,AR,Santa Fe
772,1768,Calle 6326,Piso 5 Dto C,San Rafael,8367,AR,Mendoza
773,1769,Calle 4097,Piso 6 Dto C,Río Cuarto,8850,AR,Córdoba
774,1770,Calle 3668,,La Plata,7364,AR,Buenos Aires
775,1771,Calle 344,,Santa Fe,1697,AR,Santa Fe
776,1772,Calle 3719,Piso 7 Dto A,Mar del Plata,4409,AR,Buenos Aires
777,1773,Calle 7547,Piso 12 Dto B,La Plata,7364,AR,Buenos Aires
778,1774,Calle 6536,,La Plata,5030,AR,Buenos Aires
779,1775,Calle 3189,Piso 12 Dto C,Río Cuarto,8591,AR,Córdoba
780,1776,Calle 6141,,Santa Fe,7436,AR,Santa Fe
781,1777,Calle 7411,Piso 5 Dto C,Mar del Plata,1833,AR,Buenos Aires
782,1778,Calle 2568,Piso 11 Dto B,Mar del Plata,3954,AR,Buenos Aires
783,1779,Calle 6324,,CABA,5478,AR,Buenos Aires
784,1780,Calle 6585,,Rafaela,7738,AR,Santa Fe
785,1781,Calle 2140,,Mar del Plata,2590,AR,Buenos Aires
786,1782,Calle 865,Piso 6 Dto A,CABA,6844,AR,Buenos Aires
787,1783,Calle 5040,Piso 2 Dto B,Córdoba,8317,AR,Córdoba
788,1784,Calle 4748,,CABA,3490,AR,Buenos Aires
789,1785,Calle 6713,Piso 3 Dto C,Mar del Plata,5607,AR,Buenos Aires
790,1786,Calle 2403,,San Rafael,3221,AR,Mendoza
791,1787,Calle 2793,Piso 1 Dto C,La Plata,8224,AR,Buenos Aires
792,1788,Calle 8058,Piso 11 Dto C,CABA,6566,AR,Buenos Aires
793,1789,Calle 2904,Piso 3 Dto C,Rosario,7449,AR,Santa Fe
794,1790,Calle 3230,Piso 11 Dto B,Mar del Plata,2361,AR,Buenos Aires
795,1791,Calle 262,Piso 10 Dto C,Villa Carlos Paz,3769,AR,Córdoba
796,1792,Calle 8412,,Rosario,9021,AR,Santa Fe
797,1793,Calle 3913,Piso 12 Dto B,Mendoza,8355,AR,Mendoza
798,1794,Calle 7506,Piso 11 Dto A,La Plata,1514,AR,Buenos Aires
799,1795,Calle 175,,Rafaela,5959,AR,Santa Fe
800,1796,Calle 6227,Piso 7 Dto A,La Plata,7146,AR,Buenos Aires
801,1797,Calle 6956,Piso 7 Dto C,Mar del Plata,3168,AR,Buenos Aires
802,1798,Calle 3161,Piso 8 Dto B,Río Cuarto,2364,AR,Córdoba
803,1799,Calle 5221,,Mendoza,3105,AR,Mendoza
804,1800,Calle 6118,,CABA,2431,AR,Buenos Aires
805,1801,Calle 5590,,CABA,8549,AR,Buenos Aires
806,1802,Calle 1999,,Rosario,4268,AR,Santa Fe
807,1803,Calle 1501,,Mar del Plata,4444,AR,Buenos Aires
808,1804,Calle 5250,,Villa Carlos Paz,8799,AR,Córdoba
809,1805,Calle 9920,Piso 12 Dto A,Villa Carlos Paz,5719,AR,Córdoba
810,1806,Calle 104,,Mar del Plata,5313,AR,Buenos Aires
811,1807,Calle 3103,,Rafaela,4083,AR,Santa Fe
812,1808,Calle 2662,Piso 7 Dto C,Rosario,7754,AR,Santa Fe
813,1809,Calle 6989,,Córdoba,9692,AR,Córdoba
814,1810,Calle 4124,,Río Cuarto,2009,AR,Córdoba
815,1811,Calle 990,,Mar del Plata,8306,AR,Buenos Aires
816,1812,Calle 1446,Piso 6 Dto C,San Rafael,2079,AR,Mendoza
817,1813,Calle 7386,Piso 6 Dto C,Villa Carlos Paz,7069,AR,Córdoba
818,1814,Calle 5136,,La Plata,4737,AR,Buenos Aires
819,1815,Calle 6714,Piso 8 Dto B,La Plata,7606,AR,Buenos Aires
820,1816,Calle 7409,Piso 3 Dto A,Santa Fe,7874,AR,Santa Fe
821,1817,Calle 6250,Piso 11 Dto A,Santa Fe,6991,AR,Santa Fe
822,1818,Calle 2831,,Mar del Plata,4555,AR,Buenos Aires
823,1819,Calle 2456,,La Plata,1355,AR,Buenos Aires
824,1820,Calle 9001,,La Plata,8971,AR,Buenos Aires
825,1821,Calle 7985,Piso 11 Dto A,CABA,2736,AR,Buenos Aires
826,1822,Calle 7811,,San Rafael,4852,AR,Mendoza
827,1823,Calle 6822,Piso 8 Dto A,Mendoza,3598,AR,Mendoza
828,1824,Calle 7029,,Río Cuarto,9677,AR,Córdoba
829,1825,Calle 2100,Piso 6 Dto C,La Plata,2034,AR,Buenos Aires
830,1826,Calle 4033,,La Plata,6120,AR,Buenos Aires
831,1827,Calle 5583,,Rafaela,3082,AR,Santa Fe
832,1828,Calle 3751,,Rafaela,5081,AR,Santa Fe
833,1829,Calle 5136,Piso 9 Dto A,Córdoba,3430,AR,Córdoba
834,1830,Calle 7581,Piso 10 Dto C,La Plata,2096,AR,Buenos Aires
835,1831,Calle 4526,Piso 12 Dto A,CABA,1967,AR,Buenos Aires
836,1832,Calle 51,Piso 6 Dto B,Mar del Plata,3394,AR,Buenos Aires
837,1833,Calle 5148,,Godoy Cruz,4083,AR,Mendoza
838,1834,Calle 3194,Piso 9 Dto C,CABA,5066,AR,Buenos Aires
839,1835,Calle 4886,,CABA,5851,AR,Buenos Aires
840,1836,Calle 6905,Piso 2 Dto B,Mar del Plata,3418,AR,Buenos Aires
841,1837,Calle 2572,Piso 10 Dto B,Río Cuarto,2765,AR,Córdoba
842,1838,Calle 9938,,CABA,3105,AR,Buenos Aires
843,1839,Calle 859,Piso 6 Dto C,Mendoza,7042,AR,Mendoza
844,1840,Calle 6145,Piso 9 Dto A,Mar del Plata,6306,AR,Buenos Aires
845,1841,Calle 566,Piso 11 Dto B,Mar del Plata,1645,AR,Buenos Aires
846,1842,Calle 2161,,Mar del Plata,3292,AR,Buenos Aires
847,1843,Calle 3851,Piso 2 Dto B,CABA,6540,AR,Buenos Aires
848,1844,Calle 8069,,CABA,9596,AR,Buenos Aires
849,1845,Calle 2540,,Villa Carlos Paz,8348,AR,Córdoba
850,1846,Calle 3726,,La Plata,1859,AR,Buenos Aires
851,1847,Calle 3589,,CABA,9201,AR,Buenos Aires
852,1848,Calle 6485,Piso 1 Dto C,Mar del Plata,9064,AR,Buenos Aires
853,1849,Calle 6799,,Río Cuarto,4278,AR,Córdoba
854,1850,Calle 8053,,Mar del Plata,7031,AR,Buenos Aires
855,1851,Calle 6508,,Rosario,5610,AR,Santa Fe
856,1852,Calle 6364,Piso 3 Dto A,Río Cuarto,6480,AR,Córdoba
857,1853,Calle 6433,Piso 2 Dto C,La Plata,8399,AR,Buenos Aires
858,1854,Calle 8386,,Mar del Plata,2846,AR,Buenos Aires
859,1855,Calle 3369,Piso 4 Dto C,CABA,4511,AR,Buenos Aires
860,1856,Calle 3766,,CABA,9373,AR,Buenos Aires
861,1857,Calle 2965,Piso 6 Dto A,CABA,7366,AR,Buenos Aires
862,1858,Calle 9861,Piso 3 Dto B,La Plata,5675,AR,Buenos Aires
863,1859,Calle 5,,CABA,1183,AR,Buenos Aires
864,1860,Calle 7292,,Godoy Cruz,2593,AR,Mendoza
865,1861,Calle 3126,Piso 7 Dto C,Mar del Plata,2246,AR,Buenos Aires
866,1862,Calle 4874,Piso 1 Dto A,CABA,3323,AR,Buenos Aires
867,1863,Calle 1972,,CABA,8807,AR,Buenos Aires
868,1864,Calle 3848,Piso 8 Dto C,CABA,5424,AR,Buenos Aires
869,1865,Calle 1037,,Villa Carlos Paz,4530,AR,Córdoba
870,1866,Calle 490,Piso 1 Dto B,La Plata,8630,AR,Buenos Aires
871,1867,Calle 9450,,CABA,5601,AR,Buenos Aires
872,1868,Calle 4380,Piso 1 Dto C,Córdoba,4081,AR,Córdoba
873,1869,Calle 723,Piso 10 Dto B,Córdoba,4793,AR,Córdoba
874,1870,Calle 9799,Piso 6 Dto B,CABA,9922,AR,Buenos Aires
875,1871,Calle 9028,Piso 9 Dto A,La Plata,6681,AR,Buenos Aires
876,1872,Calle 6097,Piso 8 Dto B,La Plata,3418,AR,Buenos Aires
877,1873,Calle 5904,Piso 7 Dto A,Villa Carlos Paz,3255,AR,Córdoba
878,1874,Calle 7645,,San Rafael,1700,AR,Mendoza
879,1875,Calle 2377,,Mar del Plata,3285,AR,Buenos Aires
880,1876,Calle 1340,,Santa Fe,9512,AR,Santa Fe
881,1877,Calle 9019,,Villa Carlos Paz,6486,AR,Córdoba
882,1878,Calle 6117,Piso 9 Dto B,Mar del Plata,4589,AR,Buenos Aires
883,1879,Calle 1744,Piso 4 Dto C,Río Cuarto,3551,AR,Córdoba
884,1880,Calle 1767,,Río Cuarto,6022,AR,Córdoba
885,1881,Calle 3429,,Santa Fe,4129,AR,Santa Fe
886,1882,Calle 1984,,La Plata,2098,AR,Buenos Aires
887,1883,Calle 6913,Piso 6 Dto C,CABA,1173,AR,Buenos Aires
888,1884,Calle 3416,Piso 5 Dto B,La Plata,1686,AR,Buenos Aires
889,1885,Calle 5237,Piso 6 Dto A,Godoy Cruz,8759,AR,Mendoza
890,1886,Calle 6926,Piso 12 Dto C,Rosario,9033,AR,Santa Fe
891,1887,Calle 1423,,La Plata,2359,AR,Buenos Aires
892,1888,Calle 1541,Piso 8 Dto B,Río Cuarto,4954,AR,Córdoba
893,1889,Calle 9055,,La Plata,7727,AR,Buenos Aires
894,1890,Calle 9723,Piso 11 Dto A,CABA,2132,AR,Buenos Aires
895,1891,Calle 9258,,La Plata,5148,AR,Buenos Aires
896,1892,Calle 2850,,Villa Carlos Paz,1652,AR,Córdoba
897,1893,Calle 1797,,Villa Carlos Paz,4262,AR,Córdoba
898,1894,Calle 6346,,CABA,7172,AR,Buenos Aires
899,1895,Calle 5572,Piso 11 Dto C,CABA,4747,AR,Buenos Aires
900,1896,Calle 1664,,Rosario,1387,AR,Santa Fe
901,1897,Calle 7045,Piso 1 Dto C,Mar del Plata,9904,AR,Buenos Aires
902,1898,Calle 4570,Piso 7 Dto C,CABA,2096,AR,Buenos Aires
903,1899,Calle 5860,,Mar del Plata,3253,AR,Buenos Aires
904,1900,Calle 9346,,CABA,8308,AR,Buenos Aires
905,1901,Calle 7830,,La Plata,7770,AR,Buenos Aires
906,1902,Calle 3317,,Córdoba,7401,AR,Córdoba
907,1903,Calle 200,Piso 2 Dto C,Mar del Plata,9692,AR,Buenos Aires
908,1904,Calle 5236,,CABA,4091,AR,Buenos Aires
909,1905,Calle 1623,,CABA,3393,AR,Buenos Aires
910,1906,Calle 1115,,Rosario,3698,AR,Santa Fe
911,1907,Calle 5927,Piso 4 Dto B,Villa Carlos Paz,1977,AR,Córdoba
912,1908,Calle 6466,Piso 1 Dto A,La Plata,7402,AR,Buenos Aires
913,1909,Calle 2087,Piso 8 Dto C,Córdoba,3576,AR,Córdoba
914,1910,Calle 8146,,Villa Carlos Paz,7837,AR,Córdoba
915,1911,Calle 2385,Piso 11 Dto A,Río Cuarto,5544,AR,Córdoba
916,1912,Calle 5595,Piso 5 Dto C,Mar del Plata,6048,AR,Buenos Aires
917,1913,Calle 9660,,La Plata,8689,AR,Buenos Aires
918,1914,Calle 5611,,La Plata,5122,AR,Buenos Aires
919,1915,Calle 9740,Piso 9 Dto A,Godoy Cruz,6311,AR,Mendoza
920,1916,Calle 5020,Piso 4 Dto B,Villa Carlos Paz,5563,AR,Córdoba
921,1917,Calle 3086,Piso 10 Dto A,Río Cuarto,4112,AR,Córdoba
922,1918,Calle 5262,,Río Cuarto,2920,AR,Córdoba
923,1919,Calle 9800,,Córdoba,9142,AR,Córdoba
924,1920,Calle 4436,Piso 10 Dto B,La Plata,3397,AR,Buenos Aires
925,1921,Calle 2039,Piso 7 Dto C,Villa Carlos Paz,1053,AR,Córdoba
926,1922,Calle 8111,Piso 8 Dto C,La Plata,9374,AR,Buenos Aires
927,1923,Calle 7008,,CABA,8804,AR,Buenos Aires
928,1924,Calle 2290,Piso 3 Dto A,CABA,1892,AR,Buenos Aires
929,1925,Calle 1761,Piso 9 Dto C,Santa Fe,3087,AR,Santa Fe
930,1926,Calle 6935,,San Rafael,1161,AR,Mendoza
931,1927,Calle 4542,,Mar del Plata,4776,AR,Buenos Aires
932,1928,Calle 4371,,Río Cuarto,3485,AR,Córdoba
933,1929,Calle 3603,,Villa Carlos Paz,9875,AR,Córdoba
934,1930,Calle 9360,Piso 12 Dto C,Mendoza,8966,AR,Mendoza
935,1931,Calle 3621,,La Plata,3843,AR,Buenos Aires
936,1932,Calle 3913,Piso 11 Dto B,CABA,7335,AR,Buenos Aires
937,1933,Calle 1344,Piso 7 Dto C,CABA,8250,AR,Buenos Aires
938,1934,Calle 6229,Piso 1 Dto C,Villa Carlos Paz,4360,AR,Córdoba
939,1935,Calle 5609,Piso 6 Dto A,Mar del Plata,9315,AR,Buenos Aires
940,1936,Calle 3367,,Rafaela,7187,AR,Santa Fe
941,1937,Calle 3571,Piso 6 Dto B,Rosario,5491,AR,Santa Fe
942,1938,Calle 6217,,Córdoba,4998,AR,Córdoba
943,1939,Calle 6372,Piso 10 Dto B,CABA,7241,AR,Buenos Aires
944,1940,Calle 7297,Piso 7 Dto A,Mar del Plata,5176,AR,Buenos Aires
945,1941,Calle 4258,,La Plata,4590,AR,Buenos Aires
946,1942,Calle 595,,Córdoba,4745,AR,Córdoba
947,1943,Calle 1514,,Córdoba,5102,AR,Córdoba
948,1944,Calle 7424,,La Plata,8141,AR,Buenos Aires
949,1945,Calle 3754,,Rosario,9528,AR,Santa Fe
950,1946,Calle 855,,CABA,5722,AR,Buenos Aires
951,1947,Calle 2752,,La Plata,2262,AR,Buenos Aires
952,1948,Calle 2929,Piso 9 Dto A,Santa Fe,7044,AR,Santa Fe
953,1949,Calle 4025,,CABA,5461,AR,Buenos Aires
954,1950,Calle 8266,,Rafaela,3736,AR,Santa Fe
955,1951,Calle 3964,Piso 10 Dto B,CABA,8576,AR,Buenos Aires
956,1952,Calle 1801,,Mar del Plata,1692,AR,Buenos Aires
957,1953,Calle 10,Piso 5 Dto B,Mendoza,7471,AR,Mendoza
958,1954,Calle 8603,Piso 8 Dto C,La Plata,7638,AR,Buenos Aires
959,1955,Calle 2735,,La Plata,1596,AR,Buenos Aires
960,1956,Calle 4890,Piso 2 Dto C,La Plata,7268,AR,Buenos Aires
961,1957,Calle 5154,,CABA,4531,AR,Buenos Aires
962,1958,Calle 7372,,Rosario,5947,AR,Santa Fe
963,1959,Calle 3721,Piso 8 Dto B,CABA,7541,AR,Buenos Aires
964,1960,Calle 3354,Piso 8 Dto A,Villa Carlos Paz,1841,AR,Córdoba
965,1961,Calle 1660,,San Rafael,6743,AR,Mendoza
966,1962,Calle 7101,Piso 2 Dto C,San Rafael,6812,AR,Mendoza
967,1963,Calle 7856,Piso 2 Dto B,Córdoba,4169,AR,Córdoba
968,1964,Calle 182,Piso 2 Dto A,Mendoza,1981,AR,Mendoza
969,1965,Calle 8538,Piso 6 Dto A,Mar del Plata,7609,AR,Buenos Aires
970,1966,Calle 5685,Piso 10 Dto B,Santa Fe,7028,AR,Santa Fe
971,1967,Calle 2021,Piso 8 Dto B,Rafaela,9420,AR,Santa Fe
972,1968,Calle 9280,,Río Cuarto,7191,AR,Córdoba
973,1969,Calle 4377,,Villa Carlos Paz,2526,AR,Córdoba
974,1970,Calle 687,,CABA,3178,AR,Buenos Aires
975,1971,Calle 6842,Piso 3 Dto B,CABA,4450,AR,Buenos Aires
976,1972,Calle 614,Piso 5 Dto C,Mendoza,2082,AR,Mendoza
977,1973,Calle 8086,Piso 2 Dto A,CABA,6615,AR,Buenos Aires
978,1974,Calle 9455,Piso 9 Dto C,Santa Fe,6349,AR,Santa Fe
979,1975,Calle 9663,Piso 9 Dto C,Mar del Plata,5018,AR,Buenos Aires
980,1976,Calle 7920,Piso 5 Dto B,Santa Fe,9173,AR,Santa Fe
981,1977,Calle 4921,,Mar del Plata,4663,AR,Buenos Aires
982,1978,Calle 7608,Piso 3 Dto A,Rosario,7760,AR,Santa Fe
983,1979,Calle 4901,,La Plata,8883,AR,Buenos Aires
984,1980,Calle 7138,,Rosario,7786,AR,Santa Fe
985,1981,Calle 6069,,Godoy Cruz,8971,AR,Mendoza
986,1982,Calle 9641,Piso 4 Dto B,Godoy Cruz,4852,AR,Mendoza
987,1983,Calle 5507,Piso 3 Dto C,CABA,7174,AR,Buenos Aires
988,1984,Calle 140,Piso 3 Dto C,CABA,9071,AR,Buenos Aires
989,1985,Calle 2489,Piso 1 Dto A,San Rafael,3909,AR,Mendoza
990,1986,Calle 5854,,La Plata,1662,AR,Buenos Aires
991,1987,Calle 1638,,Santa Fe,1647,AR,Santa Fe
992,1988,Calle 2785,,Rosario,5379,AR,Santa Fe
993,1989,Calle 1175,,Río Cuarto,2064,AR,Córdoba
994,1990,Calle 2579,,Villa Carlos Paz,9133,AR,Córdoba
995,1991,Calle 6446,,Córdoba,8744,AR,Córdoba
996,1992,Calle 5021,Piso 5 Dto C,Mar del Plata,7848,AR,Buenos Aires
997,1993,Calle 5352,Piso 4 Dto A,Santa Fe,3436,AR,Santa Fe
998,1994,Calle 9629,,CABA,8355,AR,Buenos Aires
999,1995,Calle 4629,Piso 6 Dto C,CABA,4919,AR,Buenos Aires
1000,1996,Calle 9046,Piso 12 Dto C,CABA,4436,AR,Buenos Aires
1001,1997,Calle 2565,Piso 7 Dto A,Villa Carlos Paz,2082,AR,Córdoba
1002,1998,Calle 6383,Piso 3 Dto B,La Plata,7512,AR,Buenos Aires
1003,1999,Calle 6920,,La Plata,1121,AR,Buenos Aires
1004,2000,Calle 1528,,Godoy Cruz,1688,AR,Mendoza
1005,2001,Calle 8116,,Mar del Plata,7846,AR,Buenos Aires
1006,2002,Calle 5911,Piso 12 Dto B,Rafaela,6524,AR,Santa Fe
1007,2003,Calle 3305,Piso 4 Dto A,Mar del Plata,9273,AR,Buenos Aires
1008,2004,Calle 9675,,Mar del Plata,8126,AR,Buenos Aires
1009,2005,Calle 9683,Piso 9 Dto B,Mar del Plata,1729,AR,Buenos Aires
1010,2006,Calle 9656,Piso 11 Dto A,La Plata,7836,AR,Buenos Aires
1011,2007,Calle 9370,,San Rafael,8360,AR,Mendoza
1012,2008,Calle 635,Piso 4 Dto C,Mar del Plata,7468,AR,Buenos Aires
1013,2009,Calle 665,,CABA,7504,AR,Buenos Aires
1014,2010,Calle 4484,Piso 9 Dto C,CABA,1267,AR,Buenos Aires
1015,2011,Calle 5017,,Rafaela,9136,AR,Santa Fe
1016,2012,Calle 4712,Piso 2 Dto A,Mar del Plata,6383,AR,Buenos Aires
1017,2013,Calle 233,,CABA,6386,AR,Buenos Aires
1018,2014,Calle 1630,Piso 3 Dto C,Mendoza,3769,AR,Mendoza
1019,2015,Calle 2652,,Villa Carlos Paz,6921,AR,Córdoba
1020,2016,Calle 5071,,Santa Fe,2248,AR,Santa Fe
1021,2017,Calle 3925,,Rosario,2857,AR,Santa Fe
1022,2018,Calle 8759,,Mar del Plata,8884,AR,Buenos Aires
1023,2019,Calle 1508,Piso 6 Dto A,Santa Fe,4101,AR,Santa Fe
1024,2020,Calle 299,,San Rafael,3658,AR,Mendoza
1025,2021,Calle 8763,Piso 4 Dto B,Mar del Plata,1488,AR,Buenos Aires
1026,2022,Calle 1697,,Santa Fe,3744,AR,Santa Fe
1027,2023,Calle 9607,,Villa Carlos Paz,4715,AR,Córdoba
1028,2024,Calle 6346,Piso 6 Dto C,Villa Carlos Paz,4262,AR,Córdoba
1029,2025,Calle 61,,CABA,7103,AR,Buenos Aires
1030,2026,Calle 5164,,CABA,2572,AR,Buenos Aires
1031,2027,Calle 9714,Piso 3 Dto B,Córdoba,6582,AR,Córdoba
1032,2028,Calle 5195,Piso 4 Dto B,Córdoba,5807,AR,Córdoba
1033,2029,Calle 4919,Piso 11 Dto A,Rosario,7219,AR,Santa Fe
1034,2030,Calle 1219,,La Plata,9163,AR,Buenos Aires
1035,2031,Calle 373,Piso 1 Dto B,Villa Carlos Paz,4027,AR,Córdoba
1036,2032,Calle 9879,Piso 10 Dto A,Rafaela,2857,AR,Santa Fe
1037,2033,Calle 5216,,Godoy Cruz,2291,AR,Mendoza
1038,2034,Calle 9015,Piso 9 Dto A,La Plata,5874,AR,Buenos Aires
1039,2035,Calle 5111,Piso 7 Dto A,Rosario,5408,AR,Santa Fe
1040,2036,Calle 9639,Piso 1 Dto A,CABA,1696,AR,Buenos Aires
1041,2037,Calle 8880,,Santa Fe,5056,AR,Santa Fe
1042,2038,Calle 9323,,CABA,8705,AR,Buenos Aires
1043,2039,Calle 2775,,Córdoba,7683,AR,Córdoba
1044,2040,Calle 9449,Piso 12 Dto A,Villa Carlos Paz,9971,AR,Córdoba
1045,2041,Calle 6365,Piso 4 Dto C,CABA,6640,AR,Buenos Aires
1046,2042,Calle 6743,Piso 10 Dto B,Mar del Plata,5080,AR,Buenos Aires
1047,2043,Calle 9917,,Villa Carlos Paz,7644,AR,Córdoba
1048,2044,Calle 2101,,Río Cuarto,5076,AR,Córdoba
1049,2045,Calle 4096,,Córdoba,7467,AR,Córdoba
1050,2046,Calle 1846,,Godoy Cruz,2814,AR,Mendoza
1051,2047,Calle 3381,,La Plata,3019,AR,Buenos Aires
1052,2048,Calle 6206,Piso 11 Dto C,La Plata,8264,AR,Buenos Aires
1053,2049,Calle 3388,,Rosario,4977,AR,Santa Fe
1054,2050,Calle 7168,,La Plata,8099,AR,Buenos Aires
1055,2051,Calle 7517,,CABA,7773,AR,Buenos Aires
1056,2052,Calle 4644,Piso 5 Dto A,Rosario,1225,AR,Santa Fe
1057,2053,Calle 1070,Piso 10 Dto B,Rafaela,5967,AR,Santa Fe
1058,2054,Calle 4516,Piso 8 Dto B,Mar del Plata,3628,AR,Buenos Aires
1059,2055,Calle 281,Piso 4 Dto C,CABA,7300,AR,Buenos Aires
1060,2056,Calle 8351,,San Rafael,5385,AR,Mendoza
1061,2057,Calle 1620,Piso 5 Dto C,Mar del Plata,7614,AR,Buenos Aires
1062,2058,Calle 3953,,CABA,9682,AR,Buenos Aires
1063,2059,Calle 56,Piso 3 Dto A,Río Cuarto,7876,AR,Córdoba
1064,2060,Calle 3070,Piso 2 Dto C,CABA,7960,AR,Buenos Aires
1065,2061,Calle 9605,Piso 4 Dto C,Villa Carlos Paz,6847,AR,Córdoba
1066,2062,Calle 3216,,Mar del Plata,6507,AR,Buenos Aires
1067,2063,Calle 8725,,CABA,8058,AR,Buenos Aires
1068,2064,Calle 1691,,CABA,7729,AR,Buenos Aires
1069,2065,Calle 8766,,La Plata,9987,AR,Buenos Aires
1070,2066,Calle 3515,,Córdoba,1599,AR,Córdoba
1071,2067,Calle 6704,Piso 2 Dto B,Mar del Plata,4425,AR,Buenos Aires
1072,2068,Calle 1947,,CABA,1723,AR,Buenos Aires
1073,2069,Calle 2737,,Río Cuarto,9020,AR,Córdoba
1074,2070,Calle 1640,,Santa Fe,5549,AR,Santa Fe
1075,2071,Calle 5848,,La Plata,1440,AR,Buenos Aires
1076,2072,Calle 350,,San Rafael,3819,AR,Mendoza
1077,2073,Calle 2940,,CABA,3172,AR,Buenos Aires
1078,2074,Calle 7365,,Mar del Plata,1515,AR,Buenos Aires
1079,2075,Calle 3346,Piso 6 Dto C,Río Cuarto,8074,AR,Córdoba
1080,2076,Calle 7762,,Córdoba,7136,AR,Córdoba
1081,2077,Calle 6888,,Mar del Plata,4469,AR,Buenos Aires
1082,2078,Calle 7121,,CABA,5360,AR,Buenos Aires
1083,2079,Calle 8698,Piso 10 Dto C,Río Cuarto,8422,AR,Córdoba
1084,2080,Calle 8731,,Rafaela,8357,AR,Santa Fe
1085,2081,Calle 4575,,La Plata,1328,AR,Buenos Aires
1086,2082,Calle 8773,,La Plata,3077,AR,Buenos Aires
1087,2083,Calle 8742,Piso 2 Dto C,Mar del Plata,7465,AR,Buenos Aires
1088,2084,Calle 8832,,CABA,1831,AR,Buenos Aires
1089,2085,Calle 1216,,Rafaela,6556,AR,Santa Fe
1090,2086,Calle 4279,,La Plata,3921,AR,Buenos Aires
1091,2087,Calle 2290,,CABA,9486,AR,Buenos Aires
1092,2088,Calle 6917,,Córdoba,6273,AR,Córdoba
1093,2089,Calle 5533,,La Plata,1447,AR,Buenos Aires
1094,2090,Calle 498,,Rafaela,2328,AR,Santa Fe
1095,2091,Calle 1610,Piso 8 Dto C,Villa Carlos Paz,1937,AR,Córdoba
1096,2092,Calle 5126,,Villa Carlos Paz,9257,AR,Córdoba
1097,2093,Calle 2610,,Santa Fe,9847,AR,Santa Fe
1098,2094,Calle 1256,Piso 3 Dto A,Mar del Plata,9215,AR,Buenos Aires
1099,2095,Calle 662,Piso 9 Dto B,La Plata,1430,AR,Buenos Aires
1100,2096,Calle 4281,Piso 4 Dto B,Córdoba,6594,AR,Córdoba
1101,2097,Calle 4507,Piso 9 Dto A,Mar del Plata,7188,AR,Buenos Aires
1102,2098,Calle 2446,,La Plata,6269,AR,Buenos Aires
1103,2099,Calle 5082,Piso 3 Dto C,Villa Carlos Paz,1686,AR,Córdoba
1104,2100,Calle 7697,,Río Cuarto,4938,AR,Córdoba
1105,2101,Calle 9147,Piso 8 Dto C,Río Cuarto,1278,AR,Córdoba
1106,2102,Calle 995,,CABA,7417,AR,Buenos Aires
1107,2103,Calle 9107,,Rosario,5286,AR,Santa Fe
1108,2104,Calle 2908,Piso 9 Dto B,San Rafael,5079,AR,Mendoza
1109,2105,Calle 3076,,Mar del Plata,7548,AR,Buenos Aires
1110,2106,Calle 1074,Piso 3 Dto C,Mar del Plata,5835,AR,Buenos Aires
1111,2107,Calle 5039,,Mar del Plata,1339,AR,Buenos Aires
1112,2108,Calle 2139,Piso 6 Dto C,Rafaela,4504,AR,Santa Fe
1113,2109,Calle 1347,Piso 8 Dto A,La Plata,5777,AR,Buenos Aires
1114,2110,Calle 4762,Piso 1 Dto A,La Plata,4753,AR,Buenos Aires
1115,2111,Calle 3064,,Mar del Plata,2386,AR,Buenos Aires
1116,2112,Calle 4585,,La Plata,4700,AR,Buenos Aires
1117,2113,Calle 8208,Piso 9 Dto A,Mar del Plata,6432,AR,Buenos Aires
1118,2114,Calle 1009,Piso 11 Dto C,Mar del Plata,1615,AR,Buenos Aires
1119,2115,Calle 4774,,Córdoba,4423,AR,Córdoba
1120,2116,Calle 4223,,Mar del Plata,7467,AR,Buenos Aires
1121,2117,Calle 1476,Piso 2 Dto C,Rosario,9621,AR,Santa Fe
1122,2118,Calle 8920,,Córdoba,4950,AR,Córdoba
1123,2119,Calle 8071,Piso 4 Dto A,Córdoba,6292,AR,Córdoba
1124,2120,Calle 570,,La Plata,9272,AR,Buenos Aires
1125,2121,Calle 6379,Piso 2 Dto B,Santa Fe,9592,AR,Santa Fe
1126,2122,Calle 3420,,CABA,6481,AR,Buenos Aires
1127,2123,Calle 9785,,CABA,7181,AR,Buenos Aires
1128,2124,Calle 8149,Piso 5 Dto C,Mar del Plata,2961,AR,Buenos Aires
1129,2125,Calle 3502,Piso 7 Dto B,San Rafael,3194,AR,Mendoza
1130,2126,Calle 1162,Piso 2 Dto C,Mar del Plata,2783,AR,Buenos Aires
1131,2127,Calle 6505,Piso 9 Dto B,CABA,1432,AR,Buenos Aires
1132,2128,Calle 3191,,Santa Fe,4532,AR,Santa Fe
1133,2129,Calle 7394,Piso 5 Dto B,CABA,7852,AR,Buenos Aires
1134,2130,Calle 4817,Piso 3 Dto C,CABA,1702,AR,Buenos Aires
1135,2131,Calle 3894,Piso 8 Dto B,Villa Carlos Paz,8133,AR,Córdoba
1136,2132,Calle 1909,Piso 12 Dto A,CABA,1294,AR,Buenos Aires
1137,2133,Calle 8524,Piso 4 Dto B,Mendoza,7518,AR,Mendoza
1138,2134,Calle 6329,Piso 3 Dto C,Rosario,2190,AR,Santa Fe
1139,2135,Calle 1638,Piso 3 Dto A,Mendoza,6579,AR,Mendoza
1140,2136,Calle 8341,Piso 9 Dto A,La Plata,2782,AR,Buenos Aires
1141,2137,Calle 6955,,Villa Carlos Paz,4454,AR,Córdoba
1142,2138,Calle 661,Piso 2 Dto A,Santa Fe,1081,AR,Santa Fe
1143,2139,Calle 5614,Piso 5 Dto A,Mendoza,9660,AR,Mendoza
1144,2140,Calle 3830,,CABA,1874,AR,Buenos Aires
1145,2141,Calle 296,Piso 10 Dto A,Villa Carlos Paz,2062,AR,Córdoba
1146,2142,Calle 259,Piso 12 Dto B,CABA,3713,AR,Buenos Aires
1147,2143,Calle 9385,Piso 10 Dto C,Rafaela,7158,AR,Santa Fe
1148,2144,Calle 9907,Piso 10 Dto C,Rafaela,2468,AR,Santa Fe
1149,2145,Calle 6000,,Mar del Plata,3407,AR,Buenos Aires
1150,2146,Calle 349,,Villa Carlos Paz,3869,AR,Córdoba
1151,2147,Calle 4824,Piso 3 Dto B,CABA,1897,AR,Buenos Aires
1152,2148,Calle 9141,Piso 8 Dto A,Córdoba,2928,AR,Córdoba
1153,2149,Calle 7242,,Rosario,6070,AR,Santa Fe
1154,2150,Calle 3738,,San Rafael,6337,AR,Mendoza
1155,2151,Calle 2270,,Río Cuarto,5664,AR,Córdoba
1156,2152,Calle 1931,Piso 3 Dto C,Santa Fe,6592,AR,Santa Fe
1157,2153,Calle 6656,,CABA,8113,AR,Buenos Aires
1158,2154,Calle 6266,Piso 10 Dto B,Mar del Plata,7667,AR,Buenos Aires
1159,2155,Calle 245,Piso 9 Dto B,Mendoza,2609,AR,Mendoza
1160,2156,Calle 5140,,Rafaela,5127,AR,Santa Fe
1161,2157,Calle 8872,Piso 3 Dto A,Santa Fe,9339,AR,Santa Fe
1162,2158,Calle 483,,Córdoba,1016,AR,Córdoba
1163,2159,Calle 7115,Piso 10 Dto B,Río Cuarto,2025,AR,Córdoba
1164,2160,Calle 8256,,La Plata,4167,AR,Buenos Aires
1165,2161,Calle 786,,Rosario,5575,AR,Santa Fe
1166,2162,Calle 1199,,Mar del Plata,8424,AR,Buenos Aires
1167,2163,Calle 8550,Piso 4 Dto C,Rafaela,7736,AR,Santa Fe
1168,2164,Calle 3613,Piso 11 Dto B,La Plata,1275,AR,Buenos Aires
1169,2165,Calle 4613,,Mar del Plata,8356,AR,Buenos Aires
1170,2166,Calle 2131,Piso 10 Dto A,Villa Carlos Paz,1318,AR,Córdoba
1171,2167,Calle 8063,Piso 12 Dto C,Rafaela,7299,AR,Santa Fe
1172,2168,Calle 9860,,San Rafael,7509,AR,Mendoza
1173,2169,Calle 1101,,Villa Carlos Paz,8436,AR,Córdoba
1174,2170,Calle 5148,,CABA,4319,AR,Buenos Aires
1175,2171,Calle 1782,,Godoy Cruz,8606,AR,Mendoza
1176,2172,Calle 1666,,CABA,1007,AR,Buenos Aires
1177,2173,Calle 3899,Piso 9 Dto C,La Plata,3168,AR,Buenos Aires
1178,2174,Calle 5652,,Mar del Plata,4575,AR,Buenos Aires
1179,2175,Calle 8933,Piso 5 Dto B,Mar del Plata,1805,AR,Buenos Aires
1180,2176,Calle 783,Piso 3 Dto B,Santa Fe,9360,AR,Santa Fe
1181,2177,Calle 7065,,Mendoza,4874,AR,Mendoza
1182,2178,Calle 1665,,La Plata,3322,AR,Buenos Aires
1183,2179,Calle 8412,,Villa Carlos Paz,1229,AR,Córdoba
1184,2180,Calle 9651,,Villa Carlos Paz,4168,AR,Córdoba
1185,2181,Calle 2812,Piso 10 Dto C,La Plata,9049,AR,Buenos Aires
1186,2182,Calle 3796,,La Plata,9442,AR,Buenos Aires
1187,2183,Calle 6692,,La Plata,8366,AR,Buenos Aires
1188,2184,Calle 9644,Piso 9 Dto C,Mar del Plata,7599,AR,Buenos Aires
1189,2185,Calle 1001,,Mar del Plata,7636,AR,Buenos Aires
1190,2186,Calle 254,Piso 6 Dto A,Rosario,9857,AR,Santa Fe
1191,2187,Calle 2957,Piso 4 Dto C,CABA,6372,AR,Buenos Aires
1192,2188,Calle 5998,Piso 1 Dto B,La Plata,2718,AR,Buenos Aires
1193,2189,Calle 1194,,CABA,2191,AR,Buenos Aires
1194,2190,Calle 7483,Piso 10 Dto A,La Plata,4853,AR,Buenos Aires
1195,2191,Calle 4732,,Río Cuarto,3078,AR,Córdoba
1196,2192,Calle 9916,,Rosario,9884,AR,Santa Fe
1197,2193,Calle 4109,,San Rafael,5884,AR,Mendoza
1198,2194,Calle 8392,,Rafaela,2376,AR,Santa Fe
1199,2195,Calle 8941,,Mar del Plata,8231,AR,Buenos Aires
1200,2196,Calle 3855,Piso 9 Dto B,CABA,7397,AR,Buenos Aires
1201,2197,Calle 3060,Piso 1 Dto C,Mar del Plata,5503,AR,Buenos Aires
1202,2198,Calle 1041,Piso 12 Dto C,Rafaela,9108,AR,Santa Fe
1203,2199,Calle 2457,Piso 10 Dto C,Mar del Plata,9287,AR,Buenos Aires
1204,2200,Calle 2122,,Córdoba,9092,AR,Córdoba
1205,2201,Calle 5215,,Rafaela,7530,AR,Santa Fe
1206,2202,Calle 6041,Piso 1 Dto C,Córdoba,1489,AR,Córdoba
1207,2203,Calle 6242,Piso 12 Dto C,Santa Fe,8481,AR,Santa Fe
1208,2204,Calle 2752,,CABA,6613,AR,Buenos Aires
1209,2205,Calle 8579,Piso 7 Dto B,CABA,4213,AR,Buenos Aires
1210,2206,Calle 4820,,Mar del Plata,3180,AR,Buenos Aires
1211,2207,Calle 6413,,Villa Carlos Paz,6573,AR,Córdoba
1212,2208,Calle 5372,Piso 3 Dto C,CABA,8918,AR,Buenos Aires
1213,2209,Calle 6375,,Godoy Cruz,7613,AR,Mendoza
1214,2210,Calle 5626,Piso 9 Dto C,Rosario,2674,AR,Santa Fe
1215,2211,Calle 1741,Piso 9 Dto C,Rafaela,7049,AR,Santa Fe
1216,2212,Calle 8023,Piso 9 Dto B,Mar del Plata,6314,AR,Buenos Aires
1217,2213,Calle 4708,,Villa Carlos Paz,4181,AR,Córdoba
1218,2214,Calle 8394,,Córdoba,8884,AR,Córdoba
1219,2215,Calle 8545,,CABA,5409,AR,Buenos Aires
1220,2216,Calle 3444,,La Plata,6328,AR,Buenos Aires
1221,2217,Calle 5371,,La Plata,3842,AR,Buenos Aires
1222,2218,Calle 6873,,Córdoba,4901,AR,Córdoba
1223,2219,Calle 751,Piso 1 Dto C,La Plata,3452,AR,Buenos Aires
1224,2220,Calle 577,Piso 6 Dto A,CABA,7273,AR,Buenos Aires
1225,2221,Calle 9695,,Mendoza,3156,AR,Mendoza
1226,2222,Calle 2127,Piso 4 Dto C,La Plata,7589,AR,Buenos Aires
1227,2223,Calle 9133,,Santa Fe,6315,AR,Santa Fe
1228,2224,Calle 8830,Piso 8 Dto B,La Plata,3745,AR,Buenos Aires
1229,2225,Calle 8360,Piso 6 Dto C,La Plata,9869,AR,Buenos Aires
1230,2226,Calle 5960,Piso 6 Dto C,Villa Carlos Paz,3912,AR,Córdoba
1231,2227,Calle 1945,Piso 2 Dto C,Mar del Plata,6444,AR,Buenos Aires
1232,2228,Calle 646,Piso 1 Dto A,CABA,7103,AR,Buenos Aires
1233,2229,Calle 1192,,Córdoba,6340,AR,Córdoba
1234,2230,Calle 5309,,CABA,9548,AR,Buenos Aires
1235,2231,Calle 9103,,Villa Carlos Paz,5651,AR,Córdoba
1236,2232,Calle 8599,Piso 10 Dto B,Mar del Plata,9038,AR,Buenos Aires
1237,2233,Calle 3639,Piso 7 Dto B,Mar del Plata,5795,AR,Buenos Aires
1238,2234,Calle 2126,,CABA,7042,AR,Buenos Aires
1239,2235,Calle 8616,,CABA,3190,AR,Buenos Aires
1240,2236,Calle 3280,,Rosario,5994,AR,Santa Fe
1241,2237,Calle 133,,Mar del Plata,7805,AR,Buenos Aires
1242,2238,Calle 9057,,CABA,9724,AR,Buenos Aires
1243,2239,Calle 8499,Piso 12 Dto A,Santa Fe,3899,AR,Santa Fe
1244,2240,Calle 7607,Piso 6 Dto B,Santa Fe,5352,AR,Santa Fe
1245,2241,Calle 9359,,CABA,2478,AR,Buenos Aires
1246,2242,Calle 7432,,Rafaela,2675,AR,Santa Fe
1247,2243,Calle 7202,Piso 2 Dto C,CABA,3876,AR,Buenos Aires
1248,2244,Calle 3250,,CABA,4049,AR,Buenos Aires
1249,2245,Calle 2543,,CABA,7749,AR,Buenos Aires
1250,2246,Calle 6998,,San Rafael,5967,AR,Mendoza
1251,2247,Calle 3875,Piso 3 Dto B,Córdoba,5006,AR,Córdoba
1252,2248,Calle 5048,,Mar del Plata,9013,AR,Buenos Aires
1253,2249,Calle 3586,Piso 3 Dto B,Villa Carlos Paz,5049,AR,Córdoba
1254,2250,Calle 4160,,Villa Carlos Paz,3956,AR,Córdoba
1255,2251,Calle 7190,,Río Cuarto,8211,AR,Córdoba
1256,2252,Calle 4039,Piso 11 Dto C,La Plata,9634,AR,Buenos Aires
1257,2253,Calle 8034,,Córdoba,9502,AR,Córdoba
1258,2254,Calle 1615,Piso 3 Dto B,CABA,1889,AR,Buenos Aires
1259,2255,Calle 729,Piso 5 Dto C,CABA,8628,AR,Buenos Aires
1260,2256,Calle 7183,,Mar del Plata,7098,AR,Buenos Aires
1261,2257,Calle 8766,,CABA,4309,AR,Buenos Aires
1262,2258,Calle 3872,,La Plata,6254,AR,Buenos Aires
1263,2259,Calle 2671,,La Plata,1374,AR,Buenos Aires
1264,2260,Calle 9616,,Córdoba,2515,AR,Córdoba
1265,2261,Calle 8379,,La Plata,1080,AR,Buenos Aires
1266,2262,Calle 3448,Piso 11 Dto C,Mendoza,2522,AR,Mendoza
1267,2263,Calle 2473,,CABA,4395,AR,Buenos Aires
1268,2264,Calle 7543,,Mar del Plata,1876,AR,Buenos Aires
1269,2265,Calle 1463,Piso 2 Dto A,Río Cuarto,7597,AR,Córdoba
1270,2266,Calle 686,,CABA,8315,AR,Buenos Aires
1271,2267,Calle 8670,,Río Cuarto,4507,AR,Córdoba
1272,2268,Calle 7069,,CABA,9784,AR,Buenos Aires
1273,2269,Calle 4940,,Villa Carlos Paz,5621,AR,Córdoba
1274,2270,Calle 373,Piso 9 Dto C,La Plata,9598,AR,Buenos Aires
1275,2271,Calle 9445,,Mendoza,3459,AR,Mendoza
1276,2272,Calle 9690,Piso 4 Dto C,CABA,6733,AR,Buenos Aires
1277,2273,Calle 21,Piso 4 Dto C,Rosario,3100,AR,Santa Fe
1278,2274,Calle 3750,,Rosario,5513,AR,Santa Fe
1279,2275,Calle 9007,Piso 6 Dto C,La Plata,7346,AR,Buenos Aires
1280,2276,Calle 3474,,Rosario,3558,AR,Santa Fe
1281,2277,Calle 882,Piso 7 Dto A,La Plata,3653,AR,Buenos Aires
1282,2278,Calle 4554,,La Plata,8259,AR,Buenos Aires
1283,2279,Calle 367,,Mar del Plata,3072,AR,Buenos Aires
1284,2280,Calle 5610,,CABA,1124,AR,Buenos Aires
1285,2281,Calle 531,,Villa Carlos Paz,1276,AR,Córdoba
1286,2282,Calle 8133,Piso 10 Dto C,Godoy Cruz,7038,AR,Mendoza
1287,2283,Calle 1064,Piso 6 Dto B,Santa Fe,7094,AR,Santa Fe
1288,2284,Calle 4033,,CABA,3242,AR,Buenos Aires
1289,2285,Calle 1812,,CABA,2941,AR,Buenos Aires
1290,2286,Calle 437,,CABA,2644,AR,Buenos Aires
1291,2287,Calle 8012,,CABA,9919,AR,Buenos Aires
1292,2288,Calle 6001,,Mar del Plata,1499,AR,Buenos Aires
1293,2289,Calle 997,,San Rafael,9329,AR,Mendoza
1294,2290,Calle 4039,,CABA,6441,AR,Buenos Aires
1295,2291,Calle 5917,Piso 9 Dto B,Godoy Cruz,5919,AR,Mendoza
1296,2292,Calle 1872,,Rosario,1285,AR,Santa Fe
1297,2293,Calle 8712,Piso 9 Dto C,La Plata,8320,AR,Buenos Aires
1298,2294,Calle 4158,,Río Cuarto,2974,AR,Córdoba
1299,2295,Calle 3283,,CABA,8200,AR,Buenos Aires
1300,2296,Calle 7157,Piso 3 Dto A,Santa Fe,2049,AR,Santa Fe
1301,2297,Calle 7783,,CABA,5358,AR,Buenos Aires
1302,2298,Calle 5089,,CABA,2111,AR,Buenos Aires
1303,2299,Calle 7957,,Mar del Plata,5133,AR,Buenos Aires
1304,2300,Calle 4304,,Mar del Plata,5416,AR,Buenos Aires
1305,2301,Calle 1078,,Mar del Plata,5186,AR,Buenos Aires
1306,2302,Calle 4877,Piso 11 Dto C,Mar del Plata,7471,AR,Buenos Aires
1307,2303,Calle 3665,,San Rafael,8589,AR,Mendoza
1308,2304,Calle 6263,Piso 10 Dto C,Villa Carlos Paz,2672,AR,Córdoba
1309,2305,Calle 2433,Piso 4 Dto B,Mendoza,1804,AR,Mendoza
1310,2306,Calle 4068,Piso 4 Dto A,La Plata,8158,AR,Buenos Aires
1311,2307,Calle 8445,Piso 11 Dto C,Mar del Plata,2866,AR,Buenos Aires
1312,2308,Calle 4328,,Rosario,1431,AR,Santa Fe
1313,2309,Calle 7549,,Mar del Plata,2458,AR,Buenos Aires
1314,2310,Calle 450,Piso 11 Dto C,CABA,2557,AR,Buenos Aires
1315,2311,Calle 3854,Piso 6 Dto C,Mendoza,3401,AR,Mendoza
1316,2312,Calle 368,Piso 12 Dto C,La Plata,9326,AR,Buenos Aires
1317,2313,Calle 8956,Piso 7 Dto B,Rosario,9767,AR,Santa Fe
1318,2314,Calle 7394,,CABA,8214,AR,Buenos Aires
1319,2315,Calle 8833,,CABA,5251,AR,Buenos Aires
1320,2316,Calle 5247,,La Plata,3946,AR,Buenos Aires
1321,2317,Calle 4908,,CABA,2376,AR,Buenos Aires
1322,2318,Calle 9674,Piso 5 Dto A,La Plata,9268,AR,Buenos Aires
1323,2319,Calle 9480,,La Plata,5376,AR,Buenos Aires
1324,2320,Calle 1932,Piso 5 Dto A,Córdoba,2843,AR,Córdoba
1325,2321,Calle 9042,,La Plata,8987,AR,Buenos Aires
1326,2322,Calle 9064,Piso 9 Dto A,Río Cuarto,7183,AR,Córdoba
1327,2323,Calle 9520,Piso 11 Dto C,La Plata,3977,AR,Buenos Aires
1328,2324,Calle 6909,Piso 12 Dto C,Río Cuarto,7165,AR,Córdoba
1329,2325,Calle 4339,,Mar del Plata,5352,AR,Buenos Aires
1330,2326,Calle 1062,,CABA,6538,AR,Buenos Aires
1331,2327,Calle 5826,Piso 10 Dto A,CABA,5509,AR,Buenos Aires
1332,2328,Calle 8234,Piso 10 Dto A,CABA,9759,AR,Buenos Aires
1333,2329,Calle 3735,Piso 10 Dto A,Mar del Plata,3252,AR,Buenos Aires
1334,2330,Calle 8638,,CABA,7961,AR,Buenos Aires
1335,2331,Calle 1462,,Córdoba,2850,AR,Córdoba
1336,2332,Calle 2675,Piso 4 Dto C,Mar del Plata,2768,AR,Buenos Aires
1337,2333,Calle 6679,,Mar del Plata,5073,AR,Buenos Aires
1338,2334,Calle 9115,Piso 9 Dto A,Godoy Cruz,6446,AR,Mendoza
1339,2335,Calle 4562,,Godoy Cruz,5295,AR,Mendoza
1340,2336,Calle 5209,,Villa Carlos Paz,5737,AR,Córdoba
1341,2337,Calle 6823,Piso 7 Dto A,Mar del Plata,8933,AR,Buenos Aires
1342,2338,Calle 4239,,Rosario,9957,AR,Santa Fe
1343,2339,Calle 47,,San Rafael,2587,AR,Mendoza
1344,2340,Calle 6779,,La Plata,6348,AR,Buenos Aires
1345,2341,Calle 6170,Piso 5 Dto C,San Rafael,9821,AR,Mendoza
1346,2342,Calle 6486,Piso 12 Dto C,Río Cuarto,6105,AR,Córdoba
1347,2343,Calle 1480,Piso 6 Dto B,La Plata,6137,AR,Buenos Aires
1348,2344,Calle 2209,,Mar del Plata,1959,AR,Buenos Aires
1349,2345,Calle 6251,Piso 12 Dto A,Mendoza,2857,AR,Mendoza
1350,2346,Calle 1014,Piso 4 Dto C,La Plata,4393,AR,Buenos Aires
1351,2347,Calle 2061,Piso 2 Dto C,La Plata,6368,AR,Buenos Aires
1352,2348,Calle 7955,,Villa Carlos Paz,5933,AR,Córdoba
1353,2349,Calle 4100,Piso 3 Dto A,Mar del Plata,7165,AR,Buenos Aires
1354,2350,Calle 9122,Piso 10 Dto B,Villa Carlos Paz,9151,AR,Córdoba
1355,2351,Calle 4295,Piso 3 Dto A,La Plata,6156,AR,Buenos Aires
1356,2352,Calle 7260,,Santa Fe,8382,AR,Santa Fe
1357,2353,Calle 3151,,Rosario,7965,AR,Santa Fe
1358,2354,Calle 4229,,La Plata,4019,AR,Buenos Aires
1359,2355,Calle 888,Piso 2 Dto B,La Plata,6685,AR,Buenos Aires
1360,2356,Calle 6972,,Mendoza,3865,AR,Mendoza
1361,2357,Calle 7016,Piso 8 Dto C,La Plata,6089,AR,Buenos Aires
1362,2358,Calle 1104,,La Plata,2295,AR,Buenos Aires
1363,2359,Calle 1513,Piso 6 Dto C,CABA,9739,AR,Buenos Aires
1364,2360,Calle 101,,Córdoba,8775,AR,Córdoba
1365,2361,Calle 8103,,Godoy Cruz,2296,AR,Mendoza
1366,2362,Calle 7276,Piso 1 Dto B,Villa Carlos Paz,3210,AR,Córdoba
1367,2363,Calle 6964,,Rosario,3697,AR,Santa Fe
1368,2364,Calle 3749,Piso 12 Dto B,La Plata,4735,AR,Buenos Aires
1369,2365,Calle 6323,Piso 9 Dto A,Mar del Plata,6740,AR,Buenos Aires
1370,2366,Calle 8423,,La Plata,3021,AR,Buenos Aires
1371,2367,Calle 8249,Piso 6 Dto B,Córdoba,5396,AR,Córdoba
1372,2368,Calle 4170,Piso 5 Dto C,La Plata,5672,AR,Buenos Aires
1373,2369,Calle 3225,,CABA,4171,AR,Buenos Aires
1374,2370,Calle 4678,Piso 9 Dto C,Godoy Cruz,2390,AR,Mendoza
1375,2371,Calle 3380,Piso 4 Dto C,La Plata,3725,AR,Buenos Aires
1376,2372,Calle 9095,,CABA,2192,AR,Buenos Aires
1377,2373,Calle 8895,Piso 1 Dto A,CABA,5045,AR,Buenos Aires
1378,2374,Calle 3185,,Mar del Plata,6324,AR,Buenos Aires
1379,2375,Calle 4371,Piso 10 Dto A,CABA,4760,AR,Buenos Aires
1380,2376,Calle 1702,Piso 9 Dto A,Mar del Plata,8217,AR,Buenos Aires
1381,2377,Calle 1098,,Mar del Plata,5568,AR,Buenos Aires
1382,2378,Calle 5890,Piso 5 Dto B,Mar del Plata,1876,AR,Buenos Aires
1383,2379,Calle 5925,Piso 12 Dto A,Mar del Plata,4562,AR,Buenos Aires
1384,2380,Calle 1756,Piso 1 Dto C,Río Cuarto,4947,AR,Córdoba
1385,2381,Calle 8231,Piso 9 Dto C,La Plata,9828,AR,Buenos Aires
1386,2382,Calle 9491,,Rafaela,1998,AR,Santa Fe
1387,2383,Calle 7885,,Godoy Cruz,8853,AR,Mendoza
1388,2384,Calle 2254,,La Plata,1596,AR,Buenos Aires
1389,2385,Calle 8855,Piso 12 Dto B,Rafaela,3867,AR,Santa Fe
1390,2386,Calle 9122,Piso 11 Dto A,CABA,3666,AR,Buenos Aires
1391,2387,Calle 1691,Piso 3 Dto A,Mar del Plata,1492,AR,Buenos Aires
1392,2388,Calle 9283,,Mendoza,4474,AR,Mendoza
1393,2389,Calle 1917,,CABA,3879,AR,Buenos Aires
1394,2390,Calle 8553,Piso 7 Dto B,Mar del Plata,7216,AR,Buenos Aires
1395,2391,Calle 8322,Piso 11 Dto C,CABA,7328,AR,Buenos Aires
1396,2392,Calle 4842,Piso 4 Dto B,CABA,2522,AR,Buenos Aires
1397,2393,Calle 3855,Piso 9 Dto B,Mar del Plata,4997,AR,Buenos Aires
1398,2394,Calle 7907,,Córdoba,4194,AR,Córdoba
1399,2395,Calle 5184,,Mar del Plata,1059,AR,Buenos Aires
1400,2396,Calle 7489,,Córdoba,7063,AR,Córdoba
1401,2397,Calle 9640,,San Rafael,6429,AR,Mendoza
1402,2398,Calle 7142,Piso 7 Dto C,Mendoza,7915,AR,Mendoza
1403,2399,Calle 6439,,CABA,2479,AR,Buenos Aires
1404,2400,Calle 7324,,Mendoza,7534,AR,Mendoza
1405,2401,Calle 688,,Santa Fe,7017,AR,Santa Fe
1406,2402,Calle 6877,Piso 9 Dto A,Santa Fe,3307,AR,Santa Fe
1407,2403,Calle 9251,,Mar del Plata,7363,AR,Buenos Aires
1408,2404,Calle 3836,,Rafaela,8741,AR,Santa Fe
1409,2405,Calle 7952,Piso 10 Dto A,San Rafael,1501,AR,Mendoza
1410,2406,Calle 2960,,Santa Fe,8446,AR,Santa Fe
1411,2407,Calle 3879,,Mar del Plata,3174,AR,Buenos Aires
1412,2408,Calle 7448,,Santa Fe,7228,AR,Santa Fe
1413,2409,Calle 9066,Piso 1 Dto C,CABA,3280,AR,Buenos Aires
1414,2410,Calle 5499,,Santa Fe,8545,AR,Santa Fe
1415,2411,Calle 1479,,Mar del Plata,8999,AR,Buenos Aires
1416,2412,Calle 1223,,CABA,5592,AR,Buenos Aires
1417,2413,Calle 6600,Piso 3 Dto B,Río Cuarto,3900,AR,Córdoba
1418,2414,Calle 5477,,La Plata,8360,AR,Buenos Aires
1419,2415,Calle 6004,,Santa Fe,6678,AR,Santa Fe
1420,2416,Calle 5226,,CABA,1047,AR,Buenos Aires
1421,2417,Calle 8142,,La Plata,1815,AR,Buenos Aires
1422,2418,Calle 5607,,Córdoba,8526,AR,Córdoba
1423,2419,Calle 4563,,CABA,6375,AR,Buenos Aires
1424,2420,Calle 7955,,CABA,3636,AR,Buenos Aires
1425,2421,Calle 1477,,Córdoba,7381,AR,Córdoba
1426,2422,Calle 103,,Godoy Cruz,6757,AR,Mendoza
1427,2423,Calle 1499,Piso 2 Dto C,Córdoba,1016,AR,Córdoba
1428,2424,Calle 1412,Piso 6 Dto A,Rosario,2324,AR,Santa Fe
1429,2425,Calle 7219,,Córdoba,4270,AR,Córdoba
1430,2426,Calle 7049,,CABA,1075,AR,Buenos Aires
1431,2427,Calle 1420,Piso 9 Dto C,Mar del Plata,6361,AR,Buenos Aires
1432,2428,Calle 2308,Piso 10 Dto C,Mar del Plata,7769,AR,Buenos Aires
1433,2429,Calle 5647,Piso 3 Dto C,Villa Carlos Paz,5571,AR,Córdoba
1434,2430,Calle 1444,,Santa Fe,8768,AR,Santa Fe
1435,2431,Calle 1355,,Rafaela,1581,AR,Santa Fe
1436,2432,Calle 5764,Piso 9 Dto C,CABA,4633,AR,Buenos Aires
1437,2433,Calle 3496,Piso 12 Dto B,La Plata,5194,AR,Buenos Aires
1438,2434,Calle 5528,,Rosario,7645,AR,Santa Fe
1439,2435,Calle 638,Piso 12 Dto B,Godoy Cruz,4174,AR,Mendoza
1440,2436,Calle 4119,,Mar del Plata,9964,AR,Buenos Aires
1441,2437,Calle 3734,Piso 7 Dto C,Godoy Cruz,7650,AR,Mendoza
1442,2438,Calle 5473,Piso 1 Dto B,La Plata,5533,AR,Buenos Aires
1443,2439,Calle 5498,Piso 6 Dto A,La Plata,7505,AR,Buenos Aires
1444,2440,Calle 160,Piso 10 Dto A,CABA,6317,AR,Buenos Aires
1445,2441,Calle 5071,,Mar del Plata,4826,AR,Buenos Aires
1446,2442,Calle 7581,,Mendoza,1312,AR,Mendoza
1447,2443,Calle 7294,,La Plata,3902,AR,Buenos Aires
1448,2444,Calle 6078,Piso 4 Dto B,Villa Carlos Paz,2362,AR,Córdoba
1449,2445,Calle 2216,Piso 3 Dto B,Mendoza,6854,AR,Mendoza
1450,2446,Calle 832,,La Plata,6525,AR,Buenos Aires
1451,2447,Calle 5686,Piso 11 Dto C,Rosario,8211,AR,Santa Fe
1452,2448,Calle 719,Piso 8 Dto A,La Plata,4133,AR,Buenos Aires
1453,2449,Calle 812,Piso 6 Dto C,Mar del Plata,1459,AR,Buenos Aires
1454,2450,Calle 789,Piso 1 Dto B,Córdoba,4542,AR,Córdoba
1455,2451,Calle 3331,,Rosario,1049,AR,Santa Fe
1456,2452,Calle 3515,Piso 7 Dto A,CABA,2055,AR,Buenos Aires
1457,2453,Calle 1537,Piso 4 Dto C,Mar del Plata,3855,AR,Buenos Aires
1458,2454,Calle 6125,Piso 11 Dto C,CABA,3400,AR,Buenos Aires
1459,2455,Calle 545,Piso 1 Dto B,CABA,1213,AR,Buenos Aires
1460,2456,Calle 8971,Piso 1 Dto A,La Plata,8196,AR,Buenos Aires
1461,2457,Calle 3959,Piso 8 Dto C,Mar del Plata,3053,AR,Buenos Aires
1462,2458,Calle 4735,Piso 5 Dto C,Río Cuarto,4686,AR,Córdoba
1463,2459,Calle 7512,Piso 7 Dto A,La Plata,6375,AR,Buenos Aires
1464,2460,Calle 5701,Piso 1 Dto A,Mar del Plata,4481,AR,Buenos Aires
1465,2461,Calle 6409,,CABA,8526,AR,Buenos Aires
1466,2462,Calle 1002,,Mar del Plata,4585,AR,Buenos Aires
1467,2463,Calle 1143,,CABA,1652,AR,Buenos Aires
1468,2464,Calle 5836,Piso 4 Dto A,Rosario,9362,AR,Santa Fe
1469,2465,Calle 1912,Piso 2 Dto B,CABA,8275,AR,Buenos Aires
1470,2466,Calle 107,Piso 5 Dto C,Rafaela,8479,AR,Santa Fe
1471,2467,Calle 9118,Piso 9 Dto B,Rafaela,4048,AR,Santa Fe
1472,2468,Calle 9726,,Mar del Plata,7475,AR,Buenos Aires
1473,2469,Calle 6867,,CABA,3317,AR,Buenos Aires
1474,2470,Calle 3057,Piso 2 Dto B,Mar del Plata,8591,AR,Buenos Aires
1475,2471,Calle 18,,Córdoba,6640,AR,Córdoba
1476,2472,Calle 101,Piso 3 Dto A,Mar del Plata,3756,AR,Buenos Aires
1477,2473,Calle 2801,,Río Cuarto,9556,AR,Córdoba
1478,2474,Calle 5998,Piso 10 Dto A,Río Cuarto,2743,AR,Córdoba
1479,2475,Calle 8775,,CABA,6127,AR,Buenos Aires
1480,2476,Calle 2744,,Villa Carlos Paz,7254,AR,Córdoba
1481,2477,Calle 825,Piso 6 Dto A,Mar del Plata,9765,AR,Buenos Aires
1482,2478,Calle 9973,Piso 3 Dto C,La Plata,3824,AR,Buenos Aires
1483,2479,Calle 876,,La Plata,3754,AR,Buenos Aires
1484,2480,Calle 2911,Piso 9 Dto A,CABA,9792,AR,Buenos Aires
1485,2481,Calle 2217,,Córdoba,5128,AR,Córdoba
1486,2482,Calle 4568,,La Plata,9599,AR,Buenos Aires
1487,2483,Calle 9459,,La Plata,1167,AR,Buenos Aires
1488,2484,Calle 214,,Río Cuarto,1830,AR,Córdoba
1489,2485,Calle 2446,,San Rafael,8191,AR,Mendoza
1490,2486,Calle 1692,,CABA,1678,AR,Buenos Aires
1491,2487,Calle 5497,Piso 1 Dto B,La Plata,7485,AR,Buenos Aires
1492,2488,Calle 5644,,CABA,8208,AR,Buenos Aires
1493,2489,Calle 9578,,La Plata,3163,AR,Buenos Aires
1494,2490,Calle 2653,Piso 10 Dto A,Río Cuarto,2212,AR,Córdoba
1495,2491,Calle 670,,Mar del Plata,2955,AR,Buenos Aires
1496,2492,Calle 8868,Piso 5 Dto A,Mar del Plata,7420,AR,Buenos Aires
1497,2493,Calle 3327,Piso 2 Dto B,CABA,1229,AR,Buenos Aires
1498,2494,Calle 9129,Piso 6 Dto B,La Plata,8544,AR,Buenos Aires
1499,2495,Calle 6456,Piso 3 Dto A,Mar del Plata,6931,AR,Buenos Aires
1500,2496,Calle 4702,,Mar del Plata,8224,AR,Buenos Aires
1501,2497,Calle 5017,,CABA,7829,AR,Buenos Aires
1502,2498,Calle 9905,Piso 7 Dto A,Mar del Plata,4109,AR,Buenos Aires
1503,2499,Calle 2207,,Santa Fe,5841,AR,Santa Fe
1504,2500,Calle 2252,Piso 12 Dto B,La Plata,5367,AR,Buenos Aires
1505,2501,Calle 8409,Piso 11 Dto A,Mar del Plata,2607,AR,Buenos Aires
1506,2502,Calle 5098,Piso 12 Dto A,CABA,5319,AR,Buenos Aires
1507,2503,Calle 3923,Piso 3 Dto C,La Plata,8551,AR,Buenos Aires
1508,2504,Calle 944,,Rafaela,4684,AR,Santa Fe
1509,2505,Calle 570,,CABA,2289,AR,Buenos Aires
1510,2506,Calle 8184,Piso 7 Dto A,Rafaela,5375,AR,Santa Fe
1511,2507,Calle 6397,Piso 12 Dto C,Rafaela,9181,AR,Santa Fe
1512,2508,Calle 9615,Piso 12 Dto C,Santa Fe,6496,AR,Santa Fe
1513,2509,Calle 7154,Piso 6 Dto C,CABA,5437,AR,Buenos Aires
1514,2510,Calle 9743,,Mar del Plata,8059,AR,Buenos Aires
1515,2511,Calle 1296,Piso 3 Dto B,Mendoza,7061,AR,Mendoza
1516,2512,Calle 9383,Piso 6 Dto C,CABA,9323,AR,Buenos Aires
1517,2513,Calle 6539,Piso 10 Dto A,Rosario,7081,AR,Santa Fe
1518,2514,Calle 2978,,La Plata,8425,AR,Buenos Aires
1519,2515,Calle 9643,,La Plata,7304,AR,Buenos Aires
1520,2516,Calle 863,,Godoy Cruz,5060,AR,Mendoza
1521,2517,Calle 4932,,Mendoza,1914,AR,Mendoza
1522,2518,Calle 7503,,Córdoba,1491,AR,Córdoba
1523,2519,Calle 1999,Piso 8 Dto C,Río Cuarto,3736,AR,Córdoba
1524,2520,Calle 6036,Piso 12 Dto C,Mendoza,2513,AR,Mendoza
1525,2521,Calle 3427,Piso 6 Dto C,CABA,3887,AR,Buenos Aires
1526,2522,Calle 7548,Piso 5 Dto B,Rafaela,1796,AR,Santa Fe
1527,2523,Calle 2681,,Mar del Plata,9667,AR,Buenos Aires
1528,2524,Calle 2419,Piso 4 Dto B,Rafaela,8421,AR,Santa Fe
1529,2525,Calle 5308,,Villa Carlos Paz,8668,AR,Córdoba
1530,2526,Calle 765,Piso 11 Dto C,CABA,3498,AR,Buenos Aires
1531,2527,Calle 403,,Mendoza,1595,AR,Mendoza
1532,2528,Calle 2920,,Godoy Cruz,6065,AR,Mendoza
1533,2529,Calle 3193,,Mar del Plata,5933,AR,Buenos Aires
1534,2530,Calle 2023,,San Rafael,9099,AR,Mendoza
1535,2531,Calle 1993,Piso 4 Dto B,Mendoza,6751,AR,Mendoza
1536,2532,Calle 2884,,La Plata,8940,AR,Buenos Aires
1537,2533,Calle 6120,,Mar del Plata,4844,AR,Buenos Aires
1538,2534,Calle 7254,,Mar del Plata,9555,AR,Buenos Aires
1539,2535,Calle 7761,,La Plata,6800,AR,Buenos Aires
1540,2536,Calle 6994,Piso 2 Dto C,La Plata,1569,AR,Buenos Aires
1541,2537,Calle 9032,,CABA,7374,AR,Buenos Aires
1542,2538,Calle 8285,Piso 3 Dto A,Rosario,1632,AR,Santa Fe
1543,2539,Calle 2556,Piso 7 Dto A,CABA,4641,AR,Buenos Aires
1544,2540,Calle 2997,Piso 12 Dto A,Río Cuarto,8122,AR,Córdoba
1545,2541,Calle 6596,Piso 8 Dto A,La Plata,8251,AR,Buenos Aires
1546,2542,Calle 3551,,CABA,3644,AR,Buenos Aires
1547,2543,Calle 9953,,CABA,6670,AR,Buenos Aires
1548,2544,Calle 9275,,San Rafael,3926,AR,Mendoza
1549,2545,Calle 2999,,La Plata,7088,AR,Buenos Aires
1550,2546,Calle 7845,,Mendoza,9709,AR,Mendoza
1551,2547,Calle 8058,,Mar del Plata,1103,AR,Buenos Aires
1552,2548,Calle 9157,Piso 5 Dto A,Córdoba,3432,AR,Córdoba
1553,2549,Calle 3601,Piso 7 Dto A,Rosario,1939,AR,Santa Fe
1554,2550,Calle 6543,Piso 4 Dto C,Rafaela,6986,AR,Santa Fe
1555,2551,Calle 4536,Piso 8 Dto A,Mar del Plata,6217,AR,Buenos Aires
1556,2552,Calle 1103,Piso 6 Dto A,Córdoba,5385,AR,Córdoba
1557,2553,Calle 5607,Piso 6 Dto B,Mar del Plata,1277,AR,Buenos Aires
1558,2554,Calle 9707,Piso 4 Dto C,Villa Carlos Paz,8386,AR,Córdoba
1559,2555,Calle 987,,CABA,1297,AR,Buenos Aires
1560,2556,Calle 245,Piso 2 Dto C,CABA,2574,AR,Buenos Aires
1561,2557,Calle 2453,,Córdoba,4991,AR,Córdoba
1562,2558,Calle 6612,Piso 8 Dto C,San Rafael,7651,AR,Mendoza
1563,2559,Calle 7776,,Río Cuarto,7985,AR,Córdoba
1564,2560,Calle 1310,,Rosario,8173,AR,Santa Fe
1565,2561,Calle 7543,Piso 6 Dto C,Córdoba,9924,AR,Córdoba
1566,2562,Calle 3408,Piso 11 Dto C,Mar del Plata,4326,AR,Buenos Aires
1567,2563,Calle 6263,,Río Cuarto,1505,AR,Córdoba
1568,2564,Calle 5487,,Río Cuarto,3371,AR,Córdoba
1569,2565,Calle 1135,Piso 6 Dto A,Mar del Plata,8967,AR,Buenos Aires
1570,2566,Calle 9225,Piso 11 Dto B,La Plata,8863,AR,Buenos Aires
1571,2567,Calle 2299,Piso 7 Dto C,Córdoba,7482,AR,Córdoba
1572,2568,Calle 7132,Piso 8 Dto B,Mar del Plata,8337,AR,Buenos Aires
1573,2569,Calle 6878,Piso 4 Dto B,Mendoza,7989,AR,Mendoza
1574,2570,Calle 542,,La Plata,6783,AR,Buenos Aires
1575,2571,Calle 3264,Piso 1 Dto C,Villa Carlos Paz,5462,AR,Córdoba
1576,2572,Calle 7609,,CABA,6867,AR,Buenos Aires
1577,2573,Calle 3650,,Villa Carlos Paz,7077,AR,Córdoba
1578,2574,Calle 6030,,Córdoba,9667,AR,Córdoba
1579,2575,Calle 3382,,Mar del Plata,2283,AR,Buenos Aires
1580,2576,Calle 9169,Piso 10 Dto B,Río Cuarto,6712,AR,Córdoba
1581,2577,Calle 4064,Piso 5 Dto B,La Plata,5786,AR,Buenos Aires
1582,2578,Calle 1196,,La Plata,7480,AR,Buenos Aires
1583,2579,Calle 4235,Piso 5 Dto C,Rosario,5670,AR,Santa Fe
1584,2580,Calle 6717,,Villa Carlos Paz,3393,AR,Córdoba
1585,2581,Calle 8201,Piso 7 Dto A,La Plata,4580,AR,Buenos Aires
1586,2582,Calle 9546,,Río Cuarto,3583,AR,Córdoba
1587,2583,Calle 7300,,San Rafael,2886,AR,Mendoza
1588,2584,Calle 5355,Piso 5 Dto C,Santa Fe,4157,AR,Santa Fe
1589,2585,Calle 6071,,Villa Carlos Paz,3058,AR,Córdoba
1590,2586,Calle 4945,Piso 5 Dto C,CABA,5987,AR,Buenos Aires
1591,2587,Calle 3661,,Mendoza,3317,AR,Mendoza
1592,2588,Calle 3343,Piso 12 Dto B,CABA,7446,AR,Buenos Aires
1593,2589,Calle 6417,Piso 4 Dto B,Mar del Plata,8722,AR,Buenos Aires
1594,2590,Calle 1293,,Villa Carlos Paz,2126,AR,Córdoba
1595,2591,Calle 4889,Piso 4 Dto B,Río Cuarto,7497,AR,Córdoba
1596,2592,Calle 3651,Piso 9 Dto C,CABA,1787,AR,Buenos Aires
1597,2593,Calle 3122,,CABA,1548,AR,Buenos Aires
1598,2594,Calle 4797,Piso 3 Dto B,La Plata,4406,AR,Buenos Aires
1599,2595,Calle 7386,Piso 12 Dto C,CABA,9264,AR,Buenos Aires
1600,2596,Calle 460,Piso 1 Dto C,Rafaela,3307,AR,Santa Fe
1601,2597,Calle 822,,Mar del Plata,8983,AR,Buenos Aires
1602,2598,Calle 7632,,Rosario,5949,AR,Santa Fe
1603,2599,Calle 2543,Piso 4 Dto C,Rosario,1768,AR,Santa Fe
1604,2600,Calle 9987,Piso 5 Dto B,Mar del Plata,6543,AR,Buenos Aires
1605,2601,Calle 2613,,La Plata,9524,AR,Buenos Aires
1606,2602,Calle 153,,Córdoba,6409,AR,Córdoba
1607,2603,Calle 3532,,Córdoba,1359,AR,Córdoba
1608,2604,Calle 7676,,La Plata,8008,AR,Buenos Aires
1609,2605,Calle 7169,Piso 7 Dto A,CABA,6691,AR,Buenos Aires
1610,2606,Calle 929,Piso 3 Dto B,Mar del Plata,4450,AR,Buenos Aires
1611,2607,Calle 3782,Piso 12 Dto C,CABA,8989,AR,Buenos Aires
1612,2608,Calle 4438,,CABA,3081,AR,Buenos Aires
1613,2609,Calle 9528,,CABA,8441,AR,Buenos Aires
1614,2610,Calle 2170,Piso 5 Dto A,San Rafael,1958,AR,Mendoza
1615,2611,Calle 6777,Piso 5 Dto C,Rafaela,2664,AR,Santa Fe
1616,2612,Calle 8114,Piso 6 Dto B,Río Cuarto,2734,AR,Córdoba
1617,2613,Calle 6330,,Mendoza,9795,AR,Mendoza
1618,2614,Calle 7687,Piso 11 Dto A,Mar del Plata,9286,AR,Buenos Aires
1619,2615,Calle 9811,Piso 1 Dto C,La Plata,7312,AR,Buenos Aires
1620,2616,Calle 4174,,Santa Fe,5053,AR,Santa Fe
1621,2617,Calle 7396,,CABA,2633,AR,Buenos Aires
1622,2618,Calle 1954,,CABA,4861,AR,Buenos Aires
1623,2619,Calle 6815,,San Rafael,2211,AR,Mendoza
1624,2620,Calle 4774,,Santa Fe,3474,AR,Santa Fe
1625,2621,Calle 4126,,Mar del Plata,6215,AR,Buenos Aires
1626,2622,Calle 2876,Piso 3 Dto B,CABA,5170,AR,Buenos Aires
1627,2623,Calle 2979,Piso 3 Dto A,La Plata,5739,AR,Buenos Aires
1628,2624,Calle 2887,Piso 7 Dto C,La Plata,5270,AR,Buenos Aires
1629,2625,Calle 3200,,Rosario,9840,AR,Santa Fe
1630,2626,Calle 4824,,La Plata,5992,AR,Buenos Aires
1631,2627,Calle 8333,Piso 10 Dto C,Santa Fe,1192,AR,Santa Fe
1632,2628,Calle 170,Piso 6 Dto C,CABA,9314,AR,Buenos Aires
1633,2629,Calle 3105,Piso 11 Dto B,La Plata,5216,AR,Buenos Aires
1634,2630,Calle 3428,Piso 3 Dto C,Mar del Plata,7784,AR,Buenos Aires
1635,2631,Calle 8160,,La Plata,3621,AR,Buenos Aires
1636,2632,Calle 6855,Piso 2 Dto B,Córdoba,9892,AR,Córdoba
1637,2633,Calle 2193,Piso 1 Dto C,Mar del Plata,3583,AR,Buenos Aires
1638,2634,Calle 1169,,Córdoba,1688,AR,Córdoba
1639,2635,Calle 9529,Piso 7 Dto A,Villa Carlos Paz,5003,AR,Córdoba
1640,2636,Calle 6695,Piso 3 Dto C,Córdoba,3947,AR,Córdoba
1641,2637,Calle 5493,,CABA,6564,AR,Buenos Aires
1642,2638,Calle 1753,,Mar del Plata,1714,AR,Buenos Aires
1643,2639,Calle 2573,,Córdoba,3896,AR,Córdoba
1644,2640,Calle 1250,Piso 6 Dto C,CABA,9378,AR,Buenos Aires
1645,2641,Calle 2518,Piso 7 Dto C,Río Cuarto,9778,AR,Córdoba
1646,2642,Calle 139,,Godoy Cruz,9697,AR,Mendoza
1647,2643,Calle 959,Piso 7 Dto B,Mar del Plata,3188,AR,Buenos Aires
1648,2644,Calle 2911,Piso 10 Dto C,La Plata,8245,AR,Buenos Aires
1649,2645,Calle 8533,Piso 6 Dto C,La Plata,7581,AR,Buenos Aires
1650,2646,Calle 5093,Piso 12 Dto A,Godoy Cruz,3118,AR,Mendoza
1651,2647,Calle 1832,Piso 10 Dto A,CABA,3372,AR,Buenos Aires
1652,2648,Calle 281,,CABA,1745,AR,Buenos Aires
1653,2649,Calle 8715,Piso 4 Dto A,La Plata,8956,AR,Buenos Aires
1654,2650,Calle 1834,Piso 2 Dto B,San Rafael,3513,AR,Mendoza
1655,2651,Calle 4550,,Río Cuarto,3635,AR,Córdoba
1656,2652,Calle 9004,,Córdoba,8077,AR,Córdoba
1657,2653,Calle 2755,,Mar del Plata,1088,AR,Buenos Aires
1658,2654,Calle 2643,,San Rafael,9912,AR,Mendoza
1659,2655,Calle 64,,CABA,6351,AR,Buenos Aires
1660,2656,Calle 3850,,Mar del Plata,6820,AR,Buenos Aires
1661,2657,Calle 2801,,Villa Carlos Paz,1977,AR,Córdoba
1662,2658,Calle 7082,Piso 3 Dto B,Mar del Plata,4998,AR,Buenos Aires
1663,2659,Calle 3389,Piso 9 Dto C,Mar del Plata,4339,AR,Buenos Aires
1664,2660,Calle 1365,,Santa Fe,9885,AR,Santa Fe
1665,2661,Calle 1717,Piso 4 Dto B,La Plata,2780,AR,Buenos Aires
1666,2662,Calle 2541,,Mendoza,4295,AR,Mendoza
1667,2663,Calle 1625,,Córdoba,6723,AR,Córdoba
1668,2664,Calle 1038,Piso 9 Dto B,Mar del Plata,1324,AR,Buenos Aires
1669,2665,Calle 8078,,Godoy Cruz,7922,AR,Mendoza
1670,2666,Calle 103,,Rosario,5364,AR,Santa Fe
1671,2667,Calle 2088,Piso 8 Dto C,Rafaela,7713,AR,Santa Fe
1672,2668,Calle 1814,Piso 6 Dto C,Mar del Plata,9736,AR,Buenos Aires
1673,2669,Calle 5734,,La Plata,1272,AR,Buenos Aires
1674,2670,Calle 6040,Piso 12 Dto B,Villa Carlos Paz,3798,AR,Córdoba
1675,2671,Calle 2267,,Córdoba,6047,AR,Córdoba
1676,2672,Calle 5627,Piso 6 Dto A,Córdoba,8129,AR,Córdoba
1677,2673,Calle 4881,,Rafaela,8291,AR,Santa Fe
1678,2674,Calle 6751,Piso 7 Dto C,Córdoba,2031,AR,Córdoba
1679,2675,Calle 7937,,Villa Carlos Paz,8492,AR,Córdoba
1680,2676,Calle 4177,Piso 9 Dto B,Villa Carlos Paz,7645,AR,Córdoba
1681,2677,Calle 3171,Piso 10 Dto C,Mar del Plata,2843,AR,Buenos Aires
1682,2678,Calle 7510,Piso 9 Dto C,La Plata,4379,AR,Buenos Aires
1683,2679,Calle 8737,Piso 2 Dto B,Río Cuarto,9744,AR,Córdoba
1684,2680,Calle 162,Piso 10 Dto A,La Plata,1162,AR,Buenos Aires
1685,2681,Calle 515,,Mendoza,8515,AR,Mendoza
1686,2682,Calle 9059,,La Plata,9918,AR,Buenos Aires
1687,2683,Calle 5875,,La Plata,1008,AR,Buenos Aires
1688,2684,Calle 9103,,Rafaela,6404,AR,Santa Fe
1689,2685,Calle 9029,Piso 4 Dto C,Mar del Plata,5291,AR,Buenos Aires
1690,2686,Calle 3876,Piso 1 Dto A,Villa Carlos Paz,7071,AR,Córdoba
1691,2687,Calle 753,Piso 11 Dto B,CABA,7607,AR,Buenos Aires
1692,2688,Calle 5831,,Río Cuarto,6856,AR,Córdoba
1693,2689,Calle 4278,Piso 10 Dto A,Mar del Plata,9869,AR,Buenos Aires
1694,2690,Calle 849,,Mar del Plata,2938,AR,Buenos Aires
1695,2691,Calle 573,,La Plata,8007,AR,Buenos Aires
1696,2692,Calle 780,Piso 4 Dto B,Rosario,5964,AR,Santa Fe
1697,2693,Calle 709,Piso 7 Dto B,Mar del Plata,6618,AR,Buenos Aires
1698,2694,Calle 6132,,Villa Carlos Paz,7190,AR,Córdoba
1699,2695,Calle 1915,Piso 6 Dto B,Rosario,8826,AR,Santa Fe
1700,2696,Calle 2921,,La Plata,1129,AR,Buenos Aires
1701,2697,Calle 4832,Piso 8 Dto A,Mar del Plata,9174,AR,Buenos Aires
1702,2698,Calle 4974,Piso 9 Dto B,La Plata,7100,AR,Buenos Aires
1703,2699,Calle 2798,,Villa Carlos Paz,6120,AR,Córdoba
1704,2700,Calle 2248,Piso 5 Dto B,CABA,4574,AR,Buenos Aires
1705,2701,Calle 924,,Mar del Plata,7461,AR,Buenos Aires
1706,2702,Calle 1114,,Córdoba,3345,AR,Córdoba
1707,2703,Calle 4436,,La Plata,6677,AR,Buenos Aires
1708,2704,Calle 5264,,Mar del Plata,3964,AR,Buenos Aires
1709,2705,Calle 2293,,La Plata,7653,AR,Buenos Aires
1710,2706,Calle 8016,,Godoy Cruz,8350,AR,Mendoza
1711,2707,Calle 8669,Piso 11 Dto A,CABA,6054,AR,Buenos Aires
1712,2708,Calle 5035,,La Plata,6998,AR,Buenos Aires
1713,2709,Calle 4876,Piso 8 Dto C,CABA,2837,AR,Buenos Aires
1714,2710,Calle 4920,Piso 12 Dto C,Mar del Plata,4267,AR,Buenos Aires
1715,2711,Calle 3329,,Mar del Plata,9000,AR,Buenos Aires
1716,2712,Calle 3199,,CABA,7902,AR,Buenos Aires
1717,2713,Calle 3294,,Rosario,7997,AR,Santa Fe
1718,2714,Calle 8765,,Mar del Plata,6777,AR,Buenos Aires
1719,2715,Calle 3217,Piso 1 Dto B,La Plata,4013,AR,Buenos Aires
1720,2716,Calle 2975,Piso 2 Dto B,Villa Carlos Paz,7694,AR,Córdoba
1721,2717,Calle 5365,Piso 12 Dto A,Rosario,9386,AR,Santa Fe
1722,2718,Calle 1760,Piso 6 Dto B,Mar del Plata,4080,AR,Buenos Aires
1723,2719,Calle 8136,Piso 2 Dto C,La Plata,8253,AR,Buenos Aires
1724,2720,Calle 6513,Piso 10 Dto A,San Rafael,4677,AR,Mendoza
1725,2721,Calle 9629,Piso 10 Dto C,Rosario,7161,AR,Santa Fe
1726,2722,Calle 863,,La Plata,1605,AR,Buenos Aires
1727,2723,Calle 9079,,Mar del Plata,1277,AR,Buenos Aires
1728,2724,Calle 5577,,San Rafael,9852,AR,Mendoza
1729,2725,Calle 4711,Piso 3 Dto C,Villa Carlos Paz,7387,AR,Córdoba
1730,2726,Calle 8466,Piso 5 Dto C,Río Cuarto,7073,AR,Córdoba
1731,2727,Calle 8033,Piso 6 Dto C,La Plata,9518,AR,Buenos Aires
1732,2728,Calle 1822,,San Rafael,3350,AR,Mendoza
1733,2729,Calle 7582,,Mar del Plata,3255,AR,Buenos Aires
1734,2730,Calle 9969,Piso 8 Dto A,CABA,1235,AR,Buenos Aires
1735,2731,Calle 4903,,Rafaela,5356,AR,Santa Fe
1736,2732,Calle 8571,,CABA,2359,AR,Buenos Aires
1737,2733,Calle 487,Piso 4 Dto C,Río Cuarto,8117,AR,Córdoba
1738,2734,Calle 9472,Piso 4 Dto C,CABA,9827,AR,Buenos Aires
1739,2735,Calle 9445,,La Plata,2726,AR,Buenos Aires
1740,2736,Calle 6069,Piso 6 Dto A,CABA,7929,AR,Buenos Aires
1741,2737,Calle 1466,Piso 11 Dto C,La Plata,9267,AR,Buenos Aires
1742,2738,Calle 7614,Piso 12 Dto A,Rafaela,4197,AR,Santa Fe
1743,2739,Calle 1992,,Córdoba,2307,AR,Córdoba
1744,2740,Calle 2059,Piso 10 Dto B,Mar del Plata,3202,AR,Buenos Aires
1745,2741,Calle 6990,,CABA,9701,AR,Buenos Aires
1746,2742,Calle 8230,,Rosario,5643,AR,Santa Fe
1747,2743,Calle 4905,Piso 4 Dto C,CABA,4384,AR,Buenos Aires
1748,2744,Calle 8699,Piso 8 Dto A,La Plata,7587,AR,Buenos Aires
1749,2745,Calle 3556,Piso 12 Dto B,Mendoza,5019,AR,Mendoza
1750,2746,Calle 989,Piso 12 Dto A,Mar del Plata,9921,AR,Buenos Aires
1751,2747,Calle 1481,Piso 6 Dto C,Godoy Cruz,8378,AR,Mendoza
1752,2748,Calle 6322,Piso 7 Dto A,La Plata,4046,AR,Buenos Aires
1753,2749,Calle 1660,,CABA,7437,AR,Buenos Aires
1754,2750,Calle 3932,,Río Cuarto,8486,AR,Córdoba
1755,2751,Calle 9741,Piso 7 Dto C,Rafaela,7715,AR,Santa Fe
1756,2752,Calle 4834,,CABA,7188,AR,Buenos Aires
1757,2753,Calle 6754,,Mar del Plata,8566,AR,Buenos Aires
1758,2754,Calle 5485,Piso 9 Dto C,Córdoba,7710,AR,Córdoba
1759,2755,Calle 2039,,La Plata,3217,AR,Buenos Aires
1760,2756,Calle 4327,Piso 3 Dto B,Mendoza,4416,AR,Mendoza
1761,2757,Calle 1679,Piso 5 Dto C,Mar del Plata,5433,AR,Buenos Aires
1762,2758,Calle 3767,,Mar del Plata,1354,AR,Buenos Aires
1763,2759,Calle 6855,Piso 8 Dto B,Córdoba,1058,AR,Córdoba
1764,2760,Calle 4559,Piso 10 Dto C,Mar del Plata,5417,AR,Buenos Aires
1765,2761,Calle 1834,Piso 12 Dto A,Santa Fe,9808,AR,Santa Fe
1766,2762,Calle 2020,,La Plata,1348,AR,Buenos Aires
1767,2763,Calle 1964,Piso 2 Dto B,Rafaela,1575,AR,Santa Fe
1768,2764,Calle 9678,,CABA,9310,AR,Buenos Aires
1769,2765,Calle 7262,Piso 11 Dto C,La Plata,9388,AR,Buenos Aires
1770,2766,Calle 6631,Piso 5 Dto B,Córdoba,1228,AR,Córdoba
1771,2767,Calle 139,,Mar del Plata,6719,AR,Buenos Aires
1772,2768,Calle 6868,,Mar del Plata,7486,AR,Buenos Aires
1773,2769,Calle 648,,CABA,4811,AR,Buenos Aires
1774,2770,Calle 5835,,Río Cuarto,1119,AR,Córdoba
1775,2771,Calle 323,Piso 1 Dto C,Rosario,5458,AR,Santa Fe
1776,2772,Calle 4436,,Córdoba,1974,AR,Córdoba
1777,2773,Calle 1619,,Villa Carlos Paz,5539,AR,Córdoba
1778,2774,Calle 9624,Piso 12 Dto C,Mendoza,3474,AR,Mendoza
1779,2775,Calle 6667,,San Rafael,7114,AR,Mendoza
1780,2776,Calle 2362,,Godoy Cruz,5342,AR,Mendoza
1781,2777,Calle 1768,,CABA,1580,AR,Buenos Aires
1782,2778,Calle 7072,Piso 2 Dto C,Mar del Plata,4524,AR,Buenos Aires
1783,2779,Calle 8949,,CABA,1918,AR,Buenos Aires
1784,2780,Calle 9742,Piso 6 Dto A,Rosario,7784,AR,Santa Fe
1785,2781,Calle 3221,,La Plata,1163,AR,Buenos Aires
1786,2782,Calle 5129,,Mar del Plata,9108,AR,Buenos Aires
1787,2783,Calle 202,,Mar del Plata,8560,AR,Buenos Aires
1788,2784,Calle 7397,,CABA,2788,AR,Buenos Aires
1789,2785,Calle 9280,Piso 1 Dto C,La Plata,2238,AR,Buenos Aires
1790,2786,Calle 1966,Piso 1 Dto B,CABA,5576,AR,Buenos Aires
1791,2787,Calle 1818,,Santa Fe,8765,AR,Santa Fe
1792,2788,Calle 4013,,La Plata,4695,AR,Buenos Aires
1793,2789,Calle 3010,,CABA,7509,AR,Buenos Aires
1794,2790,Calle 3518,,CABA,3325,AR,Buenos Aires
1795,2791,Calle 7309,Piso 8 Dto A,Villa Carlos Paz,1370,AR,Córdoba
1796,2792,Calle 5786,,Villa Carlos Paz,3138,AR,Córdoba
1797,2793,Calle 7629,,Mar del Plata,3194,AR,Buenos Aires
1798,2794,Calle 5884,Piso 10 Dto C,San Rafael,2834,AR,Mendoza
1799,2795,Calle 1742,,CABA,6237,AR,Buenos Aires
1800,2796,Calle 2798,Piso 7 Dto C,Córdoba,5678,AR,Córdoba
1801,2797,Calle 7848,Piso 9 Dto B,Santa Fe,3079,AR,Santa Fe
1802,2798,Calle 159,Piso 9 Dto C,CABA,6111,AR,Buenos Aires
1803,2799,Calle 3781,,Mar del Plata,2794,AR,Buenos Aires
1804,2800,Calle 9294,Piso 3 Dto A,Mar del Plata,5927,AR,Buenos Aires
1805,2801,Calle 8669,,Mar del Plata,4233,AR,Buenos Aires
1806,2802,Calle 8853,Piso 5 Dto C,Godoy Cruz,5430,AR,Mendoza
1807,2803,Calle 8261,,Mendoza,9647,AR,Mendoza
1808,2804,Calle 3072,,La Plata,3755,AR,Buenos Aires
1809,2805,Calle 8056,,Mendoza,1238,AR,Mendoza
1810,2806,Calle 3411,,Mendoza,1337,AR,Mendoza
1811,2807,Calle 4075,Piso 5 Dto C,La Plata,8429,AR,Buenos Aires
1812,2808,Calle 80,,Río Cuarto,2987,AR,Córdoba
1813,2809,Calle 380,Piso 10 Dto A,CABA,3494,AR,Buenos Aires
1814,2810,Calle 3303,Piso 8 Dto C,La Plata,1732,AR,Buenos Aires
1815,2811,Calle 5519,,Mar del Plata,9972,AR,Buenos Aires
1816,2812,Calle 6366,,La Plata,1377,AR,Buenos Aires
1817,2813,Calle 4081,,CABA,5002,AR,Buenos Aires
1818,2814,Calle 8576,,CABA,7051,AR,Buenos Aires
1819,2815,Calle 9394,,CABA,4098,AR,Buenos Aires
1820,2816,Calle 198,,Rafaela,6307,AR,Santa Fe
1821,2817,Calle 492,Piso 8 Dto B,La Plata,5102,AR,Buenos Aires
1822,2818,Calle 4479,Piso 7 Dto B,Río Cuarto,3429,AR,Córdoba
1823,2819,Calle 2261,,Mar del Plata,3281,AR,Buenos Aires
1824,2820,Calle 8307,,San Rafael,9410,AR,Mendoza
1825,2821,Calle 19,,Villa Carlos Paz,1551,AR,Córdoba
1826,2822,Calle 8141,Piso 5 Dto C,CABA,3227,AR,Buenos Aires
1827,2823,Calle 3157,,La Plata,4641,AR,Buenos Aires
1828,2824,Calle 138,,Mendoza,2551,AR,Mendoza
1829,2825,Calle 5440,,San Rafael,7859,AR,Mendoza
1830,2826,Calle 5364,,Río Cuarto,5699,AR,Córdoba
1831,2827,Calle 997,,CABA,4589,AR,Buenos Aires
1832,2828,Calle 386,,La Plata,4969,AR,Buenos Aires
1833,2829,Calle 486,,CABA,4285,AR,Buenos Aires
1834,2830,Calle 7000,,Río Cuarto,3049,AR,Córdoba
1835,2831,Calle 8723,,Villa Carlos Paz,9155,AR,Córdoba
1836,2832,Calle 3677,Piso 12 Dto B,La Plata,7255,AR,Buenos Aires
1837,2833,Calle 2912,Piso 3 Dto B,Godoy Cruz,4584,AR,Mendoza
1838,2834,Calle 1755,Piso 10 Dto A,CABA,4876,AR,Buenos Aires
1839,2835,Calle 3359,Piso 12 Dto B,Mar del Plata,3439,AR,Buenos Aires
1840,2836,Calle 6912,Piso 2 Dto B,Mar del Plata,9761,AR,Buenos Aires
1841,2837,Calle 1664,,La Plata,8517,AR,Buenos Aires
1842,2838,Calle 8346,Piso 7 Dto B,CABA,6752,AR,Buenos Aires
1843,2839,Calle 4523,Piso 2 Dto C,Mendoza,7697,AR,Mendoza
1844,2840,Calle 4808,,La Plata,3615,AR,Buenos Aires
1845,2841,Calle 247,,Villa Carlos Paz,9360,AR,Córdoba
1846,2842,Calle 4938,,La Plata,6131,AR,Buenos Aires
1847,2843,Calle 879,Piso 5 Dto C,Santa Fe,7199,AR,Santa Fe
1848,2844,Calle 2471,Piso 2 Dto B,CABA,5141,AR,Buenos Aires
1849,2845,Calle 9419,Piso 3 Dto A,La Plata,5528,AR,Buenos Aires
1850,2846,Calle 2028,Piso 2 Dto C,Córdoba,4204,AR,Córdoba
1851,2847,Calle 2405,,Río Cuarto,8029,AR,Córdoba
1852,2848,Calle 9614,,La Plata,2061,AR,Buenos Aires
1853,2849,Calle 6878,Piso 9 Dto A,Mar del Plata,7638,AR,Buenos Aires
1854,2850,Calle 5691,,Rosario,3977,AR,Santa Fe
1855,2851,Calle 5096,Piso 4 Dto C,La Plata,2347,AR,Buenos Aires
1856,2852,Calle 1941,,CABA,6094,AR,Buenos Aires
1857,2853,Calle 8138,Piso 3 Dto A,CABA,1866,AR,Buenos Aires
1858,2854,Calle 3304,Piso 2 Dto C,CABA,1810,AR,Buenos Aires
1859,2855,Calle 532,Piso 1 Dto A,La Plata,8779,AR,Buenos Aires
1860,2856,Calle 8133,Piso 12 Dto A,Mar del Plata,7798,AR,Buenos Aires
1861,2857,Calle 6357,,Rosario,9312,AR,Santa Fe
1862,2858,Calle 4668,Piso 11 Dto B,Mar del Plata,6974,AR,Buenos Aires
1863,2859,Calle 3376,,Córdoba,6532,AR,Córdoba
1864,2860,Calle 371,Piso 8 Dto A,CABA,9562,AR,Buenos Aires
1865,2861,Calle 9810,,La Plata,8666,AR,Buenos Aires
1866,2862,Calle 6992,,Mendoza,8700,AR,Mendoza
1867,2863,Calle 9761,Piso 10 Dto C,CABA,5117,AR,Buenos Aires
1868,2864,Calle 8774,Piso 4 Dto B,CABA,4714,AR,Buenos Aires
1869,2865,Calle 9170,,La Plata,5698,AR,Buenos Aires
1870,2866,Calle 8996,Piso 6 Dto B,Mar del Plata,9200,AR,Buenos Aires
1871,2867,Calle 4209,,Mar del Plata,3211,AR,Buenos Aires
1872,2868,Calle 2659,,Rosario,7298,AR,Santa Fe
1873,2869,Calle 4253,Piso 7 Dto C,Villa Carlos Paz,1326,AR,Córdoba
1874,2870,Calle 5842,,Rafaela,5028,AR,Santa Fe
1875,2871,Calle 1466,,Córdoba,7661,AR,Córdoba
1876,2872,Calle 1192,,Santa Fe,4564,AR,Santa Fe
1877,2873,Calle 8564,Piso 5 Dto A,Mar del Plata,4471,AR,Buenos Aires
1878,2874,Calle 9469,Piso 3 Dto B,Córdoba,9247,AR,Córdoba
1879,2875,Calle 4939,Piso 2 Dto C,CABA,2222,AR,Buenos Aires
1880,2876,Calle 768,Piso 3 Dto A,CABA,2167,AR,Buenos Aires
1881,2877,Calle 9013,Piso 7 Dto C,La Plata,7623,AR,Buenos Aires
1882,2878,Calle 5407,,Mar del Plata,2531,AR,Buenos Aires
1883,2879,Calle 4525,Piso 8 Dto B,CABA,3547,AR,Buenos Aires
1884,2880,Calle 6955,Piso 2 Dto B,Mar del Plata,5043,AR,Buenos Aires
1885,2881,Calle 1822,,Mar del Plata,8357,AR,Buenos Aires
1886,2882,Calle 2196,Piso 4 Dto C,CABA,9155,AR,Buenos Aires
1887,2883,Calle 4254,,La Plata,8567,AR,Buenos Aires
1888,2884,Calle 310,Piso 3 Dto B,La Plata,8129,AR,Buenos Aires
1889,2885,Calle 7579,,Santa Fe,6867,AR,Santa Fe
1890,2886,Calle 7548,Piso 4 Dto A,CABA,3007,AR,Buenos Aires
1891,2887,Calle 7876,,La Plata,8883,AR,Buenos Aires
1892,2888,Calle 5211,,La Plata,4042,AR,Buenos Aires
1893,2889,Calle 4944,Piso 9 Dto B,CABA,3966,AR,Buenos Aires
1894,2890,Calle 2831,Piso 6 Dto B,Mar del Plata,9652,AR,Buenos Aires
1895,2891,Calle 3047,Piso 9 Dto C,Godoy Cruz,1748,AR,Mendoza
1896,2892,Calle 2230,Piso 1 Dto B,La Plata,4389,AR,Buenos Aires
1897,2893,Calle 3384,Piso 6 Dto A,CABA,8796,AR,Buenos Aires
1898,2894,Calle 9892,Piso 3 Dto A,Villa Carlos Paz,9256,AR,Córdoba
1899,2895,Calle 495,Piso 5 Dto C,Villa Carlos Paz,4829,AR,Córdoba
1900,2896,Calle 6071,,La Plata,6682,AR,Buenos Aires
1901,2897,Calle 2373,Piso 8 Dto A,Río Cuarto,2373,AR,Córdoba
1902,2898,Calle 7030,Piso 5 Dto A,Villa Carlos Paz,4143,AR,Córdoba
1903,2899,Calle 7761,Piso 9 Dto C,CABA,9188,AR,Buenos Aires
1904,2900,Calle 7149,,CABA,4952,AR,Buenos Aires
1905,2901,Calle 7813,,CABA,8461,AR,Buenos Aires
1906,2902,Calle 2885,,Mar del Plata,8899,AR,Buenos Aires
1907,2903,Calle 7616,Piso 6 Dto C,CABA,7978,AR,Buenos Aires
1908,2904,Calle 6930,Piso 3 Dto A,Mendoza,3582,AR,Mendoza
1909,2905,Calle 4395,,La Plata,1530,AR,Buenos Aires
1910,2906,Calle 6961,,CABA,3935,AR,Buenos Aires
1911,2907,Calle 6771,,CABA,2567,AR,Buenos Aires
1912,2908,Calle 4402,,La Plata,7919,AR,Buenos Aires
1913,2909,Calle 7383,,CABA,2317,AR,Buenos Aires
1914,2910,Calle 645,,Godoy Cruz,1539,AR,Mendoza
1915,2911,Calle 3027,,Córdoba,5158,AR,Córdoba
1916,2912,Calle 1854,Piso 8 Dto A,CABA,8267,AR,Buenos Aires
1917,2913,Calle 88,,San Rafael,7515,AR,Mendoza
1918,2914,Calle 5732,Piso 10 Dto C,CABA,2781,AR,Buenos Aires
1919,2915,Calle 2085,,Córdoba,9081,AR,Córdoba
1920,2916,Calle 2623,Piso 10 Dto A,CABA,4640,AR,Buenos Aires
1921,2917,Calle 9228,,Villa Carlos Paz,8052,AR,Córdoba
1922,2918,Calle 5426,,Mar del Plata,5976,AR,Buenos Aires
1923,2919,Calle 8016,Piso 5 Dto C,San Rafael,1383,AR,Mendoza
1924,2920,Calle 8948,,Río Cuarto,7859,AR,Córdoba
1925,2921,Calle 356,,Godoy Cruz,2692,AR,Mendoza
1926,2922,Calle 9749,,Mendoza,2273,AR,Mendoza
1927,2923,Calle 3903,Piso 10 Dto A,Santa Fe,5244,AR,Santa Fe
1928,2924,Calle 9582,,Córdoba,6709,AR,Córdoba
1929,2925,Calle 108,Piso 3 Dto A,CABA,2101,AR,Buenos Aires
1930,2926,Calle 5430,,La Plata,4706,AR,Buenos Aires
1931,2927,Calle 548,Piso 4 Dto B,Mar del Plata,4410,AR,Buenos Aires
1932,2928,Calle 3158,,Rosario,7457,AR,Santa Fe
1933,2929,Calle 119,Piso 9 Dto A,Córdoba,9820,AR,Córdoba
1934,2930,Calle 4428,,La Plata,8279,AR,Buenos Aires
1935,2931,Calle 5130,,Santa Fe,1924,AR,Santa Fe
1936,2932,Calle 6578,Piso 4 Dto A,La Plata,8533,AR,Buenos Aires
1937,2933,Calle 2623,Piso 2 Dto A,Villa Carlos Paz,3986,AR,Córdoba
1938,2934,Calle 3329,,Río Cuarto,3169,AR,Córdoba
1939,2935,Calle 3754,Piso 2 Dto B,CABA,4803,AR,Buenos Aires
1940,2936,Calle 4491,,La Plata,9334,AR,Buenos Aires
1941,2937,Calle 2325,Piso 12 Dto A,CABA,2973,AR,Buenos Aires
1942,2938,Calle 434,,Rosario,9733,AR,Santa Fe
1943,2939,Calle 4432,,CABA,2734,AR,Buenos Aires
1944,2940,Calle 5438,Piso 6 Dto A,CABA,2541,AR,Buenos Aires
1945,2941,Calle 1645,,CABA,5907,AR,Buenos Aires
1946,2942,Calle 8478,Piso 8 Dto B,Córdoba,3288,AR,Córdoba
1947,2943,Calle 6134,Piso 12 Dto C,CABA,3151,AR,Buenos Aires
1948,2944,Calle 8934,Piso 4 Dto C,San Rafael,6264,AR,Mendoza
1949,2945,Calle 2955,Piso 12 Dto A,Rafaela,9892,AR,Santa Fe
1950,2946,Calle 8073,,La Plata,4423,AR,Buenos Aires
1951,2947,Calle 9660,Piso 9 Dto B,Rafaela,2560,AR,Santa Fe
1952,2948,Calle 2719,Piso 6 Dto B,Rosario,8099,AR,Santa Fe
1953,2949,Calle 5465,Piso 11 Dto C,Mar del Plata,9639,AR,Buenos Aires
1954,2950,Calle 8872,Piso 3 Dto B,Mar del Plata,8828,AR,Buenos Aires
1955,2951,Calle 295,Piso 12 Dto C,CABA,7519,AR,Buenos Aires
1956,2952,Calle 2758,,Mar del Plata,6224,AR,Buenos Aires
1957,2953,Calle 6420,,Mar del Plata,3828,AR,Buenos Aires
1958,2954,Calle 1742,Piso 9 Dto A,Rosario,7647,AR,Santa Fe
1959,2955,Calle 7328,Piso 3 Dto C,Santa Fe,4091,AR,Santa Fe
1960,2956,Calle 209,,Rafaela,5025,AR,Santa Fe
1961,2957,Calle 9395,,Mar del Plata,1220,AR,Buenos Aires
1962,2958,Calle 7265,Piso 1 Dto A,Mar del Plata,7529,AR,Buenos Aires
1963,2959,Calle 863,Piso 10 Dto B,La Plata,4181,AR,Buenos Aires
1964,2960,Calle 645,,La Plata,2226,AR,Buenos Aires
1965,2961,Calle 9420,Piso 4 Dto A,Córdoba,4289,AR,Córdoba
1966,2962,Calle 2627,,Córdoba,2422,AR,Córdoba
1967,2963,Calle 767,,CABA,8559,AR,Buenos Aires
1968,2964,Calle 6554,,Villa Carlos Paz,7848,AR,Córdoba
1969,2965,Calle 2127,,La Plata,9613,AR,Buenos Aires
1970,2966,Calle 5335,,Mar del Plata,4274,AR,Buenos Aires
1971,2967,Calle 6974,,La Plata,2823,AR,Buenos Aires
1972,2968,Calle 6724,Piso 2 Dto A,Mendoza,5638,AR,Mendoza
1973,2969,Calle 2249,,Godoy Cruz,7374,AR,Mendoza
1974,2970,Calle 1906,Piso 12 Dto A,La Plata,3927,AR,Buenos Aires
1975,2971,Calle 8575,Piso 6 Dto B,La Plata,1518,AR,Buenos Aires
1976,2972,Calle 4113,,Rosario,1737,AR,Santa Fe
1977,2973,Calle 7756,,Rosario,9382,AR,Santa Fe
1978,2974,Calle 8101,,CABA,3825,AR,Buenos Aires
1979,2975,Calle 2764,,Córdoba,8295,AR,Córdoba
1980,2976,Calle 1275,,La Plata,5401,AR,Buenos Aires
1981,2977,Calle 3218,Piso 9 Dto B,La Plata,8350,AR,Buenos Aires
1982,2978,Calle 8783,,La Plata,7201,AR,Buenos Aires
1983,2979,Calle 680,Piso 5 Dto C,Mar del Plata,3833,AR,Buenos Aires
1984,2980,Calle 4362,,Mar del Plata,1052,AR,Buenos Aires
1985,2981,Calle 5128,Piso 8 Dto C,La Plata,3857,AR,Buenos Aires
1986,2982,Calle 3842,,La Plata,1532,AR,Buenos Aires
1987,2983,Calle 4291,,CABA,5992,AR,Buenos Aires
1988,2984,Calle 6727,Piso 12 Dto A,Rafaela,4639,AR,Santa Fe
1989,2985,Calle 4292,Piso 5 Dto A,Mar del Plata,1839,AR,Buenos Aires
1990,2986,Calle 8884,Piso 8 Dto C,Córdoba,7809,AR,Córdoba
1991,2987,Calle 2153,,Santa Fe,7621,AR,Santa Fe
1992,2988,Calle 6026,,Mendoza,9510,AR,Mendoza
1993,2989,Calle 9977,,Rafaela,3443,AR,Santa Fe
1994,2990,Calle 2736,,Mar del Plata,9470,AR,Buenos Aires
1995,2991,Calle 7446,Piso 11 Dto C,Mar del Plata,1334,AR,Buenos Aires
1996,2992,Calle 6749,Piso 7 Dto A,Godoy Cruz,1598,AR,Mendoza
1997,2993,Calle 4375,,Villa Carlos Paz,4461,AR,Córdoba
1998,2994,Calle 7210,,Mar del Plata,7628,AR,Buenos Aires
1999,2995,Calle 8979,,Córdoba,7891,AR,Córdoba
2000,2996,Calle 9415,,Santa Fe,1264,AR,Santa Fe
2001,2997,Calle 8308,,Mar del Plata,9231,AR,Buenos Aires
2002,2998,Calle 6345,Piso 8 Dto A,Córdoba,4348,AR,Córdoba
2003,2999,Calle 8439,Piso 12 Dto C,Córdoba,7550,AR,Córdoba
2004,3000,Calle 5287,Piso 1 Dto C,Villa Carlos Paz,3261,AR,Córdoba
2005,3001,Calle 7462,Piso 1 Dto B,Rafaela,2273,AR,Santa Fe
2006,3002,Calle 7255,Piso 1 Dto B,Rafaela,4374,AR,Santa Fe
2007,3003,Calle 6590,,Rosario,8775,AR,Santa Fe
2008,3004,Calle 9525,,San Rafael,9790,AR,Mendoza
2009,3005,Calle 2522,Piso 7 Dto C,Mar del Plata,4343,AR,Buenos Aires
2010,3006,Calle 100,Piso 9 Dto B,La Plata,5299,AR,Buenos Aires
2011,3007,Calle 2585,,La Plata,2427,AR,Buenos Aires
2012,3008,Calle 9856,,Godoy Cruz,5624,AR,Mendoza
2013,3009,Calle 6858,Piso 8 Dto A,Rafaela,3943,AR,Santa Fe
2014,3010,Calle 7196,Piso 4 Dto A,Río Cuarto,5234,AR,Córdoba
2015,3011,Calle 3802,Piso 9 Dto C,La Plata,5019,AR,Buenos Aires
2016,3012,Calle 1235,,Río Cuarto,7787,AR,Córdoba
2017,3013,Calle 6331,Piso 11 Dto B,CABA,4633,AR,Buenos Aires
2018,3014,Calle 8646,,Mar del Plata,7219,AR,Buenos Aires
2019,3015,Calle 2326,,Rafaela,6383,AR,Santa Fe
2020,3016,Calle 760,,La Plata,3557,AR,Buenos Aires
2021,3017,Calle 7312,,Córdoba,9407,AR,Córdoba
2022,3018,Calle 1075,Piso 8 Dto A,Mar del Plata,3461,AR,Buenos Aires
2023,3019,Calle 9016,Piso 3 Dto C,La Plata,5901,AR,Buenos Aires
2024,3020,Calle 316,Piso 8 Dto A,CABA,4012,AR,Buenos Aires
2025,3021,Calle 1234,,Córdoba,7930,AR,Córdoba
2026,3022,Calle 1806,Piso 3 Dto B,Villa Carlos Paz,7421,AR,Córdoba
2027,3023,Calle 8690,,CABA,2966,AR,Buenos Aires
2028,3024,Calle 6903,Piso 4 Dto C,CABA,5597,AR,Buenos Aires
2029,3025,Calle 6251,,Mar del Plata,5146,AR,Buenos Aires
2030,3026,Calle 7939,,San Rafael,1179,AR,Mendoza
2031,3027,Calle 2337,Piso 5 Dto A,Rafaela,4521,AR,Santa Fe
2032,3028,Calle 1475,Piso 3 Dto A,Río Cuarto,6967,AR,Córdoba
2033,3029,Calle 4363,Piso 10 Dto B,Mar del Plata,1963,AR,Buenos Aires
2034,3030,Calle 7355,Piso 1 Dto A,Río Cuarto,4969,AR,Córdoba
2035,3031,Calle 5052,Piso 1 Dto B,Mar del Plata,4642,AR,Buenos Aires
2036,3032,Calle 8730,Piso 8 Dto B,CABA,1266,AR,Buenos Aires
2037,3033,Calle 4457,,Rafaela,2947,AR,Santa Fe
2038,3034,Calle 7402,Piso 8 Dto A,Rafaela,5529,AR,Santa Fe
2039,3035,Calle 2084,,CABA,7244,AR,Buenos Aires
2040,3036,Calle 8667,,Rafaela,3119,AR,Santa Fe
2041,3037,Calle 7940,,Río Cuarto,1827,AR,Córdoba
2042,3038,Calle 6340,Piso 3 Dto A,Mar del Plata,3110,AR,Buenos Aires
2043,3039,Calle 1191,Piso 8 Dto C,La Plata,3898,AR,Buenos Aires
2044,3040,Calle 9999,,Santa Fe,9981,AR,Santa Fe
2045,3041,Calle 7823,Piso 7 Dto C,Mar del Plata,9117,AR,Buenos Aires
2046,3042,Calle 7108,,Villa Carlos Paz,5047,AR,Córdoba
2047,3043,Calle 8574,,CABA,2567,AR,Buenos Aires
2048,3044,Calle 3107,,Mar del Plata,3065,AR,Buenos Aires
2049,3045,Calle 1090,,CABA,8641,AR,Buenos Aires
2050,3046,Calle 1104,,Mar del Plata,1553,AR,Buenos Aires
2051,3047,Calle 1159,,Río Cuarto,1273,AR,Córdoba
2052,3048,Calle 8122,Piso 6 Dto A,Mar del Plata,3169,AR,Buenos Aires
2053,3049,Calle 7124,Piso 11 Dto B,Río Cuarto,5868,AR,Córdoba
2054,3050,Calle 2219,Piso 5 Dto A,Río Cuarto,3479,AR,Córdoba
2055,3051,Calle 5519,Piso 4 Dto A,CABA,7989,AR,Buenos Aires
2056,3052,Calle 4277,Piso 9 Dto C,Córdoba,3049,AR,Córdoba
2057,3053,Calle 6063,,Mendoza,1070,AR,Mendoza
2058,3054,Calle 4031,Piso 11 Dto A,La Plata,7692,AR,Buenos Aires
2059,3055,Calle 7056,Piso 10 Dto B,Mar del Plata,3505,AR,Buenos Aires
2060,3056,Calle 5073,Piso 4 Dto B,Rosario,5220,AR,Santa Fe
2061,3057,Calle 3696,,Villa Carlos Paz,8899,AR,Córdoba
2062,3058,Calle 209,Piso 1 Dto B,Rosario,9124,AR,Santa Fe
2063,3059,Calle 8132,,Córdoba,7865,AR,Córdoba
2064,3060,Calle 2939,Piso 1 Dto A,Rafaela,2162,AR,Santa Fe
2065,3061,Calle 3441,,CABA,5886,AR,Buenos Aires
2066,3062,Calle 4507,,Santa Fe,5438,AR,Santa Fe
2067,3063,Calle 8758,,La Plata,6164,AR,Buenos Aires
2068,3064,Calle 7708,,Mendoza,2168,AR,Mendoza
2069,3065,Calle 9132,Piso 6 Dto A,Río Cuarto,4914,AR,Córdoba
2070,3066,Calle 5688,Piso 2 Dto B,Rafaela,7283,AR,Santa Fe
2071,3067,Calle 9913,Piso 2 Dto C,Mendoza,9337,AR,Mendoza
2072,3068,Calle 1296,,Mar del Plata,6258,AR,Buenos Aires
2073,3069,Calle 6430,,Mar del Plata,2916,AR,Buenos Aires
2074,3070,Calle 7747,Piso 1 Dto A,La Plata,1185,AR,Buenos Aires
2075,3071,Calle 5104,,Rosario,9840,AR,Santa Fe
2076,3072,Calle 9900,,Mendoza,3919,AR,Mendoza
2077,3073,Calle 3425,Piso 10 Dto B,Rosario,3626,AR,Santa Fe
2078,3074,Calle 8913,Piso 9 Dto B,La Plata,1344,AR,Buenos Aires
2079,3075,Calle 2484,,CABA,6536,AR,Buenos Aires
2080,3076,Calle 4629,,Godoy Cruz,4337,AR,Mendoza
2081,3077,Calle 2166,,La Plata,8674,AR,Buenos Aires
2082,3078,Calle 8244,Piso 9 Dto A,CABA,8985,AR,Buenos Aires
2083,3079,Calle 9149,,Mar del Plata,1672,AR,Buenos Aires
2084,3080,Calle 1519,Piso 9 Dto C,Río Cuarto,4643,AR,Córdoba
2085,3081,Calle 2380,,Mar del Plata,2576,AR,Buenos Aires
2086,3082,Calle 5547,Piso 9 Dto A,Mar del Plata,3670,AR,Buenos Aires
2087,3083,Calle 1955,Piso 2 Dto C,Mar del Plata,1529,AR,Buenos Aires
2088,3084,Calle 2604,Piso 3 Dto A,San Rafael,4700,AR,Mendoza
2089,3085,Calle 7822,Piso 5 Dto B,Villa Carlos Paz,5854,AR,Córdoba
2090,3086,Calle 8714,,Córdoba,4222,AR,Córdoba
2091,3087,Calle 4740,,CABA,6553,AR,Buenos Aires
2092,3088,Calle 7962,,Villa Carlos Paz,7675,AR,Córdoba
2093,3089,Calle 9441,Piso 7 Dto A,Mar del Plata,4802,AR,Buenos Aires
2094,3090,Calle 1208,Piso 12 Dto C,La Plata,1269,AR,Buenos Aires
2095,3091,Calle 7347,Piso 1 Dto A,Mar del Plata,9469,AR,Buenos Aires
2096,3092,Calle 6445,Piso 4 Dto A,CABA,7484,AR,Buenos Aires
2097,3093,Calle 6078,,CABA,8027,AR,Buenos Aires
2098,3094,Calle 8930,,Rafaela,4544,AR,Santa Fe
2099,3095,Calle 962,,Córdoba,3345,AR,Córdoba
2100,3096,Calle 4298,,Mar del Plata,8537,AR,Buenos Aires
2101,3097,Calle 9789,,Río Cuarto,4058,AR,Córdoba
2102,3098,Calle 8740,,Mar del Plata,8593,AR,Buenos Aires
2103,3099,Calle 4838,Piso 11 Dto B,Godoy Cruz,5478,AR,Mendoza
2104,3100,Calle 9124,Piso 10 Dto B,La Plata,6396,AR,Buenos Aires
2105,3101,Calle 9134,,CABA,9978,AR,Buenos Aires
2106,3102,Calle 8674,Piso 4 Dto B,La Plata,6409,AR,Buenos Aires
2107,3103,Calle 2751,Piso 10 Dto C,Mendoza,3447,AR,Mendoza
2108,3104,Calle 858,Piso 6 Dto C,La Plata,7224,AR,Buenos Aires
2109,3105,Calle 1681,Piso 7 Dto A,La Plata,9876,AR,Buenos Aires
2110,3106,Calle 4856,,CABA,7907,AR,Buenos Aires
2111,3107,Calle 5789,Piso 2 Dto B,CABA,1445,AR,Buenos Aires
2112,3108,Calle 72,,CABA,2477,AR,Buenos Aires
2113,3109,Calle 5178,Piso 7 Dto A,CABA,9627,AR,Buenos Aires
2114,3110,Calle 2113,Piso 3 Dto B,Villa Carlos Paz,2229,AR,Córdoba
2115,3111,Calle 5040,Piso 8 Dto C,La Plata,1927,AR,Buenos Aires
2116,3112,Calle 5987,Piso 4 Dto A,San Rafael,8660,AR,Mendoza
2117,3113,Calle 2018,,La Plata,9596,AR,Buenos Aires
2118,3114,Calle 4921,,Mar del Plata,8039,AR,Buenos Aires
2119,3115,Calle 9073,Piso 4 Dto A,CABA,9108,AR,Buenos Aires
2120,3116,Calle 7537,,Río Cuarto,7131,AR,Córdoba
2121,3117,Calle 3980,Piso 12 Dto C,CABA,8766,AR,Buenos Aires
2122,3118,Calle 98,,CABA,3686,AR,Buenos Aires
2123,3119,Calle 8010,,Villa Carlos Paz,3353,AR,Córdoba
2124,3120,Calle 2184,Piso 4 Dto C,Mar del Plata,5736,AR,Buenos Aires
2125,3121,Calle 2186,,Mar del Plata,7468,AR,Buenos Aires
2126,3122,Calle 3062,Piso 5 Dto A,Mar del Plata,8756,AR,Buenos Aires
2127,3123,Calle 2613,Piso 4 Dto C,Río Cuarto,3305,AR,Córdoba
2128,3124,Calle 2988,,Mar del Plata,5118,AR,Buenos Aires
2129,3125,Calle 3095,Piso 4 Dto A,Mar del Plata,5806,AR,Buenos Aires
2130,3126,Calle 8105,,La Plata,1148,AR,Buenos Aires
2131,3127,Calle 1378,Piso 6 Dto B,La Plata,3078,AR,Buenos Aires
2132,3128,Calle 5302,,La Plata,4305,AR,Buenos Aires
2133,3129,Calle 483,Piso 1 Dto C,Mendoza,5658,AR,Mendoza
2134,3130,Calle 3020,,CABA,3101,AR,Buenos Aires
2135,3131,Calle 3578,Piso 4 Dto A,La Plata,9294,AR,Buenos Aires
2136,3132,Calle 4895,,Godoy Cruz,8257,AR,Mendoza
2137,3133,Calle 858,,La Plata,6489,AR,Buenos Aires
2138,3134,Calle 4985,Piso 3 Dto C,Mar del Plata,2389,AR,Buenos Aires
2139,3135,Calle 4875,,Río Cuarto,9127,AR,Córdoba
2140,3136,Calle 7117,,Mar del Plata,8012,AR,Buenos Aires
2141,3137,Calle 9326,,La Plata,1225,AR,Buenos Aires
2142,3138,Calle 3128,Piso 9 Dto C,La Plata,7611,AR,Buenos Aires
2143,3139,Calle 1163,Piso 5 Dto C,San Rafael,5378,AR,Mendoza
2144,3140,Calle 9605,,Río Cuarto,8936,AR,Córdoba
2145,3141,Calle 1268,Piso 5 Dto C,Río Cuarto,1563,AR,Córdoba
2146,3142,Calle 4622,,Rosario,3341,AR,Santa Fe
2147,3143,Calle 4860,,Santa Fe,4644,AR,Santa Fe
2148,3144,Calle 2143,,Rosario,2709,AR,Santa Fe
2149,3145,Calle 5562,,Río Cuarto,1066,AR,Córdoba
2150,3146,Calle 7159,,La Plata,3252,AR,Buenos Aires
2151,3147,Calle 4984,,Rafaela,3647,AR,Santa Fe
2152,3148,Calle 8258,,La Plata,9411,AR,Buenos Aires
2153,3149,Calle 3360,Piso 8 Dto C,CABA,1947,AR,Buenos Aires
2154,3150,Calle 1105,,Villa Carlos Paz,7298,AR,Córdoba
2155,3151,Calle 4185,Piso 10 Dto C,Mendoza,7566,AR,Mendoza
2156,3152,Calle 9822,Piso 9 Dto B,Mar del Plata,1401,AR,Buenos Aires
2157,3153,Calle 7272,Piso 10 Dto B,Mar del Plata,4158,AR,Buenos Aires
2158,3154,Calle 7288,Piso 3 Dto A,CABA,2955,AR,Buenos Aires
2159,3155,Calle 9404,,Rosario,7294,AR,Santa Fe
2160,3156,Calle 6860,Piso 6 Dto B,CABA,8366,AR,Buenos Aires
2161,3157,Calle 5416,Piso 8 Dto C,La Plata,6283,AR,Buenos Aires
2162,3158,Calle 8087,,Santa Fe,5174,AR,Santa Fe
2163,3159,Calle 113,Piso 1 Dto B,CABA,6530,AR,Buenos Aires
2164,3160,Calle 8700,,Santa Fe,6855,AR,Santa Fe
2165,3161,Calle 4184,,La Plata,3869,AR,Buenos Aires
2166,3162,Calle 1126,Piso 9 Dto C,Santa Fe,5851,AR,Santa Fe
2167,3163,Calle 3303,Piso 9 Dto B,CABA,1278,AR,Buenos Aires
2168,3164,Calle 7700,,Santa Fe,8415,AR,Santa Fe
2169,3165,Calle 3179,Piso 1 Dto C,Godoy Cruz,5387,AR,Mendoza
2170,3166,Calle 6738,,San Rafael,6452,AR,Mendoza
2171,3167,Calle 8761,Piso 4 Dto A,Mar del Plata,2133,AR,Buenos Aires
2172,3168,Calle 199,,Mar del Plata,8792,AR,Buenos Aires
2173,3169,Calle 7979,Piso 3 Dto B,Rafaela,3504,AR,Santa Fe
2174,3170,Calle 5941,Piso 7 Dto C,CABA,9628,AR,Buenos Aires
2175,3171,Calle 7603,Piso 4 Dto B,CABA,9063,AR,Buenos Aires
2176,3172,Calle 9389,,Mendoza,5115,AR,Mendoza
2177,3173,Calle 8987,Piso 1 Dto A,Rafaela,1017,AR,Santa Fe
2178,3174,Calle 4429,,Villa Carlos Paz,4821,AR,Córdoba
2179,3175,Calle 9839,Piso 3 Dto B,Mar del Plata,1287,AR,Buenos Aires
2180,3176,Calle 2517,,La Plata,8209,AR,Buenos Aires
2181,3177,Calle 7157,Piso 8 Dto B,Mar del Plata,2862,AR,Buenos Aires
2182,3178,Calle 4380,,La Plata,4300,AR,Buenos Aires
2183,3179,Calle 2116,Piso 10 Dto B,Mar del Plata,9426,AR,Buenos Aires
2184,3180,Calle 2608,,La Plata,3757,AR,Buenos Aires
2185,3181,Calle 5908,Piso 12 Dto C,Mar del Plata,5586,AR,Buenos Aires
2186,3182,Calle 4793,,La Plata,8265,AR,Buenos Aires
2187,3183,Calle 6601,,Villa Carlos Paz,2416,AR,Córdoba
2188,3184,Calle 1480,,Mar del Plata,5831,AR,Buenos Aires
2189,3185,Calle 5569,Piso 10 Dto B,Santa Fe,9990,AR,Santa Fe
2190,3186,Calle 3860,,Mendoza,4605,AR,Mendoza
2191,3187,Calle 8235,,Mar del Plata,3805,AR,Buenos Aires
2192,3188,Calle 928,Piso 1 Dto C,Mar del Plata,6183,AR,Buenos Aires
2193,3189,Calle 8883,Piso 11 Dto C,Rafaela,1911,AR,Santa Fe
2194,3190,Calle 7318,Piso 10 Dto B,La Plata,2156,AR,Buenos Aires
2195,3191,Calle 5143,,La Plata,9923,AR,Buenos Aires
2196,3192,Calle 7413,Piso 12 Dto A,Córdoba,9424,AR,Córdoba
2197,3193,Calle 5250,,CABA,5956,AR,Buenos Aires
2198,3194,Calle 6400,,Mar del Plata,9282,AR,Buenos Aires
2199,3195,Calle 6735,,Villa Carlos Paz,3548,AR,Córdoba
2200,3196,Calle 1299,Piso 3 Dto A,Villa Carlos Paz,2782,AR,Córdoba
2201,3197,Calle 9874,Piso 1 Dto C,Mar del Plata,2445,AR,Buenos Aires
2202,3198,Calle 1635,Piso 3 Dto C,Rafaela,2610,AR,Santa Fe
2203,3199,Calle 8003,Piso 1 Dto B,Rosario,1600,AR,Santa Fe
2204,3200,Calle 2162,,Mar del Plata,3358,AR,Buenos Aires
2205,3201,Calle 3669,Piso 5 Dto C,Córdoba,5977,AR,Córdoba
2206,3202,Calle 5181,Piso 1 Dto B,Mendoza,6372,AR,Mendoza
2207,3203,Calle 8497,,La Plata,6543,AR,Buenos Aires
2208,3204,Calle 7977,,Córdoba,3798,AR,Córdoba
2209,3205,Calle 5575,Piso 11 Dto A,La Plata,8208,AR,Buenos Aires
2210,3206,Calle 1534,,Mar del Plata,9463,AR,Buenos Aires
2211,3207,Calle 4316,Piso 1 Dto B,Villa Carlos Paz,9341,AR,Córdoba
2212,3208,Calle 5102,Piso 2 Dto B,CABA,1842,AR,Buenos Aires
2213,3209,Calle 5288,Piso 1 Dto A,Rosario,9777,AR,Santa Fe
2214,3210,Calle 6448,,Mar del Plata,1613,AR,Buenos Aires
2215,3211,Calle 7314,,Santa Fe,4803,AR,Santa Fe
2216,3212,Calle 4375,Piso 6 Dto B,Rafaela,5315,AR,Santa Fe
2217,3213,Calle 4808,Piso 1 Dto A,San Rafael,8000,AR,Mendoza
2218,3214,Calle 7078,Piso 4 Dto A,Rosario,8860,AR,Santa Fe
2219,3215,Calle 3413,Piso 2 Dto B,Rafaela,6997,AR,Santa Fe
2220,3216,Calle 9854,,Córdoba,8195,AR,Córdoba
2221,3217,Calle 9168,,La Plata,3239,AR,Buenos Aires
2222,3218,Calle 9163,Piso 6 Dto C,Santa Fe,3681,AR,Santa Fe
2223,3219,Calle 1483,Piso 7 Dto C,La Plata,2130,AR,Buenos Aires
2224,3220,Calle 4167,Piso 9 Dto A,Mar del Plata,7374,AR,Buenos Aires
2225,3221,Calle 4914,Piso 5 Dto B,Mendoza,5171,AR,Mendoza
2226,3222,Calle 5659,Piso 12 Dto C,CABA,9925,AR,Buenos Aires
2227,3223,Calle 7980,,Río Cuarto,7958,AR,Córdoba
2228,3224,Calle 216,,La Plata,9415,AR,Buenos Aires
2229,3225,Calle 1177,,Mar del Plata,4734,AR,Buenos Aires
2230,3226,Calle 7857,,Rafaela,5180,AR,Santa Fe
2231,3227,Calle 7369,,La Plata,3054,AR,Buenos Aires
2232,3228,Calle 3955,,Mar del Plata,7959,AR,Buenos Aires
2233,3229,Calle 485,Piso 10 Dto C,San Rafael,4066,AR,Mendoza
2234,3230,Calle 6810,Piso 7 Dto B,Córdoba,3017,AR,Córdoba
2235,3231,Calle 7136,,Godoy Cruz,6135,AR,Mendoza
2236,3232,Calle 2850,,Godoy Cruz,3189,AR,Mendoza
2237,3233,Calle 8917,,Mar del Plata,8171,AR,Buenos Aires
2238,3234,Calle 8000,,Villa Carlos Paz,2536,AR,Córdoba
2239,3235,Calle 1183,Piso 6 Dto A,Rafaela,5523,AR,Santa Fe
2240,3236,Calle 441,,La Plata,5019,AR,Buenos Aires
2241,3237,Calle 6480,Piso 6 Dto B,La Plata,3295,AR,Buenos Aires
2242,3238,Calle 9005,Piso 7 Dto A,Rosario,3101,AR,Santa Fe
2243,3239,Calle 9578,Piso 6 Dto C,Mar del Plata,6486,AR,Buenos Aires
2244,3240,Calle 2994,Piso 8 Dto C,Córdoba,7154,AR,Córdoba
2245,3241,Calle 9960,,Santa Fe,9971,AR,Santa Fe
2246,3242,Calle 5481,,CABA,5441,AR,Buenos Aires
2247,3243,Calle 9001,,Godoy Cruz,3958,AR,Mendoza
2248,3244,Calle 9383,Piso 1 Dto B,Mendoza,4951,AR,Mendoza
2249,3245,Calle 4522,,La Plata,7124,AR,Buenos Aires
2250,3246,Calle 2439,,CABA,5271,AR,Buenos Aires
2251,3247,Calle 9661,,La Plata,3195,AR,Buenos Aires
2252,3248,Calle 5280,Piso 5 Dto A,Mar del Plata,9119,AR,Buenos Aires
2253,3249,Calle 3184,Piso 1 Dto C,Mar del Plata,9225,AR,Buenos Aires
2254,3250,Calle 8781,,Mar del Plata,6112,AR,Buenos Aires
2255,3251,Calle 1509,,Villa Carlos Paz,8096,AR,Córdoba
2256,3252,Calle 1703,,CABA,9991,AR,Buenos Aires
2257,3253,Calle 6642,Piso 11 Dto C,Mar del Plata,7934,AR,Buenos Aires
2258,3254,Calle 867,,La Plata,3339,AR,Buenos Aires
2259,3255,Calle 3243,,Rafaela,7099,AR,Santa Fe
2260,3256,Calle 3215,,Mar del Plata,1864,AR,Buenos Aires
2261,3257,Calle 8229,Piso 7 Dto B,CABA,1309,AR,Buenos Aires
2262,3258,Calle 2756,,Mendoza,2570,AR,Mendoza
2263,3259,Calle 6615,,Rosario,2689,AR,Santa Fe
2264,3260,Calle 9648,,La Plata,2563,AR,Buenos Aires
2265,3261,Calle 3372,,CABA,3109,AR,Buenos Aires
2266,3262,Calle 613,,Santa Fe,3137,AR,Santa Fe
2267,3263,Calle 6103,,Córdoba,2566,AR,Córdoba
2268,3264,Calle 3404,Piso 5 Dto C,Rosario,4425,AR,Santa Fe
2269,3265,Calle 3733,Piso 11 Dto A,Córdoba,3974,AR,Córdoba
2270,3266,Calle 3518,Piso 3 Dto A,CABA,6497,AR,Buenos Aires
2271,3267,Calle 2069,,Villa Carlos Paz,9201,AR,Córdoba
2272,3268,Calle 9985,,La Plata,3838,AR,Buenos Aires
2273,3269,Calle 7036,,Villa Carlos Paz,1893,AR,Córdoba
2274,3270,Calle 7759,Piso 11 Dto A,La Plata,6906,AR,Buenos Aires
2275,3271,Calle 5837,Piso 7 Dto A,Córdoba,3909,AR,Córdoba
2276,3272,Calle 6078,,Godoy Cruz,5382,AR,Mendoza
2277,3273,Calle 2584,,Santa Fe,7824,AR,Santa Fe
2278,3274,Calle 7746,,La Plata,7624,AR,Buenos Aires
2279,3275,Calle 4437,Piso 7 Dto B,La Plata,4822,AR,Buenos Aires
2280,3276,Calle 6681,Piso 3 Dto C,Mar del Plata,5093,AR,Buenos Aires
2281,3277,Calle 6362,,Mar del Plata,5879,AR,Buenos Aires
2282,3278,Calle 2567,Piso 11 Dto B,CABA,4219,AR,Buenos Aires
2283,3279,Calle 4448,Piso 4 Dto C,Godoy Cruz,7730,AR,Mendoza
2284,3280,Calle 7032,,Mar del Plata,7765,AR,Buenos Aires
2285,3281,Calle 2411,Piso 5 Dto C,Mar del Plata,4872,AR,Buenos Aires
2286,3282,Calle 6804,,Rosario,9193,AR,Santa Fe
2287,3283,Calle 3224,,Mar del Plata,1478,AR,Buenos Aires
2288,3284,Calle 7766,,CABA,8725,AR,Buenos Aires
2289,3285,Calle 1564,Piso 5 Dto C,Rosario,8896,AR,Santa Fe
2290,3286,Calle 9109,Piso 3 Dto B,Mendoza,4407,AR,Mendoza
2291,3287,Calle 4678,Piso 7 Dto A,CABA,8242,AR,Buenos Aires
2292,3288,Calle 4555,,Mar del Plata,7366,AR,Buenos Aires
2293,3289,Calle 3361,,La Plata,8536,AR,Buenos Aires
2294,3290,Calle 9645,,Río Cuarto,4526,AR,Córdoba
2295,3291,Calle 8285,,Santa Fe,3974,AR,Santa Fe
2296,3292,Calle 4787,,Villa Carlos Paz,7717,AR,Córdoba
2297,3293,Calle 6746,,Mendoza,4579,AR,Mendoza
2298,3294,Calle 539,,CABA,3782,AR,Buenos Aires
2299,3295,Calle 452,,Rafaela,5458,AR,Santa Fe
2300,3296,Calle 3190,Piso 4 Dto A,Rosario,5454,AR,Santa Fe
2301,3297,Calle 6870,,Mar del Plata,5483,AR,Buenos Aires
2302,3298,Calle 747,Piso 10 Dto C,Santa Fe,2451,AR,Santa Fe
2303,3299,Calle 8088,,Godoy Cruz,2210,AR,Mendoza
2304,3300,Calle 1700,Piso 7 Dto A,Mendoza,2360,AR,Mendoza
2305,3301,Calle 2647,Piso 1 Dto A,La Plata,7832,AR,Buenos Aires
2306,3302,Calle 541,,Mar del Plata,5037,AR,Buenos Aires
2307,3303,Calle 4225,Piso 9 Dto C,CABA,5953,AR,Buenos Aires
2308,3304,Calle 982,,CABA,2223,AR,Buenos Aires
2309,3305,Calle 9265,Piso 11 Dto A,La Plata,2633,AR,Buenos Aires
2310,3306,Calle 963,Piso 2 Dto B,Godoy Cruz,2620,AR,Mendoza
2311,3307,Calle 3331,,Rosario,6069,AR,Santa Fe
2312,3308,Calle 7602,,Godoy Cruz,9532,AR,Mendoza
2313,3309,Calle 4741,,Rosario,9742,AR,Santa Fe
2314,3310,Calle 5196,,Santa Fe,4491,AR,Santa Fe
2315,3311,Calle 6038,Piso 8 Dto B,Mar del Plata,8023,AR,Buenos Aires
2316,3312,Calle 9079,Piso 2 Dto A,Córdoba,5942,AR,Córdoba
2317,3313,Calle 2001,,Villa Carlos Paz,5087,AR,Córdoba
2318,3314,Calle 785,,La Plata,2350,AR,Buenos Aires
2319,3315,Calle 6734,Piso 10 Dto C,CABA,4039,AR,Buenos Aires
2320,3316,Calle 4150,,Mar del Plata,6294,AR,Buenos Aires
2321,3317,Calle 5110,,Santa Fe,6952,AR,Santa Fe
2322,3318,Calle 7644,Piso 10 Dto C,CABA,9529,AR,Buenos Aires
2323,3319,Calle 6979,Piso 7 Dto C,Godoy Cruz,9301,AR,Mendoza
2324,3320,Calle 6050,Piso 2 Dto C,Mendoza,8089,AR,Mendoza
2325,3321,Calle 6585,Piso 4 Dto B,Mar del Plata,9271,AR,Buenos Aires
2326,3322,Calle 7345,,Rosario,8465,AR,Santa Fe
2327,3323,Calle 5925,,CABA,5243,AR,Buenos Aires
2328,3324,Calle 370,,Santa Fe,5817,AR,Santa Fe
2329,3325,Calle 84,Piso 7 Dto C,CABA,3949,AR,Buenos Aires
2330,3326,Calle 8388,,Mar del Plata,1056,AR,Buenos Aires
2331,3327,Calle 967,,Mar del Plata,8960,AR,Buenos Aires
2332,3328,Calle 7729,,CABA,9216,AR,Buenos Aires
2333,3329,Calle 2644,,Mar del Plata,3426,AR,Buenos Aires
2334,3330,Calle 4652,Piso 1 Dto C,CABA,8717,AR,Buenos Aires
2335,3331,Calle 3156,Piso 6 Dto C,Rafaela,1523,AR,Santa Fe
2336,3332,Calle 9081,,CABA,4738,AR,Buenos Aires
2337,3333,Calle 1892,,Rosario,6151,AR,Santa Fe
2338,3334,Calle 2386,,La Plata,1125,AR,Buenos Aires
2339,3335,Calle 5889,,Mar del Plata,8608,AR,Buenos Aires
2340,3336,Calle 8855,,CABA,5916,AR,Buenos Aires
2341,3337,Calle 5398,,Río Cuarto,6454,AR,Córdoba
2342,3338,Calle 1567,Piso 11 Dto B,Rafaela,8692,AR,Santa Fe
2343,3339,Calle 4716,,La Plata,1596,AR,Buenos Aires
2344,3340,Calle 9101,,Mar del Plata,7316,AR,Buenos Aires
2345,3341,Calle 9163,,Santa Fe,4724,AR,Santa Fe
2346,3342,Calle 2391,Piso 2 Dto A,Córdoba,5105,AR,Córdoba
2347,3343,Calle 9770,Piso 10 Dto A,Santa Fe,6438,AR,Santa Fe
2348,3344,Calle 8078,Piso 6 Dto C,La Plata,1341,AR,Buenos Aires
2349,3345,Calle 9436,Piso 12 Dto A,Rosario,8043,AR,Santa Fe
2350,3346,Calle 2511,Piso 9 Dto C,Villa Carlos Paz,1242,AR,Córdoba
2351,3347,Calle 6366,Piso 6 Dto B,CABA,4941,AR,Buenos Aires
2352,3348,Calle 6083,,La Plata,7538,AR,Buenos Aires
2353,3349,Calle 1528,,La Plata,5896,AR,Buenos Aires
2354,3350,Calle 3604,Piso 11 Dto A,La Plata,4185,AR,Buenos Aires
2355,3351,Calle 2634,Piso 11 Dto C,Río Cuarto,5845,AR,Córdoba
2356,3352,Calle 2955,Piso 6 Dto A,La Plata,4017,AR,Buenos Aires
2357,3353,Calle 2853,,Villa Carlos Paz,1522,AR,Córdoba
2358,3354,Calle 2065,Piso 5 Dto A,Mar del Plata,6603,AR,Buenos Aires
2359,3355,Calle 9837,Piso 2 Dto B,Godoy Cruz,6166,AR,Mendoza
2360,3356,Calle 472,Piso 7 Dto A,Mar del Plata,7206,AR,Buenos Aires
2361,3357,Calle 6045,,CABA,4488,AR,Buenos Aires
2362,3358,Calle 5537,Piso 11 Dto C,Río Cuarto,6879,AR,Córdoba
2363,3359,Calle 5279,,Mendoza,9607,AR,Mendoza
2364,3360,Calle 332,Piso 3 Dto C,La Plata,7427,AR,Buenos Aires
2365,3361,Calle 9832,,San Rafael,2625,AR,Mendoza
2366,3362,Calle 9835,,CABA,5948,AR,Buenos Aires
2367,3363,Calle 2898,,Mar del Plata,3885,AR,Buenos Aires
2368,3364,Calle 7780,,CABA,3067,AR,Buenos Aires
2369,3365,Calle 1985,,Rosario,9193,AR,Santa Fe
2370,3366,Calle 125,,La Plata,7848,AR,Buenos Aires
2371,3367,Calle 1741,,Córdoba,4467,AR,Córdoba
2372,3368,Calle 9900,,Villa Carlos Paz,1033,AR,Córdoba
2373,3369,Calle 9532,Piso 11 Dto B,Córdoba,2629,AR,Córdoba
2374,3370,Calle 6170,Piso 12 Dto C,La Plata,9064,AR,Buenos Aires
2375,3371,Calle 5799,,La Plata,8364,AR,Buenos Aires
2376,3372,Calle 5639,,La Plata,4839,AR,Buenos Aires
2377,3373,Calle 7680,,San Rafael,5667,AR,Mendoza
2378,3374,Calle 4718,,La Plata,2937,AR,Buenos Aires
2379,3375,Calle 3209,,Godoy Cruz,2315,AR,Mendoza
2380,3376,Calle 6894,Piso 12 Dto B,Godoy Cruz,1957,AR,Mendoza
2381,3377,Calle 6850,,La Plata,3623,AR,Buenos Aires
2382,3378,Calle 5262,,Mar del Plata,7664,AR,Buenos Aires
2383,3379,Calle 981,,Rafaela,2134,AR,Santa Fe
2384,3380,Calle 8964,,Mar del Plata,7330,AR,Buenos Aires
2385,3381,Calle 5494,,Córdoba,4250,AR,Córdoba
2386,3382,Calle 9598,,La Plata,7202,AR,Buenos Aires
2387,3383,Calle 8399,,Río Cuarto,9158,AR,Córdoba
2388,3384,Calle 9934,,CABA,1656,AR,Buenos Aires
2389,3385,Calle 7432,,Mendoza,4986,AR,Mendoza
2390,3386,Calle 7166,Piso 6 Dto C,La Plata,7225,AR,Buenos Aires
2391,3387,Calle 8772,,La Plata,9042,AR,Buenos Aires
2392,3388,Calle 8142,,Mar del Plata,6584,AR,Buenos Aires
2393,3389,Calle 676,Piso 2 Dto A,Mendoza,1496,AR,Mendoza
2394,3390,Calle 7012,,Rosario,8062,AR,Santa Fe
2395,3391,Calle 6043,Piso 2 Dto A,Rosario,3999,AR,Santa Fe
2396,3392,Calle 3615,Piso 4 Dto B,La Plata,7426,AR,Buenos Aires
2397,3393,Calle 7689,Piso 7 Dto B,Godoy Cruz,9377,AR,Mendoza
2398,3394,Calle 2699,Piso 5 Dto C,Córdoba,7022,AR,Córdoba
2399,3395,Calle 2263,Piso 6 Dto A,La Plata,3123,AR,Buenos Aires
2400,3396,Calle 5470,,Mar del Plata,7909,AR,Buenos Aires
2401,3397,Calle 8065,,Santa Fe,6235,AR,Santa Fe
2402,3398,Calle 3531,Piso 5 Dto C,Río Cuarto,3268,AR,Córdoba
2403,3399,Calle 4935,Piso 7 Dto C,CABA,1071,AR,Buenos Aires
2404,3400,Calle 4796,,CABA,5700,AR,Buenos Aires
2405,3401,Calle 9294,Piso 8 Dto A,San Rafael,2904,AR,Mendoza
2406,3402,Calle 851,,Mar del Plata,4771,AR,Buenos Aires
2407,3403,Calle 7419,,La Plata,4981,AR,Buenos Aires
2408,3404,Calle 2557,Piso 12 Dto A,Mar del Plata,6188,AR,Buenos Aires
2409,3405,Calle 8000,Piso 7 Dto C,Villa Carlos Paz,1192,AR,Córdoba
2410,3406,Calle 3600,Piso 11 Dto A,Mar del Plata,4284,AR,Buenos Aires
2411,3407,Calle 2483,Piso 1 Dto A,CABA,9247,AR,Buenos Aires
2412,3408,Calle 8899,,La Plata,7928,AR,Buenos Aires
2413,3409,Calle 376,Piso 9 Dto A,Villa Carlos Paz,9171,AR,Córdoba
2414,3410,Calle 143,Piso 6 Dto C,Villa Carlos Paz,5686,AR,Córdoba
2415,3411,Calle 2181,Piso 1 Dto C,Rafaela,7869,AR,Santa Fe
2416,3412,Calle 1864,Piso 4 Dto A,Córdoba,7055,AR,Córdoba
2417,3413,Calle 6131,,Mendoza,2268,AR,Mendoza
2418,3414,Calle 6415,Piso 2 Dto B,Santa Fe,9693,AR,Santa Fe
2419,3415,Calle 3552,,CABA,5683,AR,Buenos Aires
2420,3416,Calle 4618,,Córdoba,2046,AR,Córdoba
2421,3417,Calle 5570,,Mar del Plata,6409,AR,Buenos Aires
2422,3418,Calle 1689,,Mar del Plata,8820,AR,Buenos Aires
2423,3419,Calle 8286,,La Plata,1196,AR,Buenos Aires
2424,3420,Calle 5207,Piso 7 Dto B,San Rafael,2802,AR,Mendoza
2425,3421,Calle 8994,,Santa Fe,1609,AR,Santa Fe
2426,3422,Calle 1683,,Rafaela,8925,AR,Santa Fe
2427,3423,Calle 5994,Piso 9 Dto B,CABA,9476,AR,Buenos Aires
2428,3424,Calle 9360,Piso 8 Dto B,Mar del Plata,6836,AR,Buenos Aires
2429,3425,Calle 2619,Piso 7 Dto A,CABA,1682,AR,Buenos Aires
2430,3426,Calle 8787,,Santa Fe,5187,AR,Santa Fe
2431,3427,Calle 9635,Piso 6 Dto B,Córdoba,8204,AR,Córdoba
2432,3428,Calle 5976,,CABA,5625,AR,Buenos Aires
2433,3429,Calle 2327,Piso 2 Dto B,Mar del Plata,6491,AR,Buenos Aires
2434,3430,Calle 5411,Piso 9 Dto B,Mar del Plata,8008,AR,Buenos Aires
2435,3431,Calle 71,,CABA,9444,AR,Buenos Aires
2436,3432,Calle 2929,Piso 8 Dto B,La Plata,4636,AR,Buenos Aires
2437,3433,Calle 6079,,Mar del Plata,3696,AR,Buenos Aires
2438,3434,Calle 6073,,Mar del Plata,4908,AR,Buenos Aires
2439,3435,Calle 3121,Piso 1 Dto C,Santa Fe,3049,AR,Santa Fe
2440,3436,Calle 9103,Piso 12 Dto A,Córdoba,8784,AR,Córdoba
2441,3437,Calle 1900,Piso 2 Dto C,Mar del Plata,3297,AR,Buenos Aires
2442,3438,Calle 7877,Piso 11 Dto C,Mar del Plata,4250,AR,Buenos Aires
2443,3439,Calle 142,,Rosario,2199,AR,Santa Fe
2444,3440,Calle 4566,Piso 3 Dto A,Rafaela,5755,AR,Santa Fe
2445,3441,Calle 850,Piso 6 Dto C,Mar del Plata,8324,AR,Buenos Aires
2446,3442,Calle 7000,Piso 2 Dto C,Mar del Plata,2774,AR,Buenos Aires
2447,3443,Calle 7119,Piso 6 Dto B,Mar del Plata,8458,AR,Buenos Aires
2448,3444,Calle 9985,Piso 12 Dto C,Mar del Plata,9585,AR,Buenos Aires
2449,3445,Calle 264,Piso 1 Dto C,La Plata,3495,AR,Buenos Aires
2450,3446,Calle 2268,Piso 11 Dto B,Godoy Cruz,4215,AR,Mendoza
2451,3447,Calle 2987,,Río Cuarto,5233,AR,Córdoba
2452,3448,Calle 218,Piso 8 Dto A,San Rafael,5661,AR,Mendoza
2453,3449,Calle 821,Piso 2 Dto B,Villa Carlos Paz,2872,AR,Córdoba
2454,3450,Calle 609,,Godoy Cruz,1718,AR,Mendoza
2455,3451,Calle 6866,,CABA,3204,AR,Buenos Aires
2456,3452,Calle 3424,Piso 11 Dto B,Mar del Plata,6509,AR,Buenos Aires
2457,3453,Calle 3616,,Rosario,6868,AR,Santa Fe
2458,3454,Calle 3063,Piso 2 Dto B,Rafaela,8733,AR,Santa Fe
2459,3455,Calle 3973,Piso 12 Dto C,Santa Fe,7346,AR,Santa Fe
2460,3456,Calle 2553,,Córdoba,9107,AR,Córdoba
2461,3457,Calle 6936,,Santa Fe,6085,AR,Santa Fe
2462,3458,Calle 9704,Piso 3 Dto C,La Plata,3105,AR,Buenos Aires
2463,3459,Calle 2315,Piso 1 Dto C,CABA,1813,AR,Buenos Aires
2464,3460,Calle 6177,,Mar del Plata,1394,AR,Buenos Aires
2465,3461,Calle 3416,,Santa Fe,7564,AR,Santa Fe
2466,3462,Calle 3247,Piso 4 Dto B,Río Cuarto,4556,AR,Córdoba
2467,3463,Calle 211,,Córdoba,1617,AR,Córdoba
2468,3464,Calle 9645,Piso 4 Dto A,Mar del Plata,9536,AR,Buenos Aires
2469,3465,Calle 8712,,Villa Carlos Paz,6503,AR,Córdoba
2470,3466,Calle 9833,,Mar del Plata,4770,AR,Buenos Aires
2471,3467,Calle 3615,Piso 11 Dto B,San Rafael,7958,AR,Mendoza
2472,3468,Calle 6454,,La Plata,9386,AR,Buenos Aires
2473,3469,Calle 7031,Piso 9 Dto A,CABA,5965,AR,Buenos Aires
2474,3470,Calle 7504,,Santa Fe,2206,AR,Santa Fe
2475,3471,Calle 8987,,La Plata,1137,AR,Buenos Aires
2476,3472,Calle 9907,Piso 8 Dto C,CABA,3285,AR,Buenos Aires
2477,3473,Calle 5054,Piso 3 Dto C,Córdoba,4813,AR,Córdoba
2478,3474,Calle 5833,,San Rafael,7644,AR,Mendoza
2479,3475,Calle 1611,Piso 9 Dto B,Mar del Plata,7522,AR,Buenos Aires
2480,3476,Calle 3552,Piso 7 Dto A,Río Cuarto,9925,AR,Córdoba
2481,3477,Calle 5858,Piso 1 Dto A,San Rafael,3645,AR,Mendoza
2482,3478,Calle 9702,Piso 3 Dto A,Mendoza,8082,AR,Mendoza
2483,3479,Calle 8436,,Mar del Plata,8332,AR,Buenos Aires
2484,3480,Calle 5323,,La Plata,8598,AR,Buenos Aires
2485,3481,Calle 5210,,Córdoba,3221,AR,Córdoba
2486,3482,Calle 7869,Piso 8 Dto A,La Plata,6287,AR,Buenos Aires
2487,3483,Calle 8996,Piso 4 Dto C,CABA,9719,AR,Buenos Aires
2488,3484,Calle 4767,,CABA,7349,AR,Buenos Aires
2489,3485,Calle 3088,,Mar del Plata,6775,AR,Buenos Aires
2490,3486,Calle 8756,,CABA,2870,AR,Buenos Aires
2491,3487,Calle 919,,CABA,1071,AR,Buenos Aires
2492,3488,Calle 2965,Piso 9 Dto B,Mar del Plata,6727,AR,Buenos Aires
2493,3489,Calle 3817,,San Rafael,4214,AR,Mendoza
2494,3490,Calle 2457,,Mar del Plata,2045,AR,Buenos Aires
2495,3491,Calle 592,,Mar del Plata,1376,AR,Buenos Aires
2496,3492,Calle 5647,,Río Cuarto,4720,AR,Córdoba
2497,3493,Calle 1951,,CABA,7298,AR,Buenos Aires
2498,3494,Calle 8168,,Rosario,3229,AR,Santa Fe
2499,3495,Calle 6939,Piso 3 Dto B,Santa Fe,6955,AR,Santa Fe
2500,3496,Calle 4724,Piso 1 Dto C,Mar del Plata,9107,AR,Buenos Aires
2501,3497,Calle 4999,Piso 7 Dto C,Santa Fe,7684,AR,Santa Fe
2502,3498,Calle 6233,,Mar del Plata,6929,AR,Buenos Aires
2503,3499,Calle 3586,,La Plata,5598,AR,Buenos Aires
2504,3500,Calle 8790,Piso 11 Dto B,Río Cuarto,9423,AR,Córdoba
2505,3501,Calle 8302,,Villa Carlos Paz,6786,AR,Córdoba
2506,3502,Calle 2622,,San Rafael,8113,AR,Mendoza
2507,3503,Calle 5132,,Rafaela,8548,AR,Santa Fe
2508,3504,Calle 75,Piso 9 Dto C,La Plata,4992,AR,Buenos Aires
2509,3505,Calle 6694,,Rafaela,5125,AR,Santa Fe
2510,3506,Calle 7056,Piso 10 Dto C,Mar del Plata,9774,AR,Buenos Aires
2511,3507,Calle 5007,Piso 6 Dto A,Mar del Plata,1522,AR,Buenos Aires
2512,3508,Calle 7594,,La Plata,1837,AR,Buenos Aires
2513,3509,Calle 9888,,CABA,8658,AR,Buenos Aires
2514,3510,Calle 8029,Piso 3 Dto C,Mar del Plata,5417,AR,Buenos Aires
2515,3511,Calle 79,,Río Cuarto,2039,AR,Córdoba
2516,3512,Calle 5754,,Mar del Plata,3173,AR,Buenos Aires
2517,3513,Calle 380,,La Plata,6106,AR,Buenos Aires
2518,3514,Calle 2282,Piso 8 Dto C,CABA,4809,AR,Buenos Aires
2519,3515,Calle 5417,,Rafaela,2829,AR,Santa Fe
2520,3516,Calle 9439,,La Plata,7571,AR,Buenos Aires
2521,3517,Calle 4329,Piso 3 Dto C,La Plata,7230,AR,Buenos Aires
2522,3518,Calle 1819,Piso 12 Dto A,Santa Fe,9124,AR,Santa Fe
2523,3519,Calle 5736,Piso 6 Dto B,Mar del Plata,2314,AR,Buenos Aires
2524,3520,Calle 672,,Villa Carlos Paz,4803,AR,Córdoba
2525,3521,Calle 4988,Piso 6 Dto B,La Plata,4603,AR,Buenos Aires
2526,3522,Calle 2224,,Villa Carlos Paz,7811,AR,Córdoba
2527,3523,Calle 4099,,La Plata,2423,AR,Buenos Aires
2528,3524,Calle 6934,,Santa Fe,7969,AR,Santa Fe
2529,3525,Calle 6952,Piso 1 Dto C,Rosario,9613,AR,Santa Fe
2530,3526,Calle 7243,,Mar del Plata,1970,AR,Buenos Aires
2531,3527,Calle 9888,,Córdoba,4848,AR,Córdoba
2532,3528,Calle 8095,Piso 1 Dto B,Godoy Cruz,1532,AR,Mendoza
2533,3529,Calle 8845,Piso 3 Dto A,Río Cuarto,8220,AR,Córdoba
2534,3530,Calle 2839,,Córdoba,9700,AR,Córdoba
2535,3531,Calle 5056,,CABA,5780,AR,Buenos Aires
2536,3532,Calle 9959,Piso 4 Dto B,La Plata,7000,AR,Buenos Aires
2537,3533,Calle 9060,,Rosario,2754,AR,Santa Fe
2538,3534,Calle 5928,Piso 6 Dto B,La Plata,8644,AR,Buenos Aires
2539,3535,Calle 1806,Piso 12 Dto B,Córdoba,1397,AR,Córdoba
2540,3536,Calle 1394,,Córdoba,5901,AR,Córdoba
2541,3537,Calle 6104,,Mar del Plata,3568,AR,Buenos Aires
2542,3538,Calle 1757,Piso 6 Dto A,Mar del Plata,3409,AR,Buenos Aires
2543,3539,Calle 9912,Piso 3 Dto B,Godoy Cruz,2052,AR,Mendoza
2544,3540,Calle 8344,,CABA,2366,AR,Buenos Aires
2545,3541,Calle 3746,,Villa Carlos Paz,2604,AR,Córdoba
2546,3542,Calle 1238,,Mar del Plata,8544,AR,Buenos Aires
2547,3543,Calle 441,Piso 6 Dto A,Rosario,8984,AR,Santa Fe
2548,3544,Calle 5674,,La Plata,7113,AR,Buenos Aires
2549,3545,Calle 5207,,La Plata,1096,AR,Buenos Aires
2550,3546,Calle 8532,Piso 4 Dto C,Santa Fe,1560,AR,Santa Fe
2551,3547,Calle 5673,Piso 1 Dto A,Villa Carlos Paz,9241,AR,Córdoba
2552,3548,Calle 774,,La Plata,5459,AR,Buenos Aires
2553,3549,Calle 3371,Piso 5 Dto B,Río Cuarto,6701,AR,Córdoba
2554,3550,Calle 2396,,Río Cuarto,1731,AR,Córdoba
2555,3551,Calle 2166,,Rafaela,1794,AR,Santa Fe
2556,3552,Calle 4601,,CABA,9937,AR,Buenos Aires
2557,3553,Calle 1615,,CABA,6925,AR,Buenos Aires
2558,3554,Calle 3228,,Mar del Plata,7336,AR,Buenos Aires
2559,3555,Calle 6736,,Mar del Plata,4892,AR,Buenos Aires
2560,3556,Calle 1409,Piso 11 Dto C,Río Cuarto,5022,AR,Córdoba
2561,3557,Calle 8361,Piso 10 Dto C,Villa Carlos Paz,8964,AR,Córdoba
2562,3558,Calle 701,,CABA,2323,AR,Buenos Aires
2563,3559,Calle 826,Piso 8 Dto A,Córdoba,2870,AR,Córdoba
2564,3560,Calle 5984,Piso 1 Dto C,Mar del Plata,2707,AR,Buenos Aires
2565,3561,Calle 8669,,CABA,2318,AR,Buenos Aires
2566,3562,Calle 5928,Piso 5 Dto B,Santa Fe,8743,AR,Santa Fe
2567,3563,Calle 5545,,Villa Carlos Paz,8430,AR,Córdoba
2568,3564,Calle 7196,,CABA,9208,AR,Buenos Aires
2569,3565,Calle 6974,Piso 4 Dto C,CABA,7566,AR,Buenos Aires
2570,3566,Calle 6254,,La Plata,1413,AR,Buenos Aires
2571,3567,Calle 7517,Piso 2 Dto A,CABA,5693,AR,Buenos Aires
2572,3568,Calle 3563,Piso 11 Dto C,CABA,7238,AR,Buenos Aires
2573,3569,Calle 6247,Piso 3 Dto B,La Plata,4355,AR,Buenos Aires
2574,3570,Calle 1810,Piso 2 Dto B,Mar del Plata,2585,AR,Buenos Aires
2575,3571,Calle 1676,Piso 6 Dto A,Mar del Plata,9378,AR,Buenos Aires
2576,3572,Calle 8715,,La Plata,7810,AR,Buenos Aires
2577,3573,Calle 6362,Piso 6 Dto B,La Plata,9364,AR,Buenos Aires
2578,3574,Calle 6184,,Mendoza,1048,AR,Mendoza
2579,3575,Calle 7970,,CABA,7579,AR,Buenos Aires
2580,3576,Calle 5645,,Córdoba,2861,AR,Córdoba
2581,3577,Calle 6281,,CABA,5590,AR,Buenos Aires
2582,3578,Calle 818,,La Plata,2543,AR,Buenos Aires
2583,3579,Calle 2102,Piso 9 Dto A,CABA,8861,AR,Buenos Aires
2584,3580,Calle 1434,Piso 9 Dto A,CABA,7561,AR,Buenos Aires
2585,3581,Calle 5484,Piso 11 Dto B,Santa Fe,8816,AR,Santa Fe
2586,3582,Calle 9835,,Villa Carlos Paz,3208,AR,Córdoba
2587,3583,Calle 4574,Piso 9 Dto B,CABA,7840,AR,Buenos Aires
2588,3584,Calle 9059,,CABA,1154,AR,Buenos Aires
2589,3585,Calle 5135,,CABA,7683,AR,Buenos Aires
2590,3586,Calle 9772,Piso 8 Dto B,Rosario,8350,AR,Santa Fe
2591,3587,Calle 1694,Piso 7 Dto C,Villa Carlos Paz,7725,AR,Córdoba
2592,3588,Calle 8309,,Mar del Plata,9610,AR,Buenos Aires
2593,3589,Calle 776,,CABA,9185,AR,Buenos Aires
2594,3590,Calle 5703,,La Plata,2882,AR,Buenos Aires
2595,3591,Calle 3187,,Mar del Plata,2259,AR,Buenos Aires
2596,3592,Calle 5398,,Río Cuarto,1743,AR,Córdoba
2597,3593,Calle 3976,,Córdoba,6853,AR,Córdoba
2598,3594,Calle 8250,Piso 4 Dto B,La Plata,4840,AR,Buenos Aires
2599,3595,Calle 2510,,Rosario,3525,AR,Santa Fe
2600,3596,Calle 1735,,Godoy Cruz,4018,AR,Mendoza
2601,3597,Calle 4163,,Córdoba,2741,AR,Córdoba
2602,3598,Calle 612,Piso 2 Dto C,Villa Carlos Paz,4821,AR,Córdoba
2603,3599,Calle 3407,Piso 12 Dto C,CABA,6215,AR,Buenos Aires
2604,3600,Calle 3566,,La Plata,1142,AR,Buenos Aires
2605,3601,Calle 5533,Piso 10 Dto A,Río Cuarto,6011,AR,Córdoba
2606,3602,Calle 8821,Piso 8 Dto A,Rafaela,1526,AR,Santa Fe
2607,3603,Calle 9919,,San Rafael,8551,AR,Mendoza
2608,3604,Calle 5385,Piso 11 Dto A,Córdoba,7561,AR,Córdoba
2609,3605,Calle 3536,,CABA,8025,AR,Buenos Aires
2610,3606,Calle 2230,,Mar del Plata,5812,AR,Buenos Aires
2611,3607,Calle 5008,,Córdoba,3797,AR,Córdoba
2612,3608,Calle 8606,,Mar del Plata,7746,AR,Buenos Aires
2613,3609,Calle 7109,,CABA,2542,AR,Buenos Aires
2614,3610,Calle 4755,Piso 5 Dto A,La Plata,5435,AR,Buenos Aires
2615,3611,Calle 505,Piso 3 Dto C,Río Cuarto,5008,AR,Córdoba
2616,3612,Calle 5041,Piso 8 Dto B,Mar del Plata,2488,AR,Buenos Aires
2617,3613,Calle 6977,Piso 11 Dto A,Río Cuarto,7824,AR,Córdoba
2618,3614,Calle 4670,Piso 2 Dto B,Mar del Plata,6759,AR,Buenos Aires
2619,3615,Calle 1065,,Río Cuarto,6241,AR,Córdoba
2620,3616,Calle 4917,,Rosario,9332,AR,Santa Fe
2621,3617,Calle 1157,,CABA,6215,AR,Buenos Aires
2622,3618,Calle 2970,,La Plata,1577,AR,Buenos Aires
2623,3619,Calle 6253,Piso 7 Dto C,La Plata,3838,AR,Buenos Aires
2624,3620,Calle 3797,,Córdoba,5096,AR,Córdoba
2625,3621,Calle 8877,,Rafaela,4776,AR,Santa Fe
2626,3622,Calle 2438,Piso 5 Dto A,Mar del Plata,7957,AR,Buenos Aires
2627,3623,Calle 4427,,CABA,5913,AR,Buenos Aires
2628,3624,Calle 3902,Piso 5 Dto A,CABA,7077,AR,Buenos Aires
2629,3625,Calle 8632,Piso 7 Dto B,San Rafael,1610,AR,Mendoza
2630,3626,Calle 4719,,La Plata,3893,AR,Buenos Aires
2631,3627,Calle 9085,,Mendoza,8368,AR,Mendoza
2632,3628,Calle 9464,Piso 6 Dto A,CABA,5456,AR,Buenos Aires
2633,3629,Calle 4076,Piso 10 Dto B,Rosario,5642,AR,Santa Fe
2634,3630,Calle 1575,Piso 8 Dto B,Mar del Plata,1734,AR,Buenos Aires
2635,3631,Calle 8570,,Mar del Plata,6574,AR,Buenos Aires
2636,3632,Calle 7461,Piso 4 Dto B,Mar del Plata,7585,AR,Buenos Aires
2637,3633,Calle 7041,Piso 8 Dto C,La Plata,8487,AR,Buenos Aires
2638,3634,Calle 7497,,CABA,8098,AR,Buenos Aires
2639,3635,Calle 7215,,La Plata,4520,AR,Buenos Aires
2640,3636,Calle 7341,Piso 2 Dto B,Mar del Plata,8871,AR,Buenos Aires
2641,3637,Calle 5338,Piso 1 Dto C,Mar del Plata,2254,AR,Buenos Aires
2642,3638,Calle 328,Piso 11 Dto A,Villa Carlos Paz,9051,AR,Córdoba
2643,3639,Calle 2961,,Mar del Plata,7028,AR,Buenos Aires
2644,3640,Calle 306,,Villa Carlos Paz,6490,AR,Córdoba
2645,3641,Calle 9448,Piso 4 Dto B,Mar del Plata,6093,AR,Buenos Aires
2646,3642,Calle 4331,Piso 3 Dto C,Mar del Plata,2181,AR,Buenos Aires
2647,3643,Calle 9631,Piso 3 Dto B,Rafaela,3037,AR,Santa Fe
2648,3644,Calle 5414,,Mendoza,9829,AR,Mendoza
2649,3645,Calle 7010,Piso 12 Dto A,Santa Fe,5929,AR,Santa Fe
2650,3646,Calle 6739,Piso 4 Dto C,Mendoza,5005,AR,Mendoza
2651,3647,Calle 6314,Piso 4 Dto B,Rosario,4616,AR,Santa Fe
2652,3648,Calle 357,Piso 2 Dto A,Córdoba,9999,AR,Córdoba
2653,3649,Calle 3415,Piso 1 Dto B,Córdoba,3415,AR,Córdoba
2654,3650,Calle 6162,,Mar del Plata,7345,AR,Buenos Aires
2655,3651,Calle 3184,,CABA,5157,AR,Buenos Aires
2656,3652,Calle 9751,Piso 5 Dto B,Córdoba,5007,AR,Córdoba
2657,3653,Calle 2467,Piso 4 Dto A,CABA,8204,AR,Buenos Aires
2658,3654,Calle 784,,Mar del Plata,8315,AR,Buenos Aires
2659,3655,Calle 7553,,La Plata,7774,AR,Buenos Aires
2660,3656,Calle 7283,,La Plata,9346,AR,Buenos Aires
2661,3657,Calle 8002,Piso 8 Dto B,San Rafael,7133,AR,Mendoza
2662,3658,Calle 3923,Piso 5 Dto C,Río Cuarto,3266,AR,Córdoba
2663,3659,Calle 7532,,Santa Fe,8802,AR,Santa Fe
2664,3660,Calle 7788,Piso 5 Dto A,Mar del Plata,3462,AR,Buenos Aires
2665,3661,Calle 6902,,Godoy Cruz,6048,AR,Mendoza
2666,3662,Calle 1447,Piso 2 Dto B,La Plata,4402,AR,Buenos Aires
2667,3663,Calle 954,,Mar del Plata,5550,AR,Buenos Aires
2668,3664,Calle 6528,,Santa Fe,4967,AR,Santa Fe
2669,3665,Calle 4001,Piso 9 Dto B,Villa Carlos Paz,6987,AR,Córdoba
2670,3666,Calle 3282,Piso 11 Dto A,CABA,8042,AR,Buenos Aires
2671,3667,Calle 221,Piso 1 Dto B,Río Cuarto,1473,AR,Córdoba
2672,3668,Calle 4023,Piso 5 Dto C,Mar del Plata,7904,AR,Buenos Aires
2673,3669,Calle 9796,Piso 9 Dto C,Mar del Plata,6150,AR,Buenos Aires
2674,3670,Calle 5215,Piso 9 Dto A,CABA,5533,AR,Buenos Aires
2675,3671,Calle 5021,Piso 8 Dto B,La Plata,2523,AR,Buenos Aires
2676,3672,Calle 6691,,Río Cuarto,5598,AR,Córdoba
2677,3673,Calle 6552,Piso 11 Dto C,Villa Carlos Paz,9971,AR,Córdoba
2678,3674,Calle 6110,Piso 12 Dto A,Córdoba,7621,AR,Córdoba
2679,3675,Calle 6143,,San Rafael,5525,AR,Mendoza
2680,3676,Calle 3794,,Río Cuarto,4046,AR,Córdoba
2681,3677,Calle 285,Piso 6 Dto B,La Plata,4964,AR,Buenos Aires
2682,3678,Calle 1100,Piso 5 Dto A,CABA,2101,AR,Buenos Aires
2683,3679,Calle 6366,Piso 7 Dto A,Rafaela,8938,AR,Santa Fe
2684,3680,Calle 3494,,CABA,5150,AR,Buenos Aires
2685,3681,Calle 5564,Piso 3 Dto B,Río Cuarto,5902,AR,Córdoba
2686,3682,Calle 3080,Piso 6 Dto C,Rosario,5620,AR,Santa Fe
2687,3683,Calle 2728,Piso 12 Dto A,Mar del Plata,4697,AR,Buenos Aires
2688,3684,Calle 6657,Piso 7 Dto B,San Rafael,8849,AR,Mendoza
2689,3685,Calle 3336,,CABA,1141,AR,Buenos Aires
2690,3686,Calle 3205,Piso 5 Dto B,La Plata,9757,AR,Buenos Aires
2691,3687,Calle 8639,,Mar del Plata,2948,AR,Buenos Aires
2692,3688,Calle 5632,,Villa Carlos Paz,9560,AR,Córdoba
2693,3689,Calle 1245,Piso 3 Dto C,Río Cuarto,6411,AR,Córdoba
2694,3690,Calle 6174,,Rosario,4524,AR,Santa Fe
2695,3691,Calle 9628,,CABA,9974,AR,Buenos Aires
2696,3692,Calle 8731,Piso 2 Dto B,Córdoba,4097,AR,Córdoba
2697,3693,Calle 2836,,Mar del Plata,7061,AR,Buenos Aires
2698,3694,Calle 853,,Córdoba,3840,AR,Córdoba
2699,3695,Calle 7737,,CABA,2427,AR,Buenos Aires
2700,3696,Calle 3222,Piso 4 Dto A,Córdoba,6838,AR,Córdoba
2701,3697,Calle 1029,,CABA,4109,AR,Buenos Aires
2702,3698,Calle 169,,Santa Fe,2635,AR,Santa Fe
2703,3699,Calle 6673,Piso 6 Dto C,Río Cuarto,6125,AR,Córdoba
2704,3700,Calle 7081,Piso 4 Dto C,Mar del Plata,6333,AR,Buenos Aires
2705,3701,Calle 3011,,Mar del Plata,3316,AR,Buenos Aires
2706,3702,Calle 4373,,San Rafael,7831,AR,Mendoza
2707,3703,Calle 1688,,Río Cuarto,7265,AR,Córdoba
2708,3704,Calle 283,,Córdoba,3622,AR,Córdoba
2709,3705,Calle 2024,,Mar del Plata,7838,AR,Buenos Aires
2710,3706,Calle 1372,Piso 11 Dto B,Mendoza,7588,AR,Mendoza
2711,3707,Calle 9314,,Villa Carlos Paz,9668,AR,Córdoba
2712,3708,Calle 9387,,Villa Carlos Paz,1182,AR,Córdoba
2713,3709,Calle 5763,,Córdoba,8468,AR,Córdoba
2714,3710,Calle 2389,Piso 1 Dto A,Córdoba,5379,AR,Córdoba
2715,3711,Calle 2111,Piso 5 Dto A,La Plata,3000,AR,Buenos Aires
2716,3712,Calle 4838,,Córdoba,6426,AR,Córdoba
2717,3713,Calle 378,Piso 12 Dto A,Rafaela,1261,AR,Santa Fe
2718,3714,Calle 470,Piso 3 Dto A,Mar del Plata,1209,AR,Buenos Aires
2719,3715,Calle 7817,Piso 5 Dto B,Santa Fe,6588,AR,Santa Fe
2720,3716,Calle 4214,Piso 2 Dto C,Córdoba,8137,AR,Córdoba
2721,3717,Calle 3347,Piso 1 Dto A,Godoy Cruz,6394,AR,Mendoza
2722,3718,Calle 3614,Piso 9 Dto C,CABA,9697,AR,Buenos Aires
2723,3719,Calle 6241,,Godoy Cruz,2213,AR,Mendoza
2724,3720,Calle 6828,,CABA,1377,AR,Buenos Aires
2725,3721,Calle 3171,,San Rafael,5578,AR,Mendoza
2726,3722,Calle 7328,,Santa Fe,4511,AR,Santa Fe
2727,3723,Calle 1987,Piso 12 Dto C,La Plata,9536,AR,Buenos Aires
2728,3724,Calle 2761,Piso 12 Dto C,Río Cuarto,6046,AR,Córdoba
2729,3725,Calle 4254,,Córdoba,6925,AR,Córdoba
2730,3726,Calle 9189,Piso 4 Dto C,CABA,2523,AR,Buenos Aires
2731,3727,Calle 923,,Mar del Plata,3065,AR,Buenos Aires
2732,3728,Calle 4192,Piso 9 Dto C,Mar del Plata,9662,AR,Buenos Aires
2733,3729,Calle 6226,,Santa Fe,3732,AR,Santa Fe
2734,3730,Calle 8763,,Rafaela,9610,AR,Santa Fe
2735,3731,Calle 1816,,Córdoba,5021,AR,Córdoba
2736,3732,Calle 8356,Piso 9 Dto B,La Plata,9768,AR,Buenos Aires
2737,3733,Calle 7946,Piso 7 Dto C,Villa Carlos Paz,9231,AR,Córdoba
2738,3734,Calle 4564,,Villa Carlos Paz,8858,AR,Córdoba
2739,3735,Calle 5333,Piso 10 Dto B,Río Cuarto,3401,AR,Córdoba
2740,3736,Calle 3288,Piso 2 Dto B,Mar del Plata,6646,AR,Buenos Aires
2741,3737,Calle 8241,Piso 12 Dto C,Córdoba,5498,AR,Córdoba
2742,3738,Calle 1426,Piso 11 Dto A,Villa Carlos Paz,9627,AR,Córdoba
2743,3739,Calle 7022,,Córdoba,2930,AR,Córdoba
2744,3740,Calle 3671,Piso 5 Dto C,La Plata,6826,AR,Buenos Aires
2745,3741,Calle 7141,Piso 5 Dto A,La Plata,8218,AR,Buenos Aires
2746,3742,Calle 131,,Córdoba,6750,AR,Córdoba
2747,3743,Calle 1807,,Rosario,2406,AR,Santa Fe
2748,3744,Calle 2544,,Río Cuarto,3068,AR,Córdoba
2749,3745,Calle 3523,,Mar del Plata,8857,AR,Buenos Aires
2750,3746,Calle 9302,Piso 11 Dto C,CABA,8141,AR,Buenos Aires
2751,3747,Calle 8293,,San Rafael,4342,AR,Mendoza
2752,3748,Calle 83,,San Rafael,8186,AR,Mendoza
2753,3749,Calle 6540,Piso 7 Dto C,Mar del Plata,2709,AR,Buenos Aires
2754,3750,Calle 6830,,La Plata,3527,AR,Buenos Aires
2755,3751,Calle 7939,Piso 5 Dto C,La Plata,3257,AR,Buenos Aires
2756,3752,Calle 5452,Piso 12 Dto A,Mar del Plata,5897,AR,Buenos Aires
2757,3753,Calle 2510,Piso 12 Dto C,Mar del Plata,7697,AR,Buenos Aires
2758,3754,Calle 2516,,Río Cuarto,3796,AR,Córdoba
2759,3755,Calle 5259,,Santa Fe,5028,AR,Santa Fe
2760,3756,Calle 5574,,Villa Carlos Paz,2463,AR,Córdoba
2761,3757,Calle 4257,Piso 4 Dto C,La Plata,7515,AR,Buenos Aires
2762,3758,Calle 4728,,Villa Carlos Paz,8304,AR,Córdoba
2763,3759,Calle 7873,,Córdoba,9271,AR,Córdoba
2764,3760,Calle 6068,Piso 2 Dto A,La Plata,5897,AR,Buenos Aires
2765,3761,Calle 2707,,Rafaela,8036,AR,Santa Fe
2766,3762,Calle 8520,Piso 11 Dto A,Córdoba,8796,AR,Córdoba
2767,3763,Calle 5743,,La Plata,8887,AR,Buenos Aires
2768,3764,Calle 4315,,La Plata,6012,AR,Buenos Aires
2769,3765,Calle 8799,Piso 8 Dto C,Godoy Cruz,2668,AR,Mendoza
2770,3766,Calle 2863,,Rafaela,5352,AR,Santa Fe
2771,3767,Calle 3949,Piso 5 Dto A,Mar del Plata,4448,AR,Buenos Aires
2772,3768,Calle 2048,,Villa Carlos Paz,2798,AR,Córdoba
2773,3769,Calle 4134,,San Rafael,5714,AR,Mendoza
2774,3770,Calle 4300,Piso 12 Dto C,CABA,3187,AR,Buenos Aires
2775,3771,Calle 7673,Piso 9 Dto B,La Plata,5170,AR,Buenos Aires
2776,3772,Calle 7993,Piso 5 Dto A,La Plata,9748,AR,Buenos Aires
2777,3773,Calle 7662,Piso 4 Dto C,Santa Fe,3484,AR,Santa Fe
2778,3774,Calle 6009,,Rafaela,6636,AR,Santa Fe
2779,3775,Calle 7993,,Villa Carlos Paz,7697,AR,Córdoba
2780,3776,Calle 4301,,Mar del Plata,4168,AR,Buenos Aires
2781,3777,Calle 4948,Piso 8 Dto A,CABA,1298,AR,Buenos Aires
2782,3778,Calle 9715,,La Plata,5169,AR,Buenos Aires
2783,3779,Calle 4024,Piso 5 Dto A,Villa Carlos Paz,6232,AR,Córdoba
2784,3780,Calle 3552,Piso 8 Dto B,San Rafael,7593,AR,Mendoza
2785,3781,Calle 3129,,CABA,1316,AR,Buenos Aires
2786,3782,Calle 512,,Mar del Plata,8181,AR,Buenos Aires
2787,3783,Calle 9385,,Godoy Cruz,9009,AR,Mendoza
2788,3784,Calle 2918,Piso 9 Dto B,Mar del Plata,2603,AR,Buenos Aires
2789,3785,Calle 1800,,Mendoza,7950,AR,Mendoza
2790,3786,Calle 5783,Piso 4 Dto B,CABA,4934,AR,Buenos Aires
2791,3787,Calle 8638,,Santa Fe,9012,AR,Santa Fe
2792,3788,Calle 8749,Piso 9 Dto A,CABA,2398,AR,Buenos Aires
2793,3789,Calle 1745,,La Plata,2219,AR,Buenos Aires
2794,3790,Calle 7670,Piso 5 Dto A,Mar del Plata,6075,AR,Buenos Aires
2795,3791,Calle 3687,Piso 6 Dto B,Mar del Plata,8235,AR,Buenos Aires
2796,3792,Calle 8523,,Godoy Cruz,1844,AR,Mendoza
2797,3793,Calle 5968,Piso 11 Dto B,Córdoba,3512,AR,Córdoba
2798,3794,Calle 2853,Piso 6 Dto A,Rafaela,4887,AR,Santa Fe
2799,3795,Calle 1120,Piso 3 Dto C,Santa Fe,8031,AR,Santa Fe
2800,3796,Calle 2105,,CABA,5322,AR,Buenos Aires
2801,3797,Calle 6187,Piso 2 Dto A,CABA,9954,AR,Buenos Aires
2802,3798,Calle 5016,Piso 7 Dto B,Rafaela,5327,AR,Santa Fe
2803,3799,Calle 3519,Piso 3 Dto B,La Plata,5590,AR,Buenos Aires
2804,3800,Calle 8533,Piso 2 Dto C,Mendoza,2398,AR,Mendoza
2805,3801,Calle 3074,Piso 9 Dto A,La Plata,3365,AR,Buenos Aires
2806,3802,Calle 8846,,Mar del Plata,8283,AR,Buenos Aires
2807,3803,Calle 8800,,CABA,5262,AR,Buenos Aires
2808,3804,Calle 458,,Córdoba,4249,AR,Córdoba
2809,3805,Calle 1597,Piso 2 Dto A,CABA,3768,AR,Buenos Aires
2810,3806,Calle 188,Piso 4 Dto A,La Plata,7469,AR,Buenos Aires
2811,3807,Calle 758,,La Plata,7910,AR,Buenos Aires
2812,3808,Calle 3887,,Mar del Plata,7114,AR,Buenos Aires
2813,3809,Calle 7910,Piso 12 Dto A,Mar del Plata,4039,AR,Buenos Aires
2814,3810,Calle 4620,Piso 9 Dto C,CABA,1808,AR,Buenos Aires
2815,3811,Calle 9410,,La Plata,3651,AR,Buenos Aires
2816,3812,Calle 5383,Piso 7 Dto B,Rafaela,8655,AR,Santa Fe
2817,3813,Calle 1366,Piso 7 Dto A,Mar del Plata,4779,AR,Buenos Aires
2818,3814,Calle 9325,Piso 1 Dto C,La Plata,1253,AR,Buenos Aires
2819,3815,Calle 1876,Piso 12 Dto C,La Plata,1869,AR,Buenos Aires
2820,3816,Calle 6124,,Río Cuarto,4077,AR,Córdoba
2821,3817,Calle 9496,,Mendoza,8575,AR,Mendoza
2822,3818,Calle 4041,,La Plata,7520,AR,Buenos Aires
2823,3819,Calle 2816,,Santa Fe,3854,AR,Santa Fe
2824,3820,Calle 411,Piso 9 Dto C,Mar del Plata,7010,AR,Buenos Aires
2825,3821,Calle 9888,Piso 4 Dto A,CABA,9933,AR,Buenos Aires
2826,3822,Calle 3148,,Santa Fe,1069,AR,Santa Fe
2827,3823,Calle 5346,Piso 2 Dto B,CABA,6538,AR,Buenos Aires
2828,3824,Calle 5656,,CABA,2335,AR,Buenos Aires
2829,3825,Calle 2467,,CABA,2421,AR,Buenos Aires
2830,3826,Calle 9551,,Mar del Plata,4613,AR,Buenos Aires
2831,3827,Calle 7435,Piso 2 Dto B,Rafaela,2334,AR,Santa Fe
2832,3828,Calle 536,Piso 6 Dto B,Córdoba,1933,AR,Córdoba
2833,3829,Calle 6259,,La Plata,7425,AR,Buenos Aires
2834,3830,Calle 9098,,CABA,4916,AR,Buenos Aires
2835,3831,Calle 1890,Piso 9 Dto B,La Plata,8495,AR,Buenos Aires
2836,3832,Calle 994,Piso 1 Dto B,Santa Fe,4677,AR,Santa Fe
2837,3833,Calle 9620,,Mar del Plata,2311,AR,Buenos Aires
2838,3834,Calle 3730,Piso 4 Dto A,Rosario,7884,AR,Santa Fe
2839,3835,Calle 4326,,La Plata,5951,AR,Buenos Aires
2840,3836,Calle 708,Piso 10 Dto B,Mar del Plata,4558,AR,Buenos Aires
2841,3837,Calle 6341,Piso 1 Dto B,La Plata,3657,AR,Buenos Aires
2842,3838,Calle 9563,Piso 6 Dto C,Mar del Plata,8820,AR,Buenos Aires
2843,3839,Calle 1762,Piso 1 Dto B,Rosario,7425,AR,Santa Fe
2844,3840,Calle 4751,Piso 11 Dto C,Santa Fe,7853,AR,Santa Fe
2845,3841,Calle 9262,,Mar del Plata,7347,AR,Buenos Aires
2846,3842,Calle 4397,,La Plata,1170,AR,Buenos Aires
2847,3843,Calle 6230,Piso 9 Dto B,Mar del Plata,1186,AR,Buenos Aires
2848,3844,Calle 9789,Piso 3 Dto C,Mar del Plata,2108,AR,Buenos Aires
2849,3845,Calle 8977,Piso 8 Dto A,La Plata,8220,AR,Buenos Aires
2850,3846,Calle 7675,,La Plata,7656,AR,Buenos Aires
2851,3847,Calle 7675,Piso 10 Dto A,La Plata,2142,AR,Buenos Aires
2852,3848,Calle 3906,,La Plata,7872,AR,Buenos Aires
2853,3849,Calle 6667,,CABA,5709,AR,Buenos Aires
2854,3850,Calle 3963,,CABA,4764,AR,Buenos Aires
2855,3851,Calle 6573,Piso 12 Dto A,CABA,5236,AR,Buenos Aires
2856,3852,Calle 6535,,Córdoba,4124,AR,Córdoba
2857,3853,Calle 5294,Piso 3 Dto C,La Plata,2480,AR,Buenos Aires
2858,3854,Calle 7904,,CABA,7267,AR,Buenos Aires
2859,3855,Calle 5511,Piso 5 Dto C,Mar del Plata,6581,AR,Buenos Aires
2860,3856,Calle 8525,,Mar del Plata,6932,AR,Buenos Aires
2861,3857,Calle 8674,,Mendoza,8275,AR,Mendoza
2862,3858,Calle 2163,,Santa Fe,8858,AR,Santa Fe
2863,3859,Calle 9022,Piso 9 Dto C,Santa Fe,9918,AR,Santa Fe
2864,3860,Calle 689,,CABA,3765,AR,Buenos Aires
2865,3861,Calle 7874,Piso 1 Dto A,CABA,7574,AR,Buenos Aires
2866,3862,Calle 9449,Piso 11 Dto A,San Rafael,9593,AR,Mendoza
2867,3863,Calle 8144,,Mar del Plata,5122,AR,Buenos Aires
2868,3864,Calle 5936,,Rafaela,8764,AR,Santa Fe
2869,3865,Calle 6998,,CABA,3994,AR,Buenos Aires
2870,3866,Calle 7717,Piso 1 Dto A,Córdoba,2287,AR,Córdoba
2871,3867,Calle 5116,,La Plata,3458,AR,Buenos Aires
2872,3868,Calle 60,Piso 2 Dto C,CABA,6912,AR,Buenos Aires
2873,3869,Calle 1095,Piso 7 Dto B,La Plata,3252,AR,Buenos Aires
2874,3870,Calle 6649,Piso 7 Dto A,La Plata,6235,AR,Buenos Aires
2875,3871,Calle 2804,Piso 7 Dto C,Santa Fe,5142,AR,Santa Fe
2876,3872,Calle 3766,,CABA,8885,AR,Buenos Aires
2877,3873,Calle 4790,,Godoy Cruz,4304,AR,Mendoza
2878,3874,Calle 8318,,Villa Carlos Paz,4541,AR,Córdoba
2879,3875,Calle 172,,Mar del Plata,5253,AR,Buenos Aires
2880,3876,Calle 2516,Piso 4 Dto A,Mar del Plata,8953,AR,Buenos Aires
2881,3877,Calle 8709,,Mar del Plata,8541,AR,Buenos Aires
2882,3878,Calle 1751,Piso 10 Dto B,CABA,8919,AR,Buenos Aires
2883,3879,Calle 5741,,CABA,1757,AR,Buenos Aires
2884,3880,Calle 9007,Piso 12 Dto C,Rosario,3069,AR,Santa Fe
2885,3881,Calle 9259,Piso 8 Dto A,CABA,4239,AR,Buenos Aires
2886,3882,Calle 2647,Piso 10 Dto A,Río Cuarto,9774,AR,Córdoba
2887,3883,Calle 1267,Piso 7 Dto A,Mendoza,2364,AR,Mendoza
2888,3884,Calle 7646,Piso 6 Dto B,Córdoba,2813,AR,Córdoba
2889,3885,Calle 9197,Piso 8 Dto A,Godoy Cruz,3596,AR,Mendoza
2890,3886,Calle 1307,,Mar del Plata,2148,AR,Buenos Aires
2891,3887,Calle 7698,,Mar del Plata,8114,AR,Buenos Aires
2892,3888,Calle 4868,Piso 4 Dto C,La Plata,4236,AR,Buenos Aires
2893,3889,Calle 7577,,Rafaela,7166,AR,Santa Fe
2894,3890,Calle 6654,,La Plata,9495,AR,Buenos Aires
2895,3891,Calle 9362,Piso 1 Dto A,Rafaela,9748,AR,Santa Fe
2896,3892,Calle 4801,Piso 8 Dto C,Córdoba,1828,AR,Córdoba
2897,3893,Calle 4704,,Río Cuarto,7864,AR,Córdoba
2898,3894,Calle 6803,,La Plata,7643,AR,Buenos Aires
2899,3895,Calle 2268,Piso 3 Dto B,Río Cuarto,3519,AR,Córdoba
2900,3896,Calle 3784,,Mar del Plata,5397,AR,Buenos Aires
2901,3897,Calle 5441,,San Rafael,2781,AR,Mendoza
2902,3898,Calle 2987,,Rosario,5237,AR,Santa Fe
2903,3899,Calle 6900,,Godoy Cruz,2077,AR,Mendoza
2904,3900,Calle 3650,Piso 4 Dto B,Mar del Plata,8346,AR,Buenos Aires
2905,3901,Calle 8827,Piso 11 Dto A,Mar del Plata,7836,AR,Buenos Aires
2906,3902,Calle 7810,,Godoy Cruz,1325,AR,Mendoza
2907,3903,Calle 4935,,CABA,7597,AR,Buenos Aires
2908,3904,Calle 3323,,Mar del Plata,1621,AR,Buenos Aires
2909,3905,Calle 6662,Piso 2 Dto C,La Plata,5933,AR,Buenos Aires
2910,3906,Calle 4087,Piso 12 Dto C,La Plata,6211,AR,Buenos Aires
2911,3907,Calle 4656,,Córdoba,3047,AR,Córdoba
2912,3908,Calle 2353,,Río Cuarto,8092,AR,Córdoba
2913,3909,Calle 9354,,Godoy Cruz,6009,AR,Mendoza
2914,3910,Calle 9626,Piso 1 Dto B,Villa Carlos Paz,4473,AR,Córdoba
2915,3911,Calle 5682,Piso 3 Dto C,Rafaela,4644,AR,Santa Fe
2916,3912,Calle 8372,,CABA,1322,AR,Buenos Aires
2917,3913,Calle 4073,,La Plata,1826,AR,Buenos Aires
2918,3914,Calle 5083,,Godoy Cruz,5802,AR,Mendoza
2919,3915,Calle 9340,,Mendoza,8514,AR,Mendoza
2920,3916,Calle 5683,,CABA,7549,AR,Buenos Aires
2921,3917,Calle 5352,Piso 2 Dto A,CABA,2470,AR,Buenos Aires
2922,3918,Calle 8755,Piso 8 Dto A,Godoy Cruz,1857,AR,Mendoza
2923,3919,Calle 4902,Piso 6 Dto B,Mar del Plata,2166,AR,Buenos Aires
2924,3920,Calle 6084,,Córdoba,6255,AR,Córdoba
2925,3921,Calle 7968,,CABA,5087,AR,Buenos Aires
2926,3922,Calle 3658,Piso 12 Dto C,Godoy Cruz,5160,AR,Mendoza
2927,3923,Calle 1804,Piso 6 Dto C,Villa Carlos Paz,6145,AR,Córdoba
2928,3924,Calle 6428,,CABA,9436,AR,Buenos Aires
2929,3925,Calle 4031,,Godoy Cruz,7725,AR,Mendoza
2930,3926,Calle 8790,Piso 11 Dto B,Rosario,4890,AR,Santa Fe
2931,3927,Calle 7508,Piso 7 Dto A,CABA,1680,AR,Buenos Aires
2932,3928,Calle 9947,Piso 9 Dto C,La Plata,9207,AR,Buenos Aires
2933,3929,Calle 9760,,Villa Carlos Paz,6014,AR,Córdoba
2934,3930,Calle 6922,,Río Cuarto,1621,AR,Córdoba
2935,3931,Calle 6842,,La Plata,4547,AR,Buenos Aires
2936,3932,Calle 8593,,Mar del Plata,9813,AR,Buenos Aires
2937,3933,Calle 1878,,La Plata,7678,AR,Buenos Aires
2938,3934,Calle 5773,Piso 2 Dto C,Mar del Plata,7888,AR,Buenos Aires
2939,3935,Calle 577,Piso 11 Dto C,San Rafael,6473,AR,Mendoza
2940,3936,Calle 2627,,Rafaela,9585,AR,Santa Fe
2941,3937,Calle 8000,,CABA,5757,AR,Buenos Aires
2942,3938,Calle 7506,Piso 4 Dto B,CABA,5632,AR,Buenos Aires
2943,3939,Calle 472,,CABA,7559,AR,Buenos Aires
2944,3940,Calle 9805,Piso 10 Dto C,San Rafael,2691,AR,Mendoza
2945,3941,Calle 9955,Piso 9 Dto A,La Plata,8560,AR,Buenos Aires
2946,3942,Calle 4317,Piso 10 Dto A,La Plata,7208,AR,Buenos Aires
2947,3943,Calle 7364,Piso 6 Dto A,La Plata,9051,AR,Buenos Aires
2948,3944,Calle 5806,Piso 7 Dto A,La Plata,6987,AR,Buenos Aires
2949,3945,Calle 4079,,La Plata,8190,AR,Buenos Aires
2950,3946,Calle 267,,Córdoba,6726,AR,Córdoba
2951,3947,Calle 7021,,Santa Fe,8695,AR,Santa Fe
2952,3948,Calle 302,,CABA,7201,AR,Buenos Aires
2953,3949,Calle 1774,Piso 10 Dto A,Villa Carlos Paz,2765,AR,Córdoba
2954,3950,Calle 2519,,La Plata,5302,AR,Buenos Aires
2955,3951,Calle 4753,,La Plata,1947,AR,Buenos Aires
2956,3952,Calle 8312,,CABA,4420,AR,Buenos Aires
2957,3953,Calle 3882,Piso 9 Dto C,La Plata,3213,AR,Buenos Aires
2958,3954,Calle 3516,Piso 1 Dto A,La Plata,5075,AR,Buenos Aires
2959,3955,Calle 974,,Mar del Plata,5768,AR,Buenos Aires
2960,3956,Calle 5034,,Mar del Plata,9056,AR,Buenos Aires
2961,3957,Calle 9280,Piso 11 Dto B,Mar del Plata,5447,AR,Buenos Aires
2962,3958,Calle 8389,,Rosario,6885,AR,Santa Fe
2963,3959,Calle 2569,,La Plata,8411,AR,Buenos Aires
2964,3960,Calle 69,,Córdoba,1612,AR,Córdoba
2965,3961,Calle 639,Piso 6 Dto B,La Plata,8399,AR,Buenos Aires
2966,3962,Calle 6046,,CABA,5299,AR,Buenos Aires
2967,3963,Calle 2720,Piso 9 Dto A,San Rafael,2137,AR,Mendoza
2968,3964,Calle 8885,,CABA,3082,AR,Buenos Aires
2969,3965,Calle 4513,,La Plata,7252,AR,Buenos Aires
2970,3966,Calle 2303,Piso 8 Dto B,La Plata,5617,AR,Buenos Aires
2971,3967,Calle 2372,,CABA,5113,AR,Buenos Aires
2972,3968,Calle 3136,,La Plata,8561,AR,Buenos Aires
2973,3969,Calle 6013,,La Plata,2800,AR,Buenos Aires
2974,3970,Calle 6231,,CABA,5318,AR,Buenos Aires
2975,3971,Calle 9401,Piso 7 Dto A,Córdoba,2397,AR,Córdoba
2976,3972,Calle 8215,,CABA,2670,AR,Buenos Aires
2977,3973,Calle 9819,Piso 3 Dto B,Villa Carlos Paz,7704,AR,Córdoba
2978,3974,Calle 4743,,Córdoba,5289,AR,Córdoba
2979,3975,Calle 1143,,CABA,2696,AR,Buenos Aires
2980,3976,Calle 1408,,La Plata,3565,AR,Buenos Aires
2981,3977,Calle 9622,Piso 11 Dto A,Villa Carlos Paz,6108,AR,Córdoba
2982,3978,Calle 6785,Piso 1 Dto C,La Plata,1782,AR,Buenos Aires
2983,3979,Calle 8247,,La Plata,2133,AR,Buenos Aires
2984,3980,Calle 5795,Piso 7 Dto B,La Plata,8762,AR,Buenos Aires
2985,3981,Calle 7500,Piso 6 Dto C,Mendoza,5403,AR,Mendoza
2986,3982,Calle 448,Piso 4 Dto A,La Plata,5350,AR,Buenos Aires
2987,3983,Calle 8606,,Río Cuarto,5045,AR,Córdoba
2988,3984,Calle 4734,Piso 2 Dto A,Villa Carlos Paz,5922,AR,Córdoba
2989,3985,Calle 278,Piso 4 Dto A,La Plata,8387,AR,Buenos Aires
2990,3986,Calle 9119,Piso 1 Dto B,CABA,7497,AR,Buenos Aires
2991,3987,Calle 1331,Piso 1 Dto C,CABA,6444,AR,Buenos Aires
2992,3988,Calle 2716,Piso 6 Dto A,CABA,1613,AR,Buenos Aires
2993,3989,Calle 1007,Piso 5 Dto B,Mendoza,9536,AR,Mendoza
2994,3990,Calle 9199,Piso 7 Dto C,La Plata,9335,AR,Buenos Aires
2995,3991,Calle 199,Piso 11 Dto A,La Plata,2745,AR,Buenos Aires
2996,3992,Calle 7677,Piso 1 Dto A,Godoy Cruz,8967,AR,Mendoza
2997,3993,Calle 9407,,Villa Carlos Paz,4309,AR,Córdoba
2998,3994,Calle 1813,,CABA,7932,AR,Buenos Aires
2999,3995,Calle 388,Piso 3 Dto A,Godoy Cruz,5695,AR,Mendoza
3000,3996,Calle 5476,Piso 10 Dto B,La Plata,5576,AR,Buenos Aires
3001,3997,Calle 8504,Piso 5 Dto C,Mar del Plata,6610,AR,Buenos Aires
3002,3998,Calle 9299,,Mendoza,4458,AR,Mendoza
3003,3999,Calle 908,,CABA,7303,AR,Buenos Aires
3004,4000,Calle 6323,Piso 12 Dto A,Mendoza,8477,AR,Mendoza
3005,4001,Calle 3547,Piso 10 Dto B,La Plata,3535,AR,Buenos Aires
3006,4002,Calle 2495,Piso 4 Dto C,Mar del Plata,9618,AR,Buenos Aires
3007,4003,Calle 3992,Piso 10 Dto A,Rafaela,7357,AR,Santa Fe
3008,4004,Calle 4273,,CABA,5480,AR,Buenos Aires
3009,4005,Calle 9978,,Santa Fe,8052,AR,Santa Fe
3010,4006,Calle 1660,Piso 8 Dto A,Mar del Plata,8577,AR,Buenos Aires
3011,4007,Calle 1990,Piso 7 Dto A,Mar del Plata,1401,AR,Buenos Aires
3012,4008,Calle 9131,Piso 10 Dto A,Río Cuarto,5308,AR,Córdoba
3013,4009,Calle 9709,Piso 9 Dto C,CABA,1255,AR,Buenos Aires
3014,4010,Calle 5369,,San Rafael,4781,AR,Mendoza
3015,4011,Calle 7790,Piso 12 Dto A,CABA,7513,AR,Buenos Aires
3016,4012,Calle 9902,Piso 11 Dto A,CABA,1390,AR,Buenos Aires
3017,4013,Calle 117,,CABA,2820,AR,Buenos Aires
3018,4014,Calle 6949,,La Plata,8531,AR,Buenos Aires
3019,4015,Calle 8426,,Villa Carlos Paz,4784,AR,Córdoba
3020,4016,Calle 9111,,Mar del Plata,9697,AR,Buenos Aires
3021,4017,Calle 9388,Piso 10 Dto A,Villa Carlos Paz,8832,AR,Córdoba
3022,4018,Calle 1206,Piso 1 Dto B,CABA,9670,AR,Buenos Aires
3023,4019,Calle 4015,Piso 11 Dto B,La Plata,6193,AR,Buenos Aires
3024,4020,Calle 2072,,CABA,3288,AR,Buenos Aires
3025,4021,Calle 8623,Piso 12 Dto B,CABA,2991,AR,Buenos Aires
3026,4022,Calle 3660,,Mar del Plata,7774,AR,Buenos Aires
3027,4023,Calle 7150,Piso 10 Dto A,Rafaela,9302,AR,Santa Fe
3028,4024,Calle 9986,Piso 10 Dto A,Mar del Plata,8576,AR,Buenos Aires
3029,4025,Calle 2415,,CABA,4737,AR,Buenos Aires
3030,4026,Calle 8744,Piso 3 Dto C,Mendoza,8441,AR,Mendoza
3031,4027,Calle 3939,Piso 8 Dto C,Mar del Plata,6257,AR,Buenos Aires
3032,4028,Calle 3032,Piso 10 Dto B,Godoy Cruz,5229,AR,Mendoza
3033,4029,Calle 4069,Piso 12 Dto C,Villa Carlos Paz,9882,AR,Córdoba
3034,4030,Calle 1219,,CABA,1759,AR,Buenos Aires
3035,4031,Calle 8516,Piso 1 Dto B,Mar del Plata,8846,AR,Buenos Aires
3036,4032,Calle 5698,,Santa Fe,7367,AR,Santa Fe
3037,4033,Calle 7847,,Rafaela,6838,AR,Santa Fe
3038,4034,Calle 4366,Piso 7 Dto A,Córdoba,3757,AR,Córdoba
3039,4035,Calle 6502,,Mar del Plata,4544,AR,Buenos Aires
3040,4036,Calle 4866,,Mar del Plata,3870,AR,Buenos Aires
3041,4037,Calle 9658,Piso 10 Dto B,Mar del Plata,4725,AR,Buenos Aires
3042,4038,Calle 3205,Piso 10 Dto B,San Rafael,6174,AR,Mendoza
3043,4039,Calle 2393,Piso 5 Dto C,Mar del Plata,5414,AR,Buenos Aires
3044,4040,Calle 3549,,La Plata,4578,AR,Buenos Aires
3045,4041,Calle 6439,Piso 11 Dto B,La Plata,2705,AR,Buenos Aires
3046,4042,Calle 4779,,Mar del Plata,4407,AR,Buenos Aires
3047,4043,Calle 704,,Rafaela,1525,AR,Santa Fe
3048,4044,Calle 2722,,Río Cuarto,9376,AR,Córdoba
3049,4045,Calle 1813,,CABA,2363,AR,Buenos Aires
3050,4046,Calle 6993,Piso 6 Dto B,Córdoba,3446,AR,Córdoba
3051,4047,Calle 108,Piso 2 Dto C,CABA,1368,AR,Buenos Aires
3052,4048,Calle 7700,,Mar del Plata,8157,AR,Buenos Aires
3053,4049,Calle 7044,Piso 4 Dto C,Mar del Plata,6345,AR,Buenos Aires
3054,4050,Calle 5362,,Mar del Plata,1319,AR,Buenos Aires
3055,4051,Calle 531,Piso 9 Dto A,Mendoza,9810,AR,Mendoza
3056,4052,Calle 7034,,Córdoba,1210,AR,Córdoba
3057,4053,Calle 2206,Piso 3 Dto A,La Plata,1627,AR,Buenos Aires
3058,4054,Calle 3784,,Río Cuarto,5451,AR,Córdoba
3059,4055,Calle 4500,Piso 4 Dto B,Rafaela,4353,AR,Santa Fe
3060,4056,Calle 2320,,San Rafael,7808,AR,Mendoza
3061,4057,Calle 6985,Piso 10 Dto B,La Plata,6006,AR,Buenos Aires
3062,4058,Calle 4166,Piso 6 Dto B,CABA,2053,AR,Buenos Aires
3063,4059,Calle 6406,Piso 5 Dto C,La Plata,1070,AR,Buenos Aires
3064,4060,Calle 4754,,Villa Carlos Paz,2635,AR,Córdoba
3065,4061,Calle 8025,,Córdoba,7764,AR,Córdoba
3066,4062,Calle 2124,,Mar del Plata,6876,AR,Buenos Aires
3067,4063,Calle 9992,Piso 7 Dto C,CABA,2617,AR,Buenos Aires
3068,4064,Calle 5430,,CABA,3664,AR,Buenos Aires
3069,4065,Calle 787,,Río Cuarto,8471,AR,Córdoba
3070,4066,Calle 5732,,Córdoba,6014,AR,Córdoba
3071,4067,Calle 5569,,Mendoza,6965,AR,Mendoza
3072,4068,Calle 1898,Piso 6 Dto A,Rosario,6232,AR,Santa Fe
3073,4069,Calle 7586,,Córdoba,7584,AR,Córdoba
3074,4070,Calle 4528,,La Plata,4898,AR,Buenos Aires
3075,4071,Calle 8744,Piso 9 Dto A,La Plata,2928,AR,Buenos Aires
3076,4072,Calle 2151,,La Plata,7028,AR,Buenos Aires
3077,4073,Calle 5972,,Godoy Cruz,6340,AR,Mendoza
3078,4074,Calle 5263,,Villa Carlos Paz,2752,AR,Córdoba
3079,4075,Calle 8983,Piso 4 Dto A,Rafaela,6428,AR,Santa Fe
3080,4076,Calle 7245,,CABA,2437,AR,Buenos Aires
3081,4077,Calle 5844,Piso 9 Dto C,Mar del Plata,1638,AR,Buenos Aires
3082,4078,Calle 2751,,Rafaela,4300,AR,Santa Fe
3083,4079,Calle 6160,,Río Cuarto,5461,AR,Córdoba
3084,4080,Calle 1153,,Mar del Plata,1115,AR,Buenos Aires
3085,4081,Calle 1915,Piso 12 Dto A,CABA,3074,AR,Buenos Aires
3086,4082,Calle 6455,,La Plata,9533,AR,Buenos Aires
3087,4083,Calle 5780,Piso 3 Dto C,Río Cuarto,9390,AR,Córdoba
3088,4084,Calle 8948,Piso 5 Dto A,CABA,7486,AR,Buenos Aires
3089,4085,Calle 141,Piso 11 Dto A,Mar del Plata,4886,AR,Buenos Aires
3090,4086,Calle 9542,Piso 10 Dto C,Río Cuarto,5533,AR,Córdoba
3091,4087,Calle 4140,,Mar del Plata,1708,AR,Buenos Aires
3092,4088,Calle 6981,Piso 3 Dto B,CABA,5666,AR,Buenos Aires
3093,4089,Calle 5811,Piso 10 Dto A,La Plata,1507,AR,Buenos Aires
3094,4090,Calle 8445,Piso 4 Dto C,Mar del Plata,1887,AR,Buenos Aires
3095,4091,Calle 9377,Piso 7 Dto B,Rafaela,8380,AR,Santa Fe
3096,4092,Calle 8141,,Rafaela,7199,AR,Santa Fe
3097,4093,Calle 5024,Piso 11 Dto A,CABA,4449,AR,Buenos Aires
3098,4094,Calle 1604,Piso 11 Dto B,San Rafael,7355,AR,Mendoza
3099,4095,Calle 3168,,Rafaela,1042,AR,Santa Fe
3100,4096,Calle 6356,,CABA,4125,AR,Buenos Aires
3101,4097,Calle 5269,,Río Cuarto,4098,AR,Córdoba
3102,4098,Calle 5572,Piso 3 Dto C,Río Cuarto,1708,AR,Córdoba
3103,4099,Calle 6433,,CABA,8513,AR,Buenos Aires
3104,4100,Calle 5424,Piso 2 Dto B,Mar del Plata,3553,AR,Buenos Aires
3105,4101,Calle 3087,,Córdoba,5388,AR,Córdoba
3106,4102,Calle 6945,,La Plata,4981,AR,Buenos Aires
3107,4103,Calle 7398,,La Plata,1670,AR,Buenos Aires
3108,4104,Calle 1207,Piso 4 Dto B,La Plata,5349,AR,Buenos Aires
3109,4105,Calle 6417,,Villa Carlos Paz,5084,AR,Córdoba
3110,4106,Calle 7826,,Mendoza,7856,AR,Mendoza
3111,4107,Calle 6640,,Mar del Plata,3448,AR,Buenos Aires
3112,4108,Calle 433,Piso 6 Dto B,Río Cuarto,5641,AR,Córdoba
3113,4109,Calle 4069,Piso 11 Dto A,Villa Carlos Paz,7078,AR,Córdoba
3114,4110,Calle 9514,,La Plata,7682,AR,Buenos Aires
3115,4111,Calle 109,Piso 8 Dto B,Villa Carlos Paz,9829,AR,Córdoba
3116,4112,Calle 3803,Piso 11 Dto A,Mendoza,7716,AR,Mendoza
3117,4113,Calle 1012,Piso 5 Dto C,Río Cuarto,1579,AR,Córdoba
3118,4114,Calle 4001,Piso 7 Dto C,Mar del Plata,3328,AR,Buenos Aires
3119,4115,Calle 285,,Rafaela,3452,AR,Santa Fe
3120,4116,Calle 5525,Piso 11 Dto A,Villa Carlos Paz,2706,AR,Córdoba
3121,4117,Calle 7073,,Rosario,2099,AR,Santa Fe
3122,4118,Calle 634,,Córdoba,5142,AR,Córdoba
3123,4119,Calle 7151,,Villa Carlos Paz,2876,AR,Córdoba
3124,4120,Calle 9032,,CABA,4788,AR,Buenos Aires
3125,4121,Calle 9470,,Córdoba,2842,AR,Córdoba
3126,4122,Calle 408,,Rosario,3839,AR,Santa Fe
3127,4123,Calle 9163,,CABA,8590,AR,Buenos Aires
3128,4124,Calle 7439,Piso 1 Dto B,Córdoba,6310,AR,Córdoba
3129,4125,Calle 7290,,Río Cuarto,2018,AR,Córdoba
3130,4126,Calle 8496,,CABA,2296,AR,Buenos Aires
3131,4127,Calle 9068,Piso 1 Dto B,Mar del Plata,7815,AR,Buenos Aires
3132,4128,Calle 5310,Piso 3 Dto C,Mar del Plata,9045,AR,Buenos Aires
3133,4129,Calle 6832,Piso 12 Dto A,Mar del Plata,5346,AR,Buenos Aires
3134,4130,Calle 4212,Piso 6 Dto A,Mar del Plata,8553,AR,Buenos Aires
3135,4131,Calle 4106,Piso 8 Dto B,La Plata,1230,AR,Buenos Aires
3136,4132,Calle 9929,Piso 5 Dto B,Mar del Plata,8840,AR,Buenos Aires
3137,4133,Calle 7111,Piso 2 Dto A,CABA,3509,AR,Buenos Aires
3138,4134,Calle 8560,,La Plata,9399,AR,Buenos Aires
3139,4135,Calle 1167,Piso 12 Dto C,Rafaela,5213,AR,Santa Fe
3140,4136,Calle 5597,,CABA,9453,AR,Buenos Aires
3141,4137,Calle 6518,,La Plata,4297,AR,Buenos Aires
3142,4138,Calle 6577,Piso 7 Dto B,Río Cuarto,7024,AR,Córdoba
3143,4139,Calle 8581,,Mar del Plata,5300,AR,Buenos Aires
3144,4140,Calle 3904,Piso 6 Dto C,Villa Carlos Paz,2363,AR,Córdoba
3145,4141,Calle 9451,Piso 10 Dto A,Rosario,1323,AR,Santa Fe
3146,4142,Calle 1942,Piso 8 Dto A,Mar del Plata,8960,AR,Buenos Aires
3147,4143,Calle 7857,,CABA,1898,AR,Buenos Aires
3148,4144,Calle 4670,Piso 4 Dto A,Rosario,9977,AR,Santa Fe
3149,4145,Calle 6215,,Río Cuarto,5811,AR,Córdoba
3150,4146,Calle 5367,,CABA,1008,AR,Buenos Aires
3151,4147,Calle 1739,Piso 8 Dto C,Córdoba,1460,AR,Córdoba
3152,4148,Calle 2435,Piso 6 Dto C,CABA,8758,AR,Buenos Aires
3153,4149,Calle 3763,,Río Cuarto,1536,AR,Córdoba
3154,4150,Calle 2821,Piso 10 Dto B,Mar del Plata,8755,AR,Buenos Aires
3155,4151,Calle 5469,Piso 11 Dto A,Río Cuarto,6264,AR,Córdoba
3156,4152,Calle 2737,Piso 6 Dto A,Villa Carlos Paz,5225,AR,Córdoba
3157,4153,Calle 6627,Piso 5 Dto A,CABA,4460,AR,Buenos Aires
3158,4154,Calle 6003,,Mar del Plata,8513,AR,Buenos Aires
3159,4155,Calle 6480,Piso 12 Dto C,Santa Fe,7214,AR,Santa Fe
3160,4156,Calle 6173,Piso 1 Dto C,Mar del Plata,6627,AR,Buenos Aires
3161,4157,Calle 4935,,Santa Fe,6950,AR,Santa Fe
3162,4158,Calle 6406,,Mar del Plata,5506,AR,Buenos Aires
3163,4159,Calle 8447,Piso 1 Dto A,Córdoba,9246,AR,Córdoba
3164,4160,Calle 740,Piso 11 Dto B,Mar del Plata,5185,AR,Buenos Aires
3165,4161,Calle 9463,,Mar del Plata,3992,AR,Buenos Aires
3166,4162,Calle 5200,,CABA,2592,AR,Buenos Aires
3167,4163,Calle 8489,,CABA,9752,AR,Buenos Aires
3168,4164,Calle 8384,Piso 10 Dto C,La Plata,4643,AR,Buenos Aires
3169,4165,Calle 9452,,La Plata,1857,AR,Buenos Aires
3170,4166,Calle 4506,,Córdoba,1653,AR,Córdoba
3171,4167,Calle 4337,Piso 3 Dto B,La Plata,3199,AR,Buenos Aires
3172,4168,Calle 4858,Piso 9 Dto A,La Plata,9979,AR,Buenos Aires
3173,4169,Calle 1053,Piso 5 Dto B,Córdoba,9844,AR,Córdoba
3174,4170,Calle 81,,La Plata,8465,AR,Buenos Aires
3175,4171,Calle 4130,,Mar del Plata,2320,AR,Buenos Aires
3176,4172,Calle 3001,,La Plata,5447,AR,Buenos Aires
3177,4173,Calle 2965,Piso 7 Dto B,Rafaela,9248,AR,Santa Fe
3178,4174,Calle 9662,Piso 9 Dto C,Villa Carlos Paz,8710,AR,Córdoba
3179,4175,Calle 8401,Piso 5 Dto B,La Plata,2134,AR,Buenos Aires
3180,4176,Calle 2232,,CABA,7814,AR,Buenos Aires
3181,4177,Calle 7127,Piso 3 Dto C,Río Cuarto,6453,AR,Córdoba
3182,4178,Calle 3421,,San Rafael,9453,AR,Mendoza
3183,4179,Calle 8651,Piso 5 Dto B,La Plata,4971,AR,Buenos Aires
3184,4180,Calle 5726,,Río Cuarto,6900,AR,Córdoba
3185,4181,Calle 2230,,Villa Carlos Paz,2017,AR,Córdoba
3186,4182,Calle 5494,,La Plata,6178,AR,Buenos Aires
3187,4183,Calle 2152,Piso 12 Dto A,CABA,5907,AR,Buenos Aires
3188,4184,Calle 7209,Piso 11 Dto A,CABA,2104,AR,Buenos Aires
3189,4185,Calle 2654,Piso 5 Dto B,Mar del Plata,6769,AR,Buenos Aires
3190,4186,Calle 1723,,CABA,4435,AR,Buenos Aires
3191,4187,Calle 8922,Piso 3 Dto C,Villa Carlos Paz,9840,AR,Córdoba
3192,4188,Calle 1271,Piso 6 Dto C,Godoy Cruz,6680,AR,Mendoza
3193,4189,Calle 6172,Piso 4 Dto B,La Plata,6342,AR,Buenos Aires
3194,4190,Calle 2708,,CABA,6547,AR,Buenos Aires
3195,4191,Calle 8574,Piso 12 Dto C,CABA,8090,AR,Buenos Aires
3196,4192,Calle 4465,Piso 7 Dto C,Godoy Cruz,3877,AR,Mendoza
3197,4193,Calle 8727,,CABA,6379,AR,Buenos Aires
3198,4194,Calle 3609,Piso 11 Dto A,CABA,2493,AR,Buenos Aires
3199,4195,Calle 275,Piso 4 Dto B,CABA,9568,AR,Buenos Aires
3200,4196,Calle 7251,Piso 12 Dto B,Mendoza,3231,AR,Mendoza
3201,4197,Calle 5537,,San Rafael,9670,AR,Mendoza
3202,4198,Calle 3985,Piso 3 Dto A,Córdoba,8353,AR,Córdoba
3203,4199,Calle 7171,,La Plata,7663,AR,Buenos Aires
3204,4200,Calle 3636,Piso 5 Dto C,Córdoba,7033,AR,Córdoba
